{
  "type": "FeatureCollection",
  "features": [
    {
      "type": "Feature",
      "properties": {
        "NAME": "Silla",
        "name": "Silla",
        "color": "#ef4444",
        "fill": "#ef4444",
        "fill-opacity": 0.5,
        "stroke": "#ef4444",
        "stroke-width": 2,
        "originalType": "polygon",
        "CODE": "1"
      },
      "geometry": {
        "type": "Polygon",
        "coordinates": [
          [
            [
              126.962396,
              39.502188
            ],
            [
              127.006351,
              39.485238
            ],
            [
              127.050306,
              39.468283
            ],
            [
              127.116239,
              39.468283
            ],
            [
              127.160194,
              39.485238
            ],
            [
              127.204148,
              39.502188
            ],
            [
              127.248103,
              39.485238
            ],
            [
              127.314036,
              39.468283
            ],
            [
              127.357991,
              39.451325
            ],
            [
              127.423923,
              39.451325
            ],
            [
              127.467878,
              39.434363
            ],
            [
              127.489855,
              39.400425
            ],
            [
              127.511833,
              39.366472
            ],
            [
              127.555788,
              39.349488
            ],
            [
              127.53381,
              39.31551
            ],
            [
              127.53381,
              39.264511
            ],
            [
              127.511833,
              39.230491
            ],
            [
              127.489855,
              39.196455
            ],
            [
              127.511833,
              39.162402
            ],
            [
              127.53381,
              39.128333
            ],
            [
              127.599743,
              39.128333
            ],
            [
              127.643698,
              39.111292
            ],
            [
              127.687652,
              39.077198
            ],
            [
              127.731607,
              39.060144
            ],
            [
              127.775562,
              39.026026
            ],
            [
              127.819517,
              39.00896
            ],
            [
              127.863472,
              38.974817
            ],
            [
              127.907427,
              38.957739
            ],
            [
              127.951382,
              38.940657
            ],
            [
              127.995337,
              38.92357
            ],
            [
              128.039292,
              38.889386
            ],
            [
              128.061269,
              38.855185
            ],
            [
              128.105224,
              38.838078
            ],
            [
              128.149179,
              38.820967
            ],
            [
              128.171156,
              38.786733
            ],
            [
              128.237089,
              38.786733
            ],
            [
              128.259066,
              38.752482
            ],
            [
              128.281044,
              38.718216
            ],
            [
              128.324999,
              38.701076
            ],
            [
              128.346976,
              38.666784
            ],
            [
              128.390931,
              38.649632
            ],
            [
              128.412908,
              38.615316
            ],
            [
              128.434886,
              38.580983
            ],
            [
              128.434886,
              38.529454
            ],
            [
              128.456863,
              38.49508
            ],
            [
              128.478841,
              38.46069
            ],
            [
              128.500818,
              38.426283
            ],
            [
              128.522796,
              38.374643
            ],
            [
              128.522796,
              38.322965
            ],
            [
              128.544773,
              38.288493
            ],
            [
              128.566751,
              38.254005
            ],
            [
              128.610705,
              38.2195
            ],
            [
              128.65466,
              38.184979
            ],
            [
              128.698615,
              38.167712
            ],
            [
              128.720593,
              38.133166
            ],
            [
              128.74257,
              38.098604
            ],
            [
              128.764548,
              38.064026
            ],
            [
              128.786525,
              38.029431
            ],
            [
              128.808502,
              37.99482
            ],
            [
              128.852457,
              37.977508
            ],
            [
              128.896412,
              37.942872
            ],
            [
              128.91839,
              37.90822
            ],
            [
              128.940367,
              37.873552
            ],
            [
              128.962345,
              37.838868
            ],
            [
              128.962345,
              37.78681
            ],
            [
              128.984322,
              37.752084
            ],
            [
              128.984322,
              37.699966
            ],
            [
              128.984322,
              37.64781
            ],
            [
              129.0063,
              37.61302
            ],
            [
              129.028277,
              37.578213
            ],
            [
              129.050254,
              37.54339
            ],
            [
              129.094209,
              37.525972
            ],
            [
              129.116187,
              37.473695
            ],
            [
              129.138164,
              37.438823
            ],
            [
              129.182119,
              37.42138
            ],
            [
              129.226074,
              37.386484
            ],
            [
              129.270029,
              37.36903
            ],
            [
              129.335961,
              37.351571
            ],
            [
              129.313984,
              37.316643
            ],
            [
              129.313984,
              37.264219
            ],
            [
              129.335961,
              37.229249
            ],
            [
              129.357939,
              37.194264
            ],
            [
              129.379916,
              37.159262
            ],
            [
              129.401894,
              37.124244
            ],
            [
              129.423871,
              37.089209
            ],
            [
              129.445849,
              37.054159
            ],
            [
              129.467826,
              37.019092
            ],
            [
              129.467826,
              36.966462
            ],
            [
              129.489804,
              36.931355
            ],
            [
              129.489804,
              36.878663
            ],
            [
              129.489804,
              36.825936
            ],
            [
              129.511781,
              36.790764
            ],
            [
              129.511781,
              36.737976
            ],
            [
              129.511781,
              36.685152
            ],
            [
              129.511781,
              36.632291
            ],
            [
              129.511781,
              36.579394
            ],
            [
              129.511781,
              36.526461
            ],
            [
              129.511781,
              36.473491
            ],
            [
              129.511781,
              36.420485
            ],
            [
              129.511781,
              36.367443
            ],
            [
              129.511781,
              36.314365
            ],
            [
              129.489804,
              36.27896
            ],
            [
              129.467826,
              36.243538
            ],
            [
              129.467826,
              36.190376
            ],
            [
              129.467826,
              36.137177
            ],
            [
              129.489804,
              36.101691
            ],
            [
              129.489804,
              36.048433
            ],
            [
              129.511781,
              36.012907
            ],
            [
              129.533758,
              35.977365
            ],
            [
              129.555736,
              35.941807
            ],
            [
              129.599691,
              35.924022
            ],
            [
              129.599691,
              35.870643
            ],
            [
              129.599691,
              35.817228
            ],
            [
              129.577713,
              35.781599
            ],
            [
              129.533758,
              35.763778
            ],
            [
              129.489804,
              35.728124
            ],
            [
              129.445849,
              35.710291
            ],
            [
              129.423871,
              35.674613
            ],
            [
              129.423871,
              35.728124
            ],
            [
              129.445849,
              35.763778
            ],
            [
              129.467826,
              35.728124
            ],
            [
              129.467826,
              35.674613
            ],
            [
              129.467826,
              35.621067
            ],
            [
              129.467826,
              35.567484
            ],
            [
              129.467826,
              35.513866
            ],
            [
              129.511781,
              35.460212
            ],
            [
              129.511781,
              35.406522
            ],
            [
              129.511781,
              35.352796
            ],
            [
              129.467826,
              35.33488
            ],
            [
              129.423871,
              35.299035
            ],
            [
              129.357939,
              35.281106
            ],
            [
              129.313984,
              35.263174
            ],
            [
              129.270029,
              35.245237
            ],
            [
              129.204097,
              35.245237
            ],
            [
              129.160142,
              35.227297
            ],
            [
              129.116187,
              35.209353
            ],
            [
              129.072232,
              35.191404
            ],
            [
              129.028277,
              35.173452
            ],
            [
              128.984322,
              35.155496
            ],
            [
              128.940367,
              35.137536
            ],
            [
              128.91839,
              35.101604
            ],
            [
              128.874435,
              35.083632
            ],
            [
              128.852457,
              35.047676
            ],
            [
              128.808502,
              35.029692
            ],
            [
              128.786525,
              34.993712
            ],
            [
              128.74257,
              34.957716
            ],
            [
              128.720593,
              34.921705
            ],
            [
              128.698615,
              34.867658
            ],
            [
              128.65466,
              34.831607
            ],
            [
              128.588728,
              34.849635
            ],
            [
              128.544773,
              34.885678
            ],
            [
              128.478841,
              34.885678
            ],
            [
              128.434886,
              34.903693
            ],
            [
              128.368953,
              34.903693
            ],
            [
              128.324999,
              34.921705
            ],
            [
              128.259066,
              34.921705
            ],
            [
              128.193134,
              34.921705
            ],
            [
              128.127201,
              34.903693
            ],
            [
              128.061269,
              34.903693
            ],
            [
              128.017314,
              34.885678
            ],
            [
              127.973359,
              34.867658
            ],
            [
              127.929404,
              34.849635
            ],
            [
              127.907427,
              34.813576
            ],
            [
              127.885449,
              34.777501
            ],
            [
              127.863472,
              34.741411
            ],
            [
              127.863472,
              34.687246
            ],
            [
              127.841495,
              34.651116
            ],
            [
              127.79754,
              34.61497
            ],
            [
              127.753585,
              34.596892
            ],
            [
              127.687652,
              34.596892
            ],
            [
              127.62172,
              34.596892
            ],
            [
              127.555788,
              34.596892
            ],
            [
              127.511833,
              34.578809
            ],
            [
              127.4459,
              34.578809
            ],
            [
              127.401946,
              34.560723
            ],
            [
              127.357991,
              34.542632
            ],
            [
              127.292058,
              34.524538
            ],
            [
              127.248103,
              34.506439
            ],
            [
              127.204148,
              34.524538
            ],
            [
              127.160194,
              34.560723
            ],
            [
              127.138216,
              34.596892
            ],
            [
              127.116239,
              34.651116
            ],
            [
              127.116239,
              34.705305
            ],
            [
              127.050306,
              34.705305
            ],
            [
              126.984374,
              34.705305
            ],
            [
              126.962396,
              34.651116
            ],
            [
              126.918442,
              34.633045
            ],
            [
              126.896464,
              34.596892
            ],
            [
              126.852509,
              34.578809
            ],
            [
              126.830532,
              34.542632
            ],
            [
              126.786577,
              34.524538
            ],
            [
              126.720644,
              34.524538
            ],
            [
              126.654712,
              34.524538
            ],
            [
              126.58878,
              34.524538
            ],
            [
              126.544825,
              34.506439
            ],
            [
              126.50087,
              34.542632
            ],
            [
              126.434938,
              34.524538
            ],
            [
              126.390983,
              34.506439
            ],
            [
              126.32505,
              34.506439
            ],
            [
              126.281095,
              34.524538
            ],
            [
              126.215163,
              34.542632
            ],
            [
              126.171208,
              34.560723
            ],
            [
              126.149231,
              34.596892
            ],
            [
              126.127253,
              34.633045
            ],
            [
              126.083298,
              34.669183
            ],
            [
              126.061321,
              34.705305
            ],
            [
              126.083298,
              34.741411
            ],
            [
              126.127253,
              34.759458
            ],
            [
              126.171208,
              34.777501
            ],
            [
              126.215163,
              34.79554
            ],
            [
              126.259118,
              34.813576
            ],
            [
              126.281095,
              34.849635
            ],
            [
              126.32505,
              34.867658
            ],
            [
              126.347028,
              34.903693
            ],
            [
              126.369005,
              34.939713
            ],
            [
              126.41296,
              34.975716
            ],
            [
              126.434938,
              35.011704
            ],
            [
              126.434938,
              35.065655
            ],
            [
              126.434938,
              35.119572
            ],
            [
              126.434938,
              35.173452
            ],
            [
              126.41296,
              35.209353
            ],
            [
              126.434938,
              35.245237
            ],
            [
              126.478893,
              35.263174
            ],
            [
              126.50087,
              35.299035
            ],
            [
              126.50087,
              35.352796
            ],
            [
              126.544825,
              35.370709
            ],
            [
              126.58878,
              35.388617
            ],
            [
              126.610757,
              35.424422
            ],
            [
              126.610757,
              35.4781
            ],
            [
              126.58878,
              35.513866
            ],
            [
              126.566802,
              35.549615
            ],
            [
              126.544825,
              35.585349
            ],
            [
              126.544825,
              35.63892
            ],
            [
              126.566802,
              35.674613
            ],
            [
              126.58878,
              35.710291
            ],
            [
              126.610757,
              35.745953
            ],
            [
              126.632735,
              35.781599
            ],
            [
              126.632735,
              35.835037
            ],
            [
              126.610757,
              35.870643
            ],
            [
              126.58878,
              35.906233
            ],
            [
              126.566802,
              35.941807
            ],
            [
              126.566802,
              35.995138
            ],
            [
              126.566802,
              36.048433
            ],
            [
              126.566802,
              36.101691
            ],
            [
              126.58878,
              36.137177
            ],
            [
              126.566802,
              36.172647
            ],
            [
              126.522847,
              36.208101
            ],
            [
              126.522847,
              36.261251
            ],
            [
              126.544825,
              36.296665
            ],
            [
              126.566802,
              36.332062
            ],
            [
              126.544825,
              36.367443
            ],
            [
              126.50087,
              36.385128
            ],
            [
              126.456915,
              36.420485
            ],
            [
              126.434938,
              36.455827
            ],
            [
              126.41296,
              36.491152
            ],
            [
              126.41296,
              36.544109
            ],
            [
              126.41296,
              36.59703
            ],
            [
              126.369005,
              36.614663
            ],
            [
              126.32505,
              36.632291
            ],
            [
              126.303073,
              36.667535
            ],
            [
              126.259118,
              36.685152
            ],
            [
              126.237141,
              36.720372
            ],
            [
              126.215163,
              36.755576
            ],
            [
              126.215163,
              36.808352
            ],
            [
              126.193186,
              36.843516
            ],
            [
              126.215163,
              36.878663
            ],
            [
              126.237141,
              36.913795
            ],
            [
              126.259118,
              36.94891
            ],
            [
              126.32505,
              36.94891
            ],
            [
              126.369005,
              36.966462
            ],
            [
              126.41296,
              36.984009
            ],
            [
              126.478893,
              36.984009
            ],
            [
              126.522847,
              37.001553
            ],
            [
              126.58878,
              37.001553
            ],
            [
              126.654712,
              37.001553
            ],
            [
              126.698667,
              37.019092
            ],
            [
              126.764599,
              37.019092
            ],
            [
              126.808554,
              37.036628
            ],
            [
              126.808554,
              37.089209
            ],
            [
              126.808554,
              37.159262
            ],
            [
              126.786577,
              37.194264
            ],
            [
              126.786577,
              37.246736
            ],
            [
              126.764599,
              37.281697
            ],
            [
              126.742622,
              37.316643
            ],
            [
              126.742622,
              37.36903
            ],
            [
              126.720644,
              37.403934
            ],
            [
              126.67669,
              37.42138
            ],
            [
              126.632735,
              37.438823
            ],
            [
              126.58878,
              37.456261
            ],
            [
              126.544825,
              37.491124
            ],
            [
              126.50087,
              37.525972
            ],
            [
              126.478893,
              37.560803
            ],
            [
              126.478893,
              37.61302
            ],
            [
              126.522847,
              37.64781
            ],
            [
              126.522847,
              37.699966
            ],
            [
              126.50087,
              37.734716
            ],
            [
              126.478893,
              37.769449
            ],
            [
              126.456915,
              37.804167
            ],
            [
              126.41296,
              37.821519
            ],
            [
              126.347028,
              37.821519
            ],
            [
              126.281095,
              37.821519
            ],
            [
              126.215163,
              37.821519
            ],
            [
              126.149231,
              37.821519
            ],
            [
              126.083298,
              37.838868
            ],
            [
              126.017366,
              37.838868
            ],
            [
              125.951434,
              37.838868
            ],
            [
              125.907479,
              37.873552
            ],
            [
              125.863524,
              37.890888
            ],
            [
              125.819569,
              37.90822
            ],
            [
              125.753637,
              37.90822
            ],
            [
              125.709682,
              37.890888
            ],
            [
              125.665727,
              37.873552
            ],
            [
              125.643749,
              37.838868
            ],
            [
              125.599794,
              37.821519
            ],
            [
              125.55584,
              37.804167
            ],
            [
              125.511885,
              37.78681
            ],
            [
              125.46793,
              37.821519
            ],
            [
              125.423975,
              37.838868
            ],
            [
              125.38002,
              37.856212
            ],
            [
              125.336065,
              37.873552
            ],
            [
              125.29211,
              37.890888
            ],
            [
              125.248155,
              37.90822
            ],
            [
              125.226178,
              37.942872
            ],
            [
              125.160245,
              37.942872
            ],
            [
              125.138268,
              37.977508
            ],
            [
              125.138268,
              38.029431
            ],
            [
              125.160245,
              38.064026
            ],
            [
              125.138268,
              38.098604
            ],
            [
              125.072336,
              38.115887
            ],
            [
              125.006403,
              38.115887
            ],
            [
              124.962448,
              38.133166
            ],
            [
              124.896516,
              38.133166
            ],
            [
              124.852561,
              38.115887
            ],
            [
              124.786629,
              38.115887
            ],
            [
              124.786629,
              38.167712
            ],
            [
              124.786629,
              38.2195
            ],
            [
              124.808606,
              38.254005
            ],
            [
              124.830584,
              38.288493
            ],
            [
              124.830584,
              38.340195
            ],
            [
              124.852561,
              38.374643
            ],
            [
              124.852561,
              38.426283
            ],
            [
              124.896516,
              38.443489
            ],
            [
              124.940471,
              38.46069
            ],
            [
              124.984426,
              38.477887
            ],
            [
              124.984426,
              38.529454
            ],
            [
              124.962448,
              38.563811
            ],
            [
              124.984426,
              38.598152
            ],
            [
              125.006403,
              38.632476
            ],
            [
              125.050358,
              38.666784
            ],
            [
              125.094313,
              38.683932
            ],
            [
              125.160245,
              38.701076
            ],
            [
              125.226178,
              38.701076
            ],
            [
              125.270133,
              38.718216
            ],
            [
              125.336065,
              38.718216
            ],
            [
              125.38002,
              38.735351
            ],
            [
              125.423975,
              38.752482
            ],
            [
              125.489907,
              38.752482
            ],
            [
              125.55584,
              38.752482
            ],
            [
              125.621772,
              38.76961
            ],
            [
              125.665727,
              38.786733
            ],
            [
              125.665727,
              38.838078
            ],
            [
              125.687704,
              38.889386
            ],
            [
              125.687704,
              38.940657
            ],
            [
              125.687704,
              38.99189
            ],
            [
              125.753637,
              38.99189
            ],
            [
              125.841546,
              38.99189
            ],
            [
              125.885501,
              39.026026
            ],
            [
              125.929456,
              39.043087
            ],
            [
              125.973411,
              39.077198
            ],
            [
              125.995389,
              39.111292
            ],
            [
              126.039343,
              39.128333
            ],
            [
              126.083298,
              39.145369
            ],
            [
              126.105276,
              39.17943
            ],
            [
              126.083298,
              39.213475
            ],
            [
              126.061321,
              39.247503
            ],
            [
              126.039343,
              39.281515
            ],
            [
              126.039343,
              39.332501
            ],
            [
              126.039343,
              39.383451
            ],
            [
              126.017366,
              39.417396
            ],
            [
              126.039343,
              39.451325
            ],
            [
              126.083298,
              39.468283
            ],
            [
              126.149231,
              39.468283
            ],
            [
              126.193186,
              39.485238
            ],
            [
              126.237141,
              39.519134
            ],
            [
              126.281095,
              39.536075
            ],
            [
              126.32505,
              39.553013
            ],
            [
              126.390983,
              39.553013
            ],
            [
              126.456915,
              39.553013
            ],
            [
              126.522847,
              39.553013
            ],
            [
              126.566802,
              39.569947
            ],
            [
              126.632735,
              39.569947
            ],
            [
              126.698667,
              39.586876
            ],
            [
              126.764599,
              39.586876
            ],
            [
              126.830532,
              39.586876
            ],
            [
              126.896464,
              39.586876
            ],
            [
              126.984374,
              39.569947
            ],
            [
              127.006351,
              39.536075
            ],
            [
              127.028329,
              39.485238
            ],
            [
              127.028329,
              39.485238
            ],
            [
              126.962396,
              39.502188
            ]
          ]
        ]
      }
    },
    {
      "type": "Feature",
      "properties": {
        "NAME": "발해",
        "name": "701-741",
        "color": "#ef4444",
        "fill": "#ef4444",
        "fill-opacity": 0.5,
        "stroke": "#ef4444",
        "stroke-width": 2,
        "originalType": "polyline",
        "CODE": "발해"
      },
      "geometry": {
        "type": "Polygon",
        "coordinates": [
          [
            [
              131.83593750000003,
              45.20502955059498
            ],
            [
              131.79199218750003,
              45.236005504464
            ],
            [
              131.74804687500003,
              45.25148715291274
            ],
            [
              131.68212890625003,
              45.26696458239642
            ],
            [
              131.61621093750003,
              45.28243779293567
            ],
            [
              131.55029296875003,
              45.29790678455233
            ],
            [
              131.48437500000003,
              45.29790678455233
            ],
            [
              131.44042968750003,
              45.31337155726946
            ],
            [
              131.33056640625003,
              45.31337155726946
            ],
            [
              131.24267578125003,
              45.328832111111424
            ],
            [
              131.13281250000003,
              45.3442884461037
            ],
            [
              131.06689453125003,
              45.3442884461037
            ],
            [
              130.97900390625003,
              45.3442884461037
            ],
            [
              130.86914062500003,
              45.359740562273004
            ],
            [
              130.80322265625003,
              45.359740562273004
            ],
            [
              130.73730468750003,
              45.359740562273004
            ],
            [
              130.67138671875003,
              45.359740562273004
            ],
            [
              130.58349609375003,
              45.359740562273004
            ],
            [
              130.51757812500003,
              45.359740562273004
            ],
            [
              130.47363281250003,
              45.3442884461037
            ],
            [
              130.40771484375003,
              45.3442884461037
            ],
            [
              130.31982421875003,
              45.328832111111424
            ],
            [
              130.23193359375003,
              45.31337155726946
            ],
            [
              130.18798828125003,
              45.29790678455233
            ],
            [
              130.12207031250003,
              45.29790678455233
            ],
            [
              130.03417968750003,
              45.26696458239642
            ],
            [
              129.96826171875003,
              45.25148715291274
            ],
            [
              129.90234375000003,
              45.236005504464
            ],
            [
              129.83642578125003,
              45.220519637030804
            ],
            [
              129.77050781250003,
              45.20502955059498
            ],
            [
              129.72656250000003,
              45.18953524513958
            ],
            [
              129.68261718750003,
              45.1740367206489
            ],
            [
              129.63867187500003,
              45.14302701450499
            ],
            [
              129.59472656250003,
              45.11200043206211
            ],
            [
              129.55078125000003,
              45.080956973238955
            ],
            [
              129.52880859375003,
              45.03436014166184
            ],
            [
              129.50683593750003,
              44.987725337970865
            ],
            [
              129.48486328125003,
              44.94105256214222
            ],
            [
              129.46289062500003,
              44.90991628265824
            ],
            [
              129.44091796875003,
              44.84759309448052
            ],
            [
              129.41894531250003,
              44.81640618594217
            ],
            [
              129.39697265625003,
              44.769594180368784
            ],
            [
              129.39697265625003,
              44.72274420388246
            ],
            [
              129.37500000000003,
              44.69148979154078
            ],
            [
              129.35302734375003,
              44.628930340473914
            ],
            [
              129.33105468750003,
              44.566303389053225
            ],
            [
              129.30908203125003,
              44.48792478059358
            ],
            [
              129.30908203125003,
              44.42514596145127
            ],
            [
              129.30908203125003,
              44.37801755502415
            ],
            [
              129.28710937500003,
              44.34657752665924
            ],
            [
              129.28710937500003,
              44.299385849022336
            ],
            [
              129.28710937500003,
              44.25215621059948
            ],
            [
              129.26513671875003,
              44.20488861297321
            ],
            [
              129.26513671875003,
              44.14180610475263
            ],
            [
              129.26513671875003,
              44.078656120803764
            ],
            [
              129.26513671875003,
              44.03124935466275
            ],
            [
              129.28710937500003,
              43.96798129950934
            ],
            [
              129.30908203125003,
              43.9046457821383
            ],
            [
              129.33105468750003,
              43.857099875349896
            ],
            [
              129.35302734375003,
              43.79364631263131
            ],
            [
              129.37500000000003,
              43.76189423856105
            ],
            [
              129.39697265625003,
              43.71423451380329
            ],
            [
              129.41894531250003,
              43.6665368551434
            ],
            [
              129.44091796875003,
              43.63471734306904
            ],
            [
              129.46289062500003,
              43.602880973647075
            ],
            [
              129.48486328125003,
              43.571027747781386
            ],
            [
              129.52880859375003,
              43.53915766639716
            ],
            [
              129.55078125000003,
              43.50727073044096
            ],
            [
              129.59472656250003,
              43.47536694088063
            ],
            [
              129.61669921875003,
              43.443446298705595
            ],
            [
              129.63867187500003,
              43.41150880492654
            ],
            [
              129.70458984375003,
              43.363570969764346
            ],
            [
              129.74853515625003,
              43.33159135153837
            ],
            [
              129.77050781250003,
              43.29959488541536
            ],
            [
              129.81445312500003,
              43.28359033473776
            ],
            [
              129.83642578125003,
              43.25156859885277
            ],
            [
              129.90234375000003,
              43.20350441084861
            ],
            [
              129.96826171875003,
              43.17144056443014
            ],
            [
              130.01220703125003,
              43.15540232534202
            ],
            [
              130.07812500000003,
              43.123313216164625
            ],
            [
              130.12207031250003,
              43.10726234638208
            ],
            [
              130.16601562500003,
              43.091207266677074
            ],
            [
              130.23193359375003,
              43.07514797720633
            ],
            [
              130.29785156250003,
              43.059084478128035
            ],
            [
              130.36376953125003,
              43.04301676960165
            ],
            [
              130.42968750000003,
              43.02694485178806
            ],
            [
              130.49560546875003,
              43.02694485178806
            ],
            [
              130.56152343750003,
              43.01086872484945
            ],
            [
              130.67138671875003,
              42.994788388949495
            ],
            [
              130.73730468750003,
              42.994788388949495
            ],
            [
              130.82519531250003,
              42.994788388949495
            ],
            [
              130.93505859375003,
              42.97870384425308
            ],
            [
              131.02294921875003,
              42.97870384425308
            ],
            [
              131.08886718750003,
              42.97870384425308
            ],
            [
              131.19873046875003,
              42.994788388949495
            ],
            [
              131.28662109375003,
              42.994788388949495
            ],
            [
              131.35253906250003,
              43.01086872484945
            ],
            [
              131.41845703125003,
              43.01086872484945
            ],
            [
              131.52832031250003,
              43.01086872484945
            ],
            [
              131.59423828125003,
              43.01086872484945
            ],
            [
              131.63818359375003,
              43.02694485178806
            ],
            [
              131.72607421875003,
              43.04301676960165
            ],
            [
              131.79199218750003,
              43.059084478128035
            ],
            [
              131.85791015625003,
              43.07514797720633
            ],
            [
              131.90185546875003,
              43.091207266677074
            ],
            [
              131.94580078125003,
              43.123313216164625
            ],
            [
              132.01171875000003,
              43.15540232534202
            ],
            [
              132.03369140625003,
              43.187474592982305
            ],
            [
              132.05566406250003,
              43.21953001788037
            ],
            [
              132.09960937500003,
              43.267581572502955
            ],
            [
              132.12158203125003,
              43.29959488541536
            ],
            [
              132.14355468750003,
              43.33159135153837
            ],
            [
              132.16552734375003,
              43.363570969764346
            ],
            [
              132.18750000000003,
              43.41150880492654
            ],
            [
              132.23144531250003,
              43.459408726307316
            ],
            [
              132.25341796875003,
              43.49132094229998
            ],
            [
              132.27539062500003,
              43.53915766639716
            ],
            [
              132.27539062500003,
              43.586956467712355
            ],
            [
              132.29736328125003,
              43.618801265470516
            ],
            [
              132.29736328125003,
              43.682440289398556
            ],
            [
              132.31933593750003,
              43.71423451380329
            ],
            [
              132.31933593750003,
              43.76189423856105
            ],
            [
              132.34130859375003,
              43.809516026634824
            ],
            [
              132.34130859375003,
              43.87295272683937
            ],
            [
              132.34130859375003,
              43.92048598576672
            ],
            [
              132.34130859375003,
              43.96798129950934
            ],
            [
              132.36328125000003,
              43.99962376019641
            ],
            [
              132.36328125000003,
              44.078656120803764
            ],
            [
              132.34130859375003,
              44.126024934440125
            ],
            [
              132.34130859375003,
              44.173355793604784
            ],
            [
              132.34130859375003,
              44.25215621059948
            ],
            [
              132.31933593750003,
              44.2836468540038
            ],
            [
              132.31933593750003,
              44.33085118540542
            ],
            [
              132.31933593750003,
              44.37801755502415
            ],
            [
              132.29736328125003,
              44.42514596145127
            ],
            [
              132.29736328125003,
              44.472236403382006
            ],
            [
              132.29736328125003,
              44.51928887961523
            ],
            [
              132.27539062500003,
              44.55063610450353
            ],
            [
              132.27539062500003,
              44.59762530218585
            ],
            [
              132.25341796875003,
              44.628930340473914
            ],
            [
              132.25341796875003,
              44.70711910716518
            ],
            [
              132.23144531250003,
              44.73836508166971
            ],
            [
              132.23144531250003,
              44.78520240124117
            ],
            [
              132.20947265625003,
              44.83200174973888
            ],
            [
              132.18750000000003,
              44.86318022015424
            ],
            [
              132.16552734375003,
              44.90991628265824
            ],
            [
              132.16552734375003,
              44.95661437320883
            ],
            [
              132.14355468750003,
              44.987725337970865
            ],
            [
              132.09960937500003,
              45.0188194262252
            ],
            [
              132.07763671875003,
              45.049896637973895
            ],
            [
              132.03369140625003,
              45.06542891516472
            ],
            [
              132.01171875000003,
              45.096480812202365
            ],
            [
              131.96777343750003,
              45.11200043206211
            ],
            [
              131.92382812500003,
              45.12751583282645
            ],
            [
              131.87988281250003,
              45.14302701450499
            ],
            [
              131.83593750000003,
              45.15853397710845
            ],
            [
              131.79199218750003,
              45.1740367206489
            ],
            [
              131.74804687500003,
              45.18953524513958
            ],
            [
              131.70410156250003,
              45.20502955059498
            ],
            [
              131.70410156250003,
              45.20502955059498
            ],
            [
              131.83593750000003,
              45.20502955059498
            ]
          ]
        ]
      }
    }
  ]
}