{
  "type": "FeatureCollection",
  "features": [
    {
      "type": "Feature",
      "properties": {
        "NAME": "Silla",
        "name": "Silla",
        "color": "#ef4444",
        "fill": "#ef4444",
        "fill-opacity": 0.5,
        "stroke": "#ef4444",
        "stroke-width": 2,
        "originalType": "polygon"
      },
      "geometry": {
        "type": "Polygon",
        "coordinates": [
          [
            [
              126.962396,
              39.502188
            ],
            [
              127.006351,
              39.485238
            ],
            [
              127.050306,
              39.468283
            ],
            [
              127.116239,
              39.468283
            ],
            [
              127.160194,
              39.485238
            ],
            [
              127.204148,
              39.502188
            ],
            [
              127.248103,
              39.485238
            ],
            [
              127.314036,
              39.468283
            ],
            [
              127.357991,
              39.451325
            ],
            [
              127.423923,
              39.451325
            ],
            [
              127.467878,
              39.434363
            ],
            [
              127.489855,
              39.400425
            ],
            [
              127.511833,
              39.366472
            ],
            [
              127.555788,
              39.349488
            ],
            [
              127.53381,
              39.31551
            ],
            [
              127.53381,
              39.264511
            ],
            [
              127.511833,
              39.230491
            ],
            [
              127.489855,
              39.196455
            ],
            [
              127.511833,
              39.162402
            ],
            [
              127.53381,
              39.128333
            ],
            [
              127.599743,
              39.128333
            ],
            [
              127.643698,
              39.111292
            ],
            [
              127.687652,
              39.077198
            ],
            [
              127.731607,
              39.060144
            ],
            [
              127.775562,
              39.026026
            ],
            [
              127.819517,
              39.00896
            ],
            [
              127.863472,
              38.974817
            ],
            [
              127.907427,
              38.957739
            ],
            [
              127.951382,
              38.940657
            ],
            [
              127.995337,
              38.92357
            ],
            [
              128.039292,
              38.889386
            ],
            [
              128.061269,
              38.855185
            ],
            [
              128.105224,
              38.838078
            ],
            [
              128.149179,
              38.820967
            ],
            [
              128.171156,
              38.786733
            ],
            [
              128.237089,
              38.786733
            ],
            [
              128.259066,
              38.752482
            ],
            [
              128.281044,
              38.718216
            ],
            [
              128.324999,
              38.701076
            ],
            [
              128.346976,
              38.666784
            ],
            [
              128.390931,
              38.649632
            ],
            [
              128.412908,
              38.615316
            ],
            [
              128.434886,
              38.580983
            ],
            [
              128.434886,
              38.529454
            ],
            [
              128.456863,
              38.49508
            ],
            [
              128.478841,
              38.46069
            ],
            [
              128.500818,
              38.426283
            ],
            [
              128.522796,
              38.374643
            ],
            [
              128.522796,
              38.322965
            ],
            [
              128.544773,
              38.288493
            ],
            [
              128.566751,
              38.254005
            ],
            [
              128.610705,
              38.2195
            ],
            [
              128.65466,
              38.184979
            ],
            [
              128.698615,
              38.167712
            ],
            [
              128.720593,
              38.133166
            ],
            [
              128.74257,
              38.098604
            ],
            [
              128.764548,
              38.064026
            ],
            [
              128.786525,
              38.029431
            ],
            [
              128.808502,
              37.99482
            ],
            [
              128.852457,
              37.977508
            ],
            [
              128.896412,
              37.942872
            ],
            [
              128.91839,
              37.90822
            ],
            [
              128.940367,
              37.873552
            ],
            [
              128.962345,
              37.838868
            ],
            [
              128.962345,
              37.78681
            ],
            [
              128.984322,
              37.752084
            ],
            [
              128.984322,
              37.699966
            ],
            [
              128.984322,
              37.64781
            ],
            [
              129.0063,
              37.61302
            ],
            [
              129.028277,
              37.578213
            ],
            [
              129.050254,
              37.54339
            ],
            [
              129.094209,
              37.525972
            ],
            [
              129.116187,
              37.473695
            ],
            [
              129.138164,
              37.438823
            ],
            [
              129.182119,
              37.42138
            ],
            [
              129.226074,
              37.386484
            ],
            [
              129.270029,
              37.36903
            ],
            [
              129.335961,
              37.351571
            ],
            [
              129.313984,
              37.316643
            ],
            [
              129.313984,
              37.264219
            ],
            [
              129.335961,
              37.229249
            ],
            [
              129.357939,
              37.194264
            ],
            [
              129.379916,
              37.159262
            ],
            [
              129.401894,
              37.124244
            ],
            [
              129.423871,
              37.089209
            ],
            [
              129.445849,
              37.054159
            ],
            [
              129.467826,
              37.019092
            ],
            [
              129.467826,
              36.966462
            ],
            [
              129.489804,
              36.931355
            ],
            [
              129.489804,
              36.878663
            ],
            [
              129.489804,
              36.825936
            ],
            [
              129.511781,
              36.790764
            ],
            [
              129.511781,
              36.737976
            ],
            [
              129.511781,
              36.685152
            ],
            [
              129.511781,
              36.632291
            ],
            [
              129.511781,
              36.579394
            ],
            [
              129.511781,
              36.526461
            ],
            [
              129.511781,
              36.473491
            ],
            [
              129.511781,
              36.420485
            ],
            [
              129.511781,
              36.367443
            ],
            [
              129.511781,
              36.314365
            ],
            [
              129.489804,
              36.27896
            ],
            [
              129.467826,
              36.243538
            ],
            [
              129.467826,
              36.190376
            ],
            [
              129.467826,
              36.137177
            ],
            [
              129.489804,
              36.101691
            ],
            [
              129.489804,
              36.048433
            ],
            [
              129.511781,
              36.012907
            ],
            [
              129.533758,
              35.977365
            ],
            [
              129.555736,
              35.941807
            ],
            [
              129.599691,
              35.924022
            ],
            [
              129.599691,
              35.870643
            ],
            [
              129.599691,
              35.817228
            ],
            [
              129.577713,
              35.781599
            ],
            [
              129.533758,
              35.763778
            ],
            [
              129.489804,
              35.728124
            ],
            [
              129.445849,
              35.710291
            ],
            [
              129.423871,
              35.674613
            ],
            [
              129.423871,
              35.728124
            ],
            [
              129.445849,
              35.763778
            ],
            [
              129.467826,
              35.728124
            ],
            [
              129.467826,
              35.674613
            ],
            [
              129.467826,
              35.621067
            ],
            [
              129.467826,
              35.567484
            ],
            [
              129.467826,
              35.513866
            ],
            [
              129.511781,
              35.460212
            ],
            [
              129.511781,
              35.406522
            ],
            [
              129.511781,
              35.352796
            ],
            [
              129.467826,
              35.33488
            ],
            [
              129.423871,
              35.299035
            ],
            [
              129.357939,
              35.281106
            ],
            [
              129.313984,
              35.263174
            ],
            [
              129.270029,
              35.245237
            ],
            [
              129.204097,
              35.245237
            ],
            [
              129.160142,
              35.227297
            ],
            [
              129.116187,
              35.209353
            ],
            [
              129.072232,
              35.191404
            ],
            [
              129.028277,
              35.173452
            ],
            [
              128.984322,
              35.155496
            ],
            [
              128.940367,
              35.137536
            ],
            [
              128.91839,
              35.101604
            ],
            [
              128.874435,
              35.083632
            ],
            [
              128.852457,
              35.047676
            ],
            [
              128.808502,
              35.029692
            ],
            [
              128.786525,
              34.993712
            ],
            [
              128.74257,
              34.957716
            ],
            [
              128.720593,
              34.921705
            ],
            [
              128.698615,
              34.867658
            ],
            [
              128.65466,
              34.831607
            ],
            [
              128.588728,
              34.849635
            ],
            [
              128.544773,
              34.885678
            ],
            [
              128.478841,
              34.885678
            ],
            [
              128.434886,
              34.903693
            ],
            [
              128.368953,
              34.903693
            ],
            [
              128.324999,
              34.921705
            ],
            [
              128.259066,
              34.921705
            ],
            [
              128.193134,
              34.921705
            ],
            [
              128.127201,
              34.903693
            ],
            [
              128.061269,
              34.903693
            ],
            [
              128.017314,
              34.885678
            ],
            [
              127.973359,
              34.867658
            ],
            [
              127.929404,
              34.849635
            ],
            [
              127.907427,
              34.813576
            ],
            [
              127.885449,
              34.777501
            ],
            [
              127.863472,
              34.741411
            ],
            [
              127.863472,
              34.687246
            ],
            [
              127.841495,
              34.651116
            ],
            [
              127.79754,
              34.61497
            ],
            [
              127.753585,
              34.596892
            ],
            [
              127.687652,
              34.596892
            ],
            [
              127.62172,
              34.596892
            ],
            [
              127.555788,
              34.596892
            ],
            [
              127.511833,
              34.578809
            ],
            [
              127.4459,
              34.578809
            ],
            [
              127.401946,
              34.560723
            ],
            [
              127.357991,
              34.542632
            ],
            [
              127.292058,
              34.524538
            ],
            [
              127.248103,
              34.506439
            ],
            [
              127.204148,
              34.524538
            ],
            [
              127.160194,
              34.560723
            ],
            [
              127.138216,
              34.596892
            ],
            [
              127.116239,
              34.651116
            ],
            [
              127.116239,
              34.705305
            ],
            [
              127.050306,
              34.705305
            ],
            [
              126.984374,
              34.705305
            ],
            [
              126.962396,
              34.651116
            ],
            [
              126.918442,
              34.633045
            ],
            [
              126.896464,
              34.596892
            ],
            [
              126.852509,
              34.578809
            ],
            [
              126.830532,
              34.542632
            ],
            [
              126.786577,
              34.524538
            ],
            [
              126.720644,
              34.524538
            ],
            [
              126.654712,
              34.524538
            ],
            [
              126.58878,
              34.524538
            ],
            [
              126.544825,
              34.506439
            ],
            [
              126.50087,
              34.542632
            ],
            [
              126.434938,
              34.524538
            ],
            [
              126.390983,
              34.506439
            ],
            [
              126.32505,
              34.506439
            ],
            [
              126.281095,
              34.524538
            ],
            [
              126.215163,
              34.542632
            ],
            [
              126.171208,
              34.560723
            ],
            [
              126.149231,
              34.596892
            ],
            [
              126.127253,
              34.633045
            ],
            [
              126.083298,
              34.669183
            ],
            [
              126.061321,
              34.705305
            ],
            [
              126.083298,
              34.741411
            ],
            [
              126.127253,
              34.759458
            ],
            [
              126.171208,
              34.777501
            ],
            [
              126.215163,
              34.79554
            ],
            [
              126.259118,
              34.813576
            ],
            [
              126.281095,
              34.849635
            ],
            [
              126.32505,
              34.867658
            ],
            [
              126.347028,
              34.903693
            ],
            [
              126.369005,
              34.939713
            ],
            [
              126.41296,
              34.975716
            ],
            [
              126.434938,
              35.011704
            ],
            [
              126.434938,
              35.065655
            ],
            [
              126.434938,
              35.119572
            ],
            [
              126.434938,
              35.173452
            ],
            [
              126.41296,
              35.209353
            ],
            [
              126.434938,
              35.245237
            ],
            [
              126.478893,
              35.263174
            ],
            [
              126.50087,
              35.299035
            ],
            [
              126.50087,
              35.352796
            ],
            [
              126.544825,
              35.370709
            ],
            [
              126.58878,
              35.388617
            ],
            [
              126.610757,
              35.424422
            ],
            [
              126.610757,
              35.4781
            ],
            [
              126.58878,
              35.513866
            ],
            [
              126.566802,
              35.549615
            ],
            [
              126.544825,
              35.585349
            ],
            [
              126.544825,
              35.63892
            ],
            [
              126.566802,
              35.674613
            ],
            [
              126.58878,
              35.710291
            ],
            [
              126.610757,
              35.745953
            ],
            [
              126.632735,
              35.781599
            ],
            [
              126.632735,
              35.835037
            ],
            [
              126.610757,
              35.870643
            ],
            [
              126.58878,
              35.906233
            ],
            [
              126.566802,
              35.941807
            ],
            [
              126.566802,
              35.995138
            ],
            [
              126.566802,
              36.048433
            ],
            [
              126.566802,
              36.101691
            ],
            [
              126.58878,
              36.137177
            ],
            [
              126.566802,
              36.172647
            ],
            [
              126.522847,
              36.208101
            ],
            [
              126.522847,
              36.261251
            ],
            [
              126.544825,
              36.296665
            ],
            [
              126.566802,
              36.332062
            ],
            [
              126.544825,
              36.367443
            ],
            [
              126.50087,
              36.385128
            ],
            [
              126.456915,
              36.420485
            ],
            [
              126.434938,
              36.455827
            ],
            [
              126.41296,
              36.491152
            ],
            [
              126.41296,
              36.544109
            ],
            [
              126.41296,
              36.59703
            ],
            [
              126.369005,
              36.614663
            ],
            [
              126.32505,
              36.632291
            ],
            [
              126.303073,
              36.667535
            ],
            [
              126.259118,
              36.685152
            ],
            [
              126.237141,
              36.720372
            ],
            [
              126.215163,
              36.755576
            ],
            [
              126.215163,
              36.808352
            ],
            [
              126.193186,
              36.843516
            ],
            [
              126.215163,
              36.878663
            ],
            [
              126.237141,
              36.913795
            ],
            [
              126.259118,
              36.94891
            ],
            [
              126.32505,
              36.94891
            ],
            [
              126.369005,
              36.966462
            ],
            [
              126.41296,
              36.984009
            ],
            [
              126.478893,
              36.984009
            ],
            [
              126.522847,
              37.001553
            ],
            [
              126.58878,
              37.001553
            ],
            [
              126.654712,
              37.001553
            ],
            [
              126.698667,
              37.019092
            ],
            [
              126.764599,
              37.019092
            ],
            [
              126.808554,
              37.036628
            ],
            [
              126.808554,
              37.089209
            ],
            [
              126.808554,
              37.159262
            ],
            [
              126.786577,
              37.194264
            ],
            [
              126.786577,
              37.246736
            ],
            [
              126.764599,
              37.281697
            ],
            [
              126.742622,
              37.316643
            ],
            [
              126.742622,
              37.36903
            ],
            [
              126.720644,
              37.403934
            ],
            [
              126.67669,
              37.42138
            ],
            [
              126.632735,
              37.438823
            ],
            [
              126.58878,
              37.456261
            ],
            [
              126.544825,
              37.491124
            ],
            [
              126.50087,
              37.525972
            ],
            [
              126.478893,
              37.560803
            ],
            [
              126.478893,
              37.61302
            ],
            [
              126.522847,
              37.64781
            ],
            [
              126.522847,
              37.699966
            ],
            [
              126.50087,
              37.734716
            ],
            [
              126.478893,
              37.769449
            ],
            [
              126.456915,
              37.804167
            ],
            [
              126.41296,
              37.821519
            ],
            [
              126.347028,
              37.821519
            ],
            [
              126.281095,
              37.821519
            ],
            [
              126.215163,
              37.821519
            ],
            [
              126.149231,
              37.821519
            ],
            [
              126.083298,
              37.838868
            ],
            [
              126.017366,
              37.838868
            ],
            [
              125.951434,
              37.838868
            ],
            [
              125.907479,
              37.873552
            ],
            [
              125.863524,
              37.890888
            ],
            [
              125.819569,
              37.90822
            ],
            [
              125.753637,
              37.90822
            ],
            [
              125.709682,
              37.890888
            ],
            [
              125.665727,
              37.873552
            ],
            [
              125.643749,
              37.838868
            ],
            [
              125.599794,
              37.821519
            ],
            [
              125.55584,
              37.804167
            ],
            [
              125.511885,
              37.78681
            ],
            [
              125.46793,
              37.821519
            ],
            [
              125.423975,
              37.838868
            ],
            [
              125.38002,
              37.856212
            ],
            [
              125.336065,
              37.873552
            ],
            [
              125.29211,
              37.890888
            ],
            [
              125.248155,
              37.90822
            ],
            [
              125.226178,
              37.942872
            ],
            [
              125.160245,
              37.942872
            ],
            [
              125.138268,
              37.977508
            ],
            [
              125.138268,
              38.029431
            ],
            [
              125.160245,
              38.064026
            ],
            [
              125.138268,
              38.098604
            ],
            [
              125.072336,
              38.115887
            ],
            [
              125.006403,
              38.115887
            ],
            [
              124.962448,
              38.133166
            ],
            [
              124.896516,
              38.133166
            ],
            [
              124.852561,
              38.115887
            ],
            [
              124.786629,
              38.115887
            ],
            [
              124.786629,
              38.167712
            ],
            [
              124.786629,
              38.2195
            ],
            [
              124.808606,
              38.254005
            ],
            [
              124.830584,
              38.288493
            ],
            [
              124.830584,
              38.340195
            ],
            [
              124.852561,
              38.374643
            ],
            [
              124.852561,
              38.426283
            ],
            [
              124.896516,
              38.443489
            ],
            [
              124.940471,
              38.46069
            ],
            [
              124.984426,
              38.477887
            ],
            [
              124.984426,
              38.529454
            ],
            [
              124.962448,
              38.563811
            ],
            [
              124.984426,
              38.598152
            ],
            [
              125.006403,
              38.632476
            ],
            [
              125.050358,
              38.666784
            ],
            [
              125.094313,
              38.683932
            ],
            [
              125.160245,
              38.701076
            ],
            [
              125.226178,
              38.701076
            ],
            [
              125.270133,
              38.718216
            ],
            [
              125.336065,
              38.718216
            ],
            [
              125.38002,
              38.735351
            ],
            [
              125.423975,
              38.752482
            ],
            [
              125.489907,
              38.752482
            ],
            [
              125.55584,
              38.752482
            ],
            [
              125.621772,
              38.76961
            ],
            [
              125.665727,
              38.786733
            ],
            [
              125.665727,
              38.838078
            ],
            [
              125.687704,
              38.889386
            ],
            [
              125.687704,
              38.940657
            ],
            [
              125.687704,
              38.99189
            ],
            [
              125.753637,
              38.99189
            ],
            [
              125.841546,
              38.99189
            ],
            [
              125.885501,
              39.026026
            ],
            [
              125.929456,
              39.043087
            ],
            [
              125.973411,
              39.077198
            ],
            [
              125.995389,
              39.111292
            ],
            [
              126.039343,
              39.128333
            ],
            [
              126.083298,
              39.145369
            ],
            [
              126.105276,
              39.17943
            ],
            [
              126.083298,
              39.213475
            ],
            [
              126.061321,
              39.247503
            ],
            [
              126.039343,
              39.281515
            ],
            [
              126.039343,
              39.332501
            ],
            [
              126.039343,
              39.383451
            ],
            [
              126.017366,
              39.417396
            ],
            [
              126.039343,
              39.451325
            ],
            [
              126.083298,
              39.468283
            ],
            [
              126.149231,
              39.468283
            ],
            [
              126.193186,
              39.485238
            ],
            [
              126.237141,
              39.519134
            ],
            [
              126.281095,
              39.536075
            ],
            [
              126.32505,
              39.553013
            ],
            [
              126.390983,
              39.553013
            ],
            [
              126.456915,
              39.553013
            ],
            [
              126.522847,
              39.553013
            ],
            [
              126.566802,
              39.569947
            ],
            [
              126.632735,
              39.569947
            ],
            [
              126.698667,
              39.586876
            ],
            [
              126.764599,
              39.586876
            ],
            [
              126.830532,
              39.586876
            ],
            [
              126.896464,
              39.586876
            ],
            [
              126.984374,
              39.569947
            ],
            [
              127.006351,
              39.536075
            ],
            [
              127.028329,
              39.485238
            ],
            [
              127.028329,
              39.485238
            ],
            [
              126.962396,
              39.502188
            ]
          ]
        ]
      }
    },
    {
      "type": "Feature",
      "properties": {
        "NAME": "발해",
        "name": "757-763",
        "color": "#ef4444",
        "fill": "#ef4444",
        "fill-opacity": 0.5,
        "stroke": "#ef4444",
        "stroke-width": 2,
        "originalType": "polyline"
      },
      "geometry": {
        "type": "Polygon",
        "coordinates": [
          [
            [
              131.00097656250003,
              42.686498953692414
            ],
            [
              131.06689453125003,
              42.686498953692414
            ],
            [
              131.11083984375003,
              42.670333964139516
            ],
            [
              131.15478515625003,
              42.654164769402
            ],
            [
              131.22070312500003,
              42.654164769402
            ],
            [
              131.28662109375003,
              42.654164769402
            ],
            [
              131.33056640625003,
              42.670333964139516
            ],
            [
              131.35253906250003,
              42.70265973786795
            ],
            [
              131.37451171875003,
              42.734968689322976
            ],
            [
              131.39648437500003,
              42.7672608169907
            ],
            [
              131.41845703125003,
              42.799536119379226
            ],
            [
              131.41845703125003,
              42.84791752235472
            ],
            [
              131.44042968750003,
              42.88015075516385
            ],
            [
              131.44042968750003,
              42.92846904707952
            ],
            [
              131.41845703125003,
              42.96066020146871
            ],
            [
              131.46240234375003,
              42.97674946608507
            ],
            [
              131.50634765625003,
              42.99283452209162
            ],
            [
              131.55029296875003,
              43.00891536932192
            ],
            [
              131.59423828125003,
              43.02499200761075
            ],
            [
              131.66015625000003,
              43.041064436794436
            ],
            [
              131.68212890625003,
              43.07319666719802
            ],
            [
              131.70410156250003,
              43.121363440499024
            ],
            [
              131.72607421875003,
              43.1694923232765
            ],
            [
              131.72607421875003,
              43.21758331140355
            ],
            [
              131.74804687500003,
              43.24962291558316
            ],
            [
              131.79199218750003,
              43.281645674745306
            ],
            [
              131.81396484375003,
              43.3136515877486
            ],
            [
              131.83593750000003,
              43.34564065347334
            ],
            [
              131.87988281250003,
              43.361628868262216
            ],
            [
              131.90185546875003,
              43.39359266101677
            ],
            [
              131.92382812500003,
              43.44150675610227
            ],
            [
              131.96777343750003,
              43.47342842194664
            ],
            [
              131.98974609375003,
              43.537221194982855
            ],
            [
              132.01171875000003,
              43.60094654998522
            ],
            [
              132.03369140625003,
              43.66460447945632
            ],
            [
              132.05566406250003,
              43.71230367423706
            ],
            [
              132.07763671875003,
              43.77584359201323
            ],
            [
              132.07763671875003,
              43.82345427030821
            ],
            [
              132.07763671875003,
              43.871027008481455
            ],
            [
              132.07763671875003,
              43.91856180399623
            ],
            [
              132.07763671875003,
              43.96605865442248
            ],
            [
              132.07763671875003,
              44.02932875862962
            ],
            [
              132.09960937500003,
              44.06093851081998
            ],
            [
              132.12158203125003,
              44.0925313955672
            ],
            [
              132.12158203125003,
              44.13988909492591
            ],
            [
              132.14355468750003,
              44.18720883925686
            ],
            [
              132.16552734375003,
              44.21873424844237
            ],
            [
              132.16552734375003,
              44.26599073037641
            ],
            [
              132.12158203125003,
              44.29747396305389
            ],
            [
              132.07763671875003,
              44.31320925263279
            ],
            [
              132.07763671875003,
              44.36038981365962
            ],
            [
              132.09960937500003,
              44.391822430719714
            ],
            [
              132.09960937500003,
              44.438939719865104
            ],
            [
              132.12158203125003,
              44.470330154448185
            ],
            [
              132.12158203125003,
              44.517384168172
            ],
            [
              132.12158203125003,
              44.564400215142996
            ],
            [
              132.14355468750003,
              44.595723153319184
            ],
            [
              132.14355468750003,
              44.64267592020044
            ],
            [
              132.16552734375003,
              44.67395667084187
            ],
            [
              132.16552734375003,
              44.720846155335344
            ],
            [
              132.12158203125003,
              44.73646754567638
            ],
            [
              132.09960937500003,
              44.767697669490566
            ],
            [
              132.07763671875003,
              44.79891091735034
            ],
            [
              132.07763671875003,
              44.84569914642678
            ],
            [
              132.09960937500003,
              44.87687020383602
            ],
            [
              132.09960937500003,
              44.92359514676499
            ],
            [
              132.09960937500003,
              44.9702821176879
            ],
            [
              132.09960937500003,
              45.016931116490056
            ],
            [
              132.12158203125003,
              45.04800935339124
            ],
            [
              132.12158203125003,
              45.09459506534449
            ],
            [
              132.12158203125003,
              45.14114280536354
            ],
            [
              132.09960937500003,
              45.17215353664515
            ],
            [
              132.09960937500003,
              45.21863799072061
            ],
            [
              132.05566406250003,
              45.24960653172119
            ],
            [
              132.03369140625003,
              45.28055819685308
            ],
            [
              132.01171875000003,
              45.311492986285025
            ],
            [
              131.98974609375003,
              45.35786352891268
            ],
            [
              132.01171875000003,
              45.38875612996125
            ],
            [
              132.05566406250003,
              45.404196102361674
            ],
            [
              132.12158203125003,
              45.404196102361674
            ],
            [
              132.16552734375003,
              45.4196318560544
            ],
            [
              132.23144531250003,
              45.4196318560544
            ],
            [
              132.29736328125003,
              45.4196318560544
            ],
            [
              132.38525390625003,
              45.4196318560544
            ],
            [
              132.45117187500003,
              45.4196318560544
            ],
            [
              132.49511718750003,
              45.404196102361674
            ],
            [
              132.53906250000003,
              45.373311938821665
            ],
            [
              132.58300781250003,
              45.34241090020526
            ],
            [
              132.62695312500003,
              45.311492986285025
            ],
            [
              132.67089843750003,
              45.29602770102023
            ],
            [
              132.69287109375003,
              45.26508447376065
            ],
            [
              132.73681640625003,
              45.24960653172119
            ],
            [
              132.78076171875003,
              45.23412437071426
            ],
            [
              132.80273437500003,
              45.20314739172219
            ],
            [
              132.84667968750003,
              45.18765257370221
            ],
            [
              132.91259765625003,
              45.18765257370221
            ],
            [
              132.97851562500003,
              45.18765257370221
            ],
            [
              133.02246093750003,
              45.20314739172219
            ],
            [
              133.02246093750003,
              45.24960653172119
            ],
            [
              133.04443359375003,
              45.28055819685308
            ],
            [
              133.06640625000003,
              45.311492986285025
            ],
            [
              133.08837890625003,
              45.34241090020526
            ],
            [
              133.11035156250003,
              45.38875612996125
            ],
            [
              133.15429687500003,
              45.4196318560544
            ],
            [
              133.17626953125003,
              45.45049070744874
            ],
            [
              133.22021484375003,
              45.465913805219365
            ],
            [
              133.26416015625003,
              45.48133268442035
            ],
            [
              133.30810546875003,
              45.496747345089226
            ],
            [
              133.33007812500003,
              45.52756401098679
            ],
            [
              133.37402343750003,
              45.558363803236624
            ],
            [
              133.41796875000003,
              45.5891467221826
            ],
            [
              133.46191406250003,
              45.635289463956504
            ],
            [
              133.50585937500003,
              45.65066194163487
            ],
            [
              133.52783203125003,
              45.68139424292527
            ],
            [
              133.54980468750003,
              45.71210967247992
            ],
            [
              133.57177734375003,
              45.74280823073887
            ],
            [
              133.59375000000003,
              45.77348991816129
            ],
            [
              133.61572265625003,
              45.80415473522543
            ],
            [
              133.61572265625003,
              45.85012032999307
            ],
            [
              133.61572265625003,
              45.89604796933695
            ],
            [
              133.63769531250003,
              45.94193765511205
            ],
            [
              133.65966796875003,
              45.98778938926923
            ],
            [
              133.68164062500003,
              46.018336128815186
            ],
            [
              133.72558593750003,
              46.033603173855006
            ],
            [
              133.74755859375003,
              46.06412461487079
            ],
            [
              133.76953125000003,
              46.09462919101856
            ],
            [
              133.81347656250003,
              46.109875154977715
            ],
            [
              133.83544921875003,
              46.14035443509851
            ],
            [
              133.85742187500003,
              46.17081685207864
            ],
            [
              133.87939453125003,
              46.20126240664183
            ],
            [
              133.90136718750003,
              46.2468991230837
            ],
            [
              133.92333984375003,
              46.27730252489288
            ],
            [
              133.94531250000003,
              46.307689066964585
            ],
            [
              133.94531250000003,
              46.3532372698356
            ],
            [
              133.94531250000003,
              46.39874754292101
            ],
            [
              133.94531250000003,
              46.459368910165544
            ],
            [
              133.94531250000003,
              46.50479069184221
            ],
            [
              133.92333984375003,
              46.535050812892045
            ],
            [
              133.92333984375003,
              46.580409396728236
            ],
            [
              133.92333984375003,
              46.62573006618944
            ],
            [
              133.92333984375003,
              46.67101282463537
            ],
            [
              133.90136718750003,
              46.71625767551763
            ],
            [
              133.92333984375003,
              46.74639985142757
            ],
            [
              133.94531250000003,
              46.791581530956336
            ],
            [
              133.96728515625003,
              46.85176481867293
            ],
            [
              134.01123046875003,
              46.89685807564736
            ],
            [
              134.05517578125003,
              46.926899197310476
            ],
            [
              134.07714843750003,
              46.95692348062532
            ],
            [
              134.09912109375003,
              46.986930926789924
            ],
            [
              134.12109375000003,
              47.01692153702011
            ],
            [
              134.14306640625003,
              47.04689531254953
            ],
            [
              134.18701171875003,
              47.07685225462948
            ],
            [
              134.20898437500003,
              47.12175610781255
            ],
            [
              134.20898437500003,
              47.16662209295153
            ],
            [
              134.20898437500003,
              47.2114502144932
            ],
            [
              134.16503906250003,
              47.226384508322425
            ],
            [
              134.09912109375003,
              47.226384508322425
            ],
            [
              134.03320312500003,
              47.226384508322425
            ],
            [
              133.96728515625003,
              47.226384508322425
            ],
            [
              133.90136718750003,
              47.226384508322425
            ],
            [
              133.83544921875003,
              47.226384508322425
            ],
            [
              133.79150390625003,
              47.24131459575875
            ],
            [
              133.72558593750003,
              47.25624047697342
            ],
            [
              133.65966796875003,
              47.25624047697342
            ],
            [
              133.59375000000003,
              47.27116215213883
            ],
            [
              133.52783203125003,
              47.28607962142843
            ],
            [
              133.46191406250003,
              47.28607962142843
            ],
            [
              133.39599609375003,
              47.28607962142843
            ],
            [
              133.30810546875003,
              47.30099288501681
            ],
            [
              133.22021484375003,
              47.30099288501681
            ],
            [
              133.15429687500003,
              47.30099288501681
            ],
            [
              133.08837890625003,
              47.30099288501681
            ],
            [
              133.02246093750003,
              47.28607962142843
            ],
            [
              132.95654296875003,
              47.28607962142843
            ],
            [
              132.89062500000003,
              47.27116215213883
            ],
            [
              132.80273437500003,
              47.27116215213883
            ],
            [
              132.73681640625003,
              47.27116215213883
            ],
            [
              132.67089843750003,
              47.27116215213883
            ],
            [
              132.60498046875003,
              47.25624047697342
            ],
            [
              132.56103515625003,
              47.24131459575875
            ],
            [
              132.51708984375003,
              47.226384508322425
            ],
            [
              132.49511718750003,
              47.19651171410084
            ],
            [
              132.45117187500003,
              47.18156900697629
            ],
            [
              132.38525390625003,
              47.15167097185966
            ],
            [
              132.34130859375003,
              47.13671564353492
            ],
            [
              132.27539062500003,
              47.13671564353492
            ],
            [
              132.18750000000003,
              47.13671564353492
            ],
            [
              132.12158203125003,
              47.13671564353492
            ],
            [
              132.03369140625003,
              47.13671564353492
            ],
            [
              131.96777343750003,
              47.13671564353492
            ],
            [
              131.92382812500003,
              47.15167097185966
            ],
            [
              131.87988281250003,
              47.16662209295153
            ],
            [
              131.83593750000003,
              47.18156900697629
            ],
            [
              131.79199218750003,
              47.19651171410084
            ],
            [
              131.72607421875003,
              47.19651171410084
            ],
            [
              131.63818359375003,
              47.19651171410084
            ],
            [
              131.59423828125003,
              47.16662209295153
            ],
            [
              131.55029296875003,
              47.15167097185966
            ],
            [
              131.52832031250003,
              47.12175610781255
            ],
            [
              131.50634765625003,
              47.091824413521785
            ],
            [
              131.48437500000003,
              47.06187588769178
            ],
            [
              131.48437500000003,
              47.01692153702011
            ],
            [
              131.46240234375003,
              46.97192930827582
            ],
            [
              131.44042968750003,
              46.94191344368696
            ],
            [
              131.41845703125003,
              46.91188074134662
            ],
            [
              131.37451171875003,
              46.89685807564736
            ],
            [
              131.30859375000003,
              46.85176481867293
            ],
            [
              131.24267578125003,
              46.821681596014976
            ],
            [
              131.22070312500003,
              46.791581530956336
            ],
            [
              131.17675781250003,
              46.77652518217685
            ],
            [
              131.08886718750003,
              46.77652518217685
            ],
            [
              131.02294921875003,
              46.77652518217685
            ],
            [
              130.95703125000003,
              46.76146462237957
            ],
            [
              130.89111328125003,
              46.76146462237957
            ],
            [
              130.82519531250003,
              46.76146462237957
            ],
            [
              130.71533203125003,
              46.74639985142757
            ],
            [
              130.62744140625003,
              46.74639985142757
            ],
            [
              130.53955078125003,
              46.74639985142757
            ],
            [
              130.47363281250003,
              46.76146462237957
            ],
            [
              130.40771484375003,
              46.76146462237957
            ],
            [
              130.36376953125003,
              46.77652518217685
            ],
            [
              130.34179687500003,
              46.806633668856
            ],
            [
              130.29785156250003,
              46.821681596014976
            ],
            [
              130.25390625000003,
              46.83672531257348
            ],
            [
              130.20996093750003,
              46.85176481867293
            ],
            [
              130.16601562500003,
              46.821681596014976
            ],
            [
              130.14404296875003,
              46.791581530956336
            ],
            [
              130.10009765625003,
              46.77652518217685
            ],
            [
              130.05615234375003,
              46.791581530956336
            ],
            [
              130.01220703125003,
              46.806633668856
            ],
            [
              129.94628906250003,
              46.821681596014976
            ],
            [
              129.90234375000003,
              46.83672531257348
            ],
            [
              129.85839843750003,
              46.85176481867293
            ],
            [
              129.81445312500003,
              46.8668001144558
            ],
            [
              129.74853515625003,
              46.88183120006572
            ],
            [
              129.70458984375003,
              46.89685807564736
            ],
            [
              129.66064453125003,
              46.91188074134662
            ],
            [
              129.59472656250003,
              46.926899197310476
            ],
            [
              129.50683593750003,
              46.94191344368696
            ],
            [
              129.44091796875003,
              46.94191344368696
            ],
            [
              129.39697265625003,
              46.95692348062532
            ],
            [
              129.35302734375003,
              46.97192930827582
            ],
            [
              129.28710937500003,
              46.97192930827582
            ],
            [
              129.22119140625003,
              46.97192930827582
            ],
            [
              129.15527343750003,
              46.97192930827582
            ],
            [
              129.08935546875003,
              46.986930926789924
            ],
            [
              128.97949218750003,
              46.986930926789924
            ],
            [
              128.91357421875003,
              46.986930926789924
            ],
            [
              128.84765625000003,
              46.986930926789924
            ],
            [
              128.78173828125003,
              46.97192930827582
            ],
            [
              128.69384765625003,
              46.97192930827582
            ],
            [
              128.60595703125003,
              46.97192930827582
            ],
            [
              128.56201171875003,
              46.95692348062532
            ],
            [
              128.45214843750003,
              46.95692348062532
            ],
            [
              128.38623046875003,
              46.95692348062532
            ],
            [
              128.32031250000003,
              46.95692348062532
            ],
            [
              128.25439453125003,
              46.94191344368696
            ],
            [
              128.18847656250003,
              46.94191344368696
            ],
            [
              128.12255859375003,
              46.95692348062532
            ],
            [
              128.05664062500003,
              46.95692348062532
            ],
            [
              128.01269531250003,
              46.97192930827582
            ],
            [
              127.92480468750001,
              46.97192930827582
            ],
            [
              127.85888671875001,
              46.97192930827582
            ],
            [
              127.79296875000001,
              46.97192930827582
            ],
            [
              127.74902343750001,
              46.95692348062532
            ],
            [
              127.68310546875001,
              46.95692348062532
            ],
            [
              127.59521484375001,
              46.94191344368696
            ],
            [
              127.52929687500001,
              46.94191344368696
            ],
            [
              127.46337890625001,
              46.926899197310476
            ],
            [
              127.39746093750001,
              46.926899197310476
            ],
            [
              127.35351562500001,
              46.91188074134662
            ],
            [
              127.26562500000001,
              46.89685807564736
            ],
            [
              127.22167968750001,
              46.88183120006572
            ],
            [
              127.15576171875001,
              46.8668001144558
            ],
            [
              127.11181640625001,
              46.83672531257348
            ],
            [
              127.06787109375001,
              46.791581530956336
            ],
            [
              127.02392578125001,
              46.77652518217685
            ],
            [
              126.97998046875001,
              46.76146462237957
            ],
            [
              126.93603515625001,
              46.74639985142757
            ],
            [
              126.89208984375001,
              46.73133086918515
            ],
            [
              126.84814453125001,
              46.71625767551763
            ],
            [
              126.78222656250001,
              46.70118027029156
            ],
            [
              126.73828125000001,
              46.67101282463537
            ],
            [
              126.71630859375001,
              46.64082853117122
            ],
            [
              126.69433593750001,
              46.610627388871876
            ],
            [
              126.69433593750001,
              46.55017455374936
            ],
            [
              126.67236328125001,
              46.50479069184221
            ],
            [
              126.69433593750001,
              46.47451371755957
            ],
            [
              126.69433593750001,
              46.41390920560617
            ],
            [
              126.67236328125001,
              46.36841157514359
            ],
            [
              126.67236328125001,
              46.322876015850504
            ],
            [
              126.69433593750001,
              46.2924979033459
            ],
            [
              126.71630859375001,
              46.26210293150522
            ],
            [
              126.73828125000001,
              46.231691099530366
            ],
            [
              126.76025390625,
              46.18604173711639
            ],
            [
              126.80419921875001,
              46.17081685207864
            ],
            [
              126.84814453125001,
              46.14035443509851
            ],
            [
              126.91406250000001,
              46.12511690297521
            ],
            [
              126.97998046875001,
              46.12511690297521
            ],
            [
              127.04589843750001,
              46.109875154977715
            ],
            [
              127.13378906250001,
              46.109875154977715
            ],
            [
              127.19970703125001,
              46.109875154977715
            ],
            [
              127.26562500000001,
              46.109875154977715
            ],
            [
              127.33154296875001,
              46.12511690297521
            ],
            [
              127.37548828125001,
              46.109875154977715
            ],
            [
              127.44140625000001,
              46.09462919101856
            ],
            [
              127.48535156250001,
              46.079379011011305
            ],
            [
              127.52929687500001,
              46.06412461487079
            ],
            [
              127.59521484375001,
              46.04886600251297
            ],
            [
              127.63916015625001,
              46.033603173855006
            ],
            [
              127.68310546875001,
              46.018336128815186
            ],
            [
              127.68310546875001,
              45.97250969460558
            ],
            [
              127.68310546875001,
              45.92664531013175
            ],
            [
              127.66113281250001,
              45.88074297337909
            ],
            [
              127.63916015625001,
              45.83480268242867
            ],
            [
              127.61718750000001,
              45.80415473522543
            ],
            [
              127.59521484375001,
              45.75815118327518
            ],
            [
              127.59521484375001,
              45.71210967247992
            ],
            [
              127.61718750000001,
              45.68139424292527
            ],
            [
              127.66113281250001,
              45.66603020127378
            ],
            [
              127.70507812500001,
              45.65066194163487
            ],
            [
              127.74902343750001,
              45.60453185427937
            ],
            [
              127.79296875000001,
              45.573757371850334
            ],
            [
              127.83691406250001,
              45.54296601629662
            ],
            [
              127.88085937500001,
              45.52756401098679
            ],
            [
              127.92480468750001,
              45.512157787264684
            ],
            [
              127.96875000000001,
              45.496747345089226
            ],
            [
              128.01269531250003,
              45.465913805219365
            ],
            [
              128.07861328125003,
              45.465913805219365
            ],
            [
              128.14453125000003,
              45.465913805219365
            ],
            [
              128.18847656250003,
              45.45049070744874
            ],
            [
              128.23242187500003,
              45.43506339107211
            ],
            [
              128.29833984375003,
              45.4196318560544
            ],
            [
              128.38623046875003,
              45.4196318560544
            ],
            [
              128.45214843750003,
              45.4196318560544
            ],
            [
              128.49609375000003,
              45.404196102361674
            ],
            [
              128.56201171875003,
              45.404196102361674
            ],
            [
              128.62792968750003,
              45.404196102361674
            ],
            [
              128.67187500000003,
              45.38875612996125
            ],
            [
              128.73779296875003,
              45.38875612996125
            ],
            [
              128.78173828125003,
              45.373311938821665
            ],
            [
              128.84765625000003,
              45.373311938821665
            ],
            [
              128.93554687500003,
              45.373311938821665
            ],
            [
              128.97949218750003,
              45.35786352891268
            ],
            [
              129.02343750000003,
              45.34241090020526
            ],
            [
              129.06738281250003,
              45.32695405267156
            ],
            [
              129.11132812500003,
              45.29602770102023
            ],
            [
              129.13330078125003,
              45.26508447376065
            ],
            [
              129.13330078125003,
              45.21863799072061
            ],
            [
              129.11132812500003,
              45.17215353664515
            ],
            [
              129.11132812500003,
              45.11011519777749
            ],
            [
              129.08935546875003,
              45.07907071380686
            ],
            [
              129.08935546875003,
              45.032472344503105
            ],
            [
              129.06738281250003,
              44.98583600308257
            ],
            [
              129.06738281250003,
              44.9391616895255
            ],
            [
              129.06738281250003,
              44.892449403912906
            ],
            [
              129.06738281250003,
              44.84569914642678
            ],
            [
              129.06738281250003,
              44.78330640292392
            ],
            [
              129.06738281250003,
              44.73646754567638
            ],
            [
              129.06738281250003,
              44.689590717894426
            ],
            [
              129.06738281250003,
              44.64267592020044
            ],
            [
              129.06738281250003,
              44.595723153319184
            ],
            [
              129.04541015625003,
              44.564400215142996
            ],
            [
              129.02343750000003,
              44.5330604024085
            ],
            [
              129.02343750000003,
              44.48601904415163
            ],
            [
              129.04541015625003,
              44.45463704633821
            ],
            [
              129.04541015625003,
              44.4075324120093
            ],
            [
              129.04541015625003,
              44.36038981365962
            ],
            [
              129.04541015625003,
              44.31320925263279
            ],
            [
              129.06738281250003,
              44.28173445561594
            ],
            [
              129.06738281250003,
              44.23449062672893
            ],
            [
              129.06738281250003,
              44.18720883925686
            ],
            [
              129.06738281250003,
              44.13988909492591
            ],
            [
              129.08935546875003,
              44.10832151246141
            ],
            [
              129.11132812500003,
              44.06093851081998
            ],
            [
              129.13330078125003,
              44.02932875862962
            ],
            [
              129.15527343750003,
              43.99770213961664
            ],
            [
              129.17724609375003,
              43.96605865442248
            ],
            [
              129.19921875000003,
              43.934398303709564
            ],
            [
              129.22119140625003,
              43.902721088161094
            ],
            [
              129.26513671875003,
              43.88687615629284
            ],
            [
              129.30908203125003,
              43.855173644818244
            ],
            [
              129.33105468750003,
              43.82345427030821
            ],
            [
              129.39697265625003,
              43.79171803351966
            ],
            [
              129.41894531250003,
              43.759964935230535
            ],
            [
              129.48486328125003,
              43.74408206327216
            ],
            [
              129.52880859375003,
              43.71230367423706
            ],
            [
              129.55078125000003,
              43.68050842573875
            ],
            [
              129.61669921875003,
              43.648696318629284
            ],
            [
              129.66064453125003,
              43.63278394336742
            ],
            [
              129.68261718750003,
              43.60094654998522
            ],
            [
              129.72656250000003,
              43.58502153209114
            ],
            [
              129.77050781250003,
              43.55315885447281
            ],
            [
              129.81445312500003,
              43.52127932186413
            ],
            [
              129.85839843750003,
              43.48938293522352
            ],
            [
              129.88037109375003,
              43.45746969553096
            ],
            [
              129.90234375000003,
              43.42553960378779
            ],
            [
              129.92431640625003,
              43.39359266101677
            ],
            [
              129.92431640625003,
              43.34564065347334
            ],
            [
              129.96826171875003,
              43.32964822658995
            ],
            [
              129.96826171875003,
              43.281645674745306
            ],
            [
              129.94628906250003,
              43.24962291558316
            ],
            [
              129.94628906250003,
              43.2015571927948
            ],
            [
              129.92431640625003,
              43.15345357266587
            ],
            [
              129.92431640625003,
              43.10531205924987
            ],
            [
              129.94628906250003,
              43.07319666719802
            ],
            [
              129.94628906250003,
              43.02499200761075
            ],
            [
              129.92431640625003,
              42.99283452209162
            ],
            [
              129.92431640625003,
              42.94456672841044
            ],
            [
              129.90234375000003,
              42.89626106028352
            ],
            [
              129.90234375000003,
              42.84791752235472
            ],
            [
              129.88037109375003,
              42.815667460633655
            ],
            [
              129.85839843750003,
              42.78340057143723
            ],
            [
              129.83642578125003,
              42.75111685622402
            ],
            [
              129.81445312500003,
              42.71881631647477
            ],
            [
              129.79248046875003,
              42.670333964139516
            ],
            [
              129.77050781250003,
              42.63799136967395
            ],
            [
              129.72656250000003,
              42.60563195602962
            ],
            [
              129.68261718750003,
              42.57325572478724
            ],
            [
              129.63867187500003,
              42.55706130306682
            ],
            [
              129.57275390625003,
              42.54086267754977
            ],
            [
              129.52880859375003,
              42.52465984843993
            ],
            [
              129.48486328125003,
              42.50845281594254
            ],
            [
              129.46289062500003,
              42.47602614161322
            ],
            [
              129.41894531250003,
              42.44358265623188
            ],
            [
              129.35302734375003,
              42.42735460992469
            ],
            [
              129.30908203125003,
              42.411122361490975
            ],
            [
              129.24316406250003,
              42.3948859111457
            ],
            [
              129.17724609375003,
              42.37864525910541
            ],
            [
              129.08935546875003,
              42.362400405587955
            ],
            [
              129.02343750000003,
              42.34615135081267
            ],
            [
              128.97949218750003,
              42.32989809500018
            ],
            [
              128.93554687500003,
              42.31364063837262
            ],
            [
              128.91357421875003,
              42.28111312356777
            ],
            [
              128.86962890625003,
              42.26484306584177
            ],
            [
              128.82568359375003,
              42.248568808203196
            ],
            [
              128.78173828125003,
              42.23229035088125
            ],
            [
              128.80371093750003,
              42.18342978312805
            ],
            [
              128.82568359375003,
              42.15083507714076
            ],
            [
              128.80371093750003,
              42.118223578040315
            ],
            [
              128.75976562500003,
              42.10191153167129
            ],
            [
              128.71582031250003,
              42.08559528774515
            ],
            [
              128.62792968750003,
              42.06927484650527
            ],
            [
              128.56201171875003,
              42.0529502081964
            ],
            [
              128.49609375000003,
              42.0529502081964
            ],
            [
              128.43017578125003,
              42.03662137306479
            ],
            [
              128.36425781250003,
              42.03662137306479
            ],
            [
              128.29833984375003,
              42.03662137306479
            ],
            [
              128.25439453125003,
              42.02028834135805
            ],
            [
              128.18847656250003,
              42.03662137306479
            ],
            [
              128.12255859375003,
              42.03662137306479
            ],
            [
              128.10058593750003,
              42.00395111332526
            ],
            [
              128.07861328125003,
              41.97126406928484
            ],
            [
              128.07861328125003,
              41.9222020370875
            ],
            [
              128.03466796875003,
              41.85672726816033
            ],
            [
              128.01269531250003,
              41.77478944951006
            ],
            [
              127.99072265625001,
              41.70916372947823
            ],
            [
              127.96875000000001,
              41.64347094833351
            ],
            [
              127.94677734375001,
              41.61059941542913
            ],
            [
              127.92480468750001,
              41.56126069454697
            ],
            [
              127.90283203125001,
              41.52834726963479
            ],
            [
              127.88085937500001,
              41.49541709198165
            ],
            [
              127.88085937500001,
              41.44599041927317
            ],
            [
              127.85888671875001,
              41.41301837012702
            ],
            [
              127.85888671875001,
              41.34702404109644
            ],
            [
              127.83691406250001,
              41.280962754119045
            ],
            [
              127.83691406250001,
              41.231372859734755
            ],
            [
              127.83691406250001,
              41.18174532129855
            ],
            [
              127.81494140625001,
              41.14863938659614
            ],
            [
              127.81494140625001,
              41.08237734712961
            ],
            [
              127.81494140625001,
              41.032636929125985
            ],
            [
              127.79296875000001,
              40.99945575623067
            ],
            [
              127.74902343750001,
              40.96625787111208
            ],
            [
              127.72705078125001,
              40.916429714001396
            ],
            [
              127.70507812500001,
              40.866563969869844
            ],
            [
              127.70507812500001,
              40.816660648164046
            ],
            [
              127.68310546875001,
              40.78337089531652
            ],
            [
              127.63916015625001,
              40.76671975845172
            ],
            [
              127.61718750000001,
              40.73340496564183
            ],
            [
              127.57324218750001,
              40.70007348314473
            ],
            [
              127.55126953125001,
              40.666725313885294
            ],
            [
              127.52929687500001,
              40.633360460812526
            ],
            [
              127.50732421875001,
              40.59997892689937
            ],
            [
              127.46337890625001,
              40.583281905563375
            ],
            [
              127.44140625000001,
              40.533165828565
            ],
            [
              127.41943359375001,
              40.4997342702106
            ],
            [
              127.37548828125001,
              40.466286043149644
            ],
            [
              127.35351562500001,
              40.43282115047615
            ],
            [
              127.33154296875001,
              40.399339595308355
            ],
            [
              127.28759765625001,
              40.3825925702702
            ],
            [
              127.24365234375001,
              40.36584138078881
            ],
            [
              127.22167968750001,
              40.332326510084506
            ],
            [
              127.22167968750001,
              40.2820229806691
            ],
            [
              127.22167968750001,
              40.23168199289744
            ],
            [
              127.17773437500001,
              40.19810052961071
            ],
            [
              127.15576171875001,
              40.1645024263398
            ],
            [
              127.15576171875001,
              40.11407407871815
            ],
            [
              127.13378906250001,
              40.08043439003721
            ],
            [
              127.13378906250001,
              40.029943680053385
            ],
            [
              127.13378906250001,
              39.979415567941025
            ],
            [
              127.13378906250001,
              39.928850065319345
            ],
            [
              127.11181640625001,
              39.87824718393247
            ],
            [
              127.08984375000001,
              39.82760693564987
            ],
            [
              127.06787109375001,
              39.79382601665988
            ],
            [
              127.04589843750001,
              39.760028499074245
            ],
            [
              127.00195312500001,
              39.74312351693518
            ],
            [
              126.97998046875001,
              39.7093011082325
            ],
            [
              126.93603515625001,
              39.692383682580676
            ],
            [
              126.93603515625001,
              39.641606525926974
            ],
            [
              126.95800781250001,
              39.60773435969351
            ],
            [
              127.02392578125001,
              39.60773435969351
            ],
            [
              127.04589843750001,
              39.573845615027466
            ],
            [
              127.06787109375001,
              39.53994029567599
            ],
            [
              127.13378906250001,
              39.52298142167106
            ],
            [
              127.19970703125001,
              39.52298142167106
            ],
            [
              127.24365234375001,
              39.53994029567599
            ],
            [
              127.28759765625001,
              39.52298142167106
            ],
            [
              127.33154296875001,
              39.506018405411304
            ],
            [
              127.37548828125001,
              39.48905124737217
            ],
            [
              127.41943359375001,
              39.472079948030725
            ],
            [
              127.46337890625001,
              39.43812492735657
            ],
            [
              127.52929687500001,
              39.45510450786544
            ],
            [
              127.57324218750001,
              39.472079948030725
            ],
            [
              127.55126953125001,
              39.506018405411304
            ],
            [
              127.52929687500001,
              39.53994029567599
            ],
            [
              127.50732421875001,
              39.573845615027466
            ],
            [
              127.50732421875001,
              39.62467251534754
            ],
            [
              127.52929687500001,
              39.658536390967335
            ],
            [
              127.55126953125001,
              39.692383682580676
            ],
            [
              127.57324218750001,
              39.7262143865029
            ],
            [
              127.59521484375001,
              39.760028499074245
            ],
            [
              127.63916015625001,
              39.79382601665988
            ],
            [
              127.66113281250001,
              39.82760693564987
            ],
            [
              127.68310546875001,
              39.861371252459165
            ],
            [
              127.72705078125001,
              39.87824718393247
            ],
            [
              127.81494140625001,
              39.89511896352746
            ],
            [
              127.85888671875001,
              39.91198659080295
            ],
            [
              127.92480468750001,
              39.928850065319345
            ],
            [
              128.03466796875003,
              39.94570938663857
            ],
            [
              128.10058593750003,
              39.96256455432414
            ],
            [
              128.16650390625003,
              39.979415567941025
            ],
            [
              128.23242187500003,
              39.979415567941025
            ],
            [
              128.27636718750003,
              39.99626242705588
            ],
            [
              128.32031250000003,
              40.029943680053385
            ],
            [
              128.36425781250003,
              40.046778073076894
            ],
            [
              128.40820312500003,
              40.06360830988009
            ],
            [
              128.45214843750003,
              40.08043439003721
            ],
            [
              128.51806640625003,
              40.09725631312412
            ],
            [
              128.56201171875003,
              40.11407407871815
            ],
            [
              128.62792968750003,
              40.1476971357448
            ],
            [
              128.67187500000003,
              40.1645024263398
            ],
            [
              128.71582031250003,
              40.19810052961071
            ],
            [
              128.75976562500003,
              40.21489334145822
            ],
            [
              128.78173828125003,
              40.24846648351795
            ],
            [
              128.80371093750003,
              40.2820229806691
            ],
            [
              128.82568359375003,
              40.31556282965936
            ],
            [
              128.86962890625003,
              40.349086027260896
            ],
            [
              128.91357421875003,
              40.3825925702702
            ],
            [
              128.95751953125003,
              40.399339595308355
            ],
            [
              128.97949218750003,
              40.43282115047615
            ],
            [
              129.02343750000003,
              40.466286043149644
            ],
            [
              129.08935546875003,
              40.48301224007565
            ],
            [
              129.15527343750003,
              40.51645213316854
            ],
            [
              129.19921875000003,
              40.533165828565
            ],
            [
              129.24316406250003,
              40.566580715143076
            ],
            [
              129.28710937500003,
              40.583281905563375
            ],
            [
              129.35302734375003,
              40.61667177877422
            ],
            [
              129.39697265625003,
              40.633360460812526
            ],
            [
              129.41894531250003,
              40.666725313885294
            ],
            [
              129.44091796875003,
              40.70007348314473
            ],
            [
              129.44091796875003,
              40.750064448439545
            ],
            [
              129.46289062500003,
              40.800017858673584
            ],
            [
              129.50683593750003,
              40.816660648164046
            ],
            [
              129.57275390625003,
              40.833299263430554
            ],
            [
              129.61669921875003,
              40.8499337041173
            ],
            [
              129.68261718750003,
              40.8499337041173
            ],
            [
              129.70458984375003,
              40.88319006033537
            ],
            [
              129.74853515625003,
              40.899811975162535
            ],
            [
              129.77050781250003,
              40.933043276503625
            ],
            [
              129.77050781250003,
              40.982858902529
            ],
            [
              129.81445312500003,
              41.016048431876165
            ],
            [
              129.79248046875003,
              41.08237734712961
            ],
            [
              129.79248046875003,
              41.13208014749529
            ],
            [
              129.81445312500003,
              41.16519444463924
            ],
            [
              129.81445312500003,
              41.21483452916871
            ],
            [
              129.81445312500003,
              41.26443697252791
            ],
            [
              129.83642578125003,
              41.297484352085014
            ],
            [
              129.81445312500003,
              41.34702404109644
            ],
            [
              129.81445312500003,
              41.39652606625508
            ],
            [
              129.83642578125003,
              41.44599041927317
            ],
            [
              129.81445312500003,
              41.47894572161261
            ],
            [
              129.81445312500003,
              41.544806076329834
            ],
            [
              129.83642578125003,
              41.577711123995236
            ],
            [
              129.83642578125003,
              41.627037276840234
            ],
            [
              129.85839843750003,
              41.659900429625395
            ],
            [
              129.85839843750003,
              41.70916372947823
            ],
            [
              129.88037109375003,
              41.74198497323872
            ],
            [
              129.90234375000003,
              41.77478944951006
            ],
            [
              129.92431640625003,
              41.8239647201079
            ],
            [
              129.94628906250003,
              41.85672726816033
            ],
            [
              129.96826171875003,
              41.88947304118731
            ],
            [
              130.01220703125003,
              41.9222020370875
            ],
            [
              130.05615234375003,
              41.93856024296468
            ],
            [
              130.10009765625003,
              41.95491425378252
            ],
            [
              130.12207031250003,
              41.98760968921685
            ],
            [
              130.16601562500003,
              42.02028834135805
            ],
            [
              130.20996093750003,
              42.03662137306479
            ],
            [
              130.23193359375003,
              42.06927484650527
            ],
            [
              130.27587890625003,
              42.08559528774515
            ],
            [
              130.29785156250003,
              42.13453142661032
            ],
            [
              130.34179687500003,
              42.167134529392555
            ],
            [
              130.38574218750003,
              42.18342978312805
            ],
            [
              130.40771484375003,
              42.21600769410652
            ],
            [
              130.45166015625003,
              42.23229035088125
            ],
            [
              130.49560546875003,
              42.26484306584177
            ],
            [
              130.53955078125003,
              42.28111312356777
            ],
            [
              130.60546875000003,
              42.297378981153514
            ],
            [
              130.64941406250003,
              42.31364063837262
            ],
            [
              130.67138671875003,
              42.362400405587955
            ],
            [
              130.67138671875003,
              42.411122361490975
            ],
            [
              130.67138671875003,
              42.45980650019879
            ],
            [
              130.67138671875003,
              42.50845281594254
            ],
            [
              130.67138671875003,
              42.55706130306682
            ],
            [
              130.69335937500003,
              42.58944594250854
            ],
            [
              130.69335937500003,
              42.63799136967395
            ],
            [
              130.73730468750003,
              42.654164769402
            ],
            [
              130.78125000000003,
              42.686498953692414
            ],
            [
              130.84716796875003,
              42.686498953692414
            ],
            [
              130.89111328125003,
              42.70265973786795
            ],
            [
              130.93505859375003,
              42.71881631647477
            ],
            [
              130.97900390625003,
              42.70265973786795
            ],
            [
              131.02294921875003,
              42.686498953692414
            ],
            [
              131.00097656250003,
              42.686498953692414
            ]
          ]
        ]
      }
    }
  ]
}