{
  "type": "FeatureCollection",
  "features": [
    {
      "type": "Feature",
      "properties": {
        "NAME": "Silla",
        "name": "Silla",
        "color": "#ef4444",
        "fill": "#ef4444",
        "fill-opacity": 0.5,
        "stroke": "#ef4444",
        "stroke-width": 2,
        "originalType": "polygon",
        "CODE": "1"
      },
      "geometry": {
        "type": "Polygon",
        "coordinates": [
          [
            [
              126.962396,
              39.502188
            ],
            [
              127.006351,
              39.485238
            ],
            [
              127.050306,
              39.468283
            ],
            [
              127.116239,
              39.468283
            ],
            [
              127.160194,
              39.485238
            ],
            [
              127.204148,
              39.502188
            ],
            [
              127.248103,
              39.485238
            ],
            [
              127.314036,
              39.468283
            ],
            [
              127.357991,
              39.451325
            ],
            [
              127.423923,
              39.451325
            ],
            [
              127.467878,
              39.434363
            ],
            [
              127.489855,
              39.400425
            ],
            [
              127.511833,
              39.366472
            ],
            [
              127.555788,
              39.349488
            ],
            [
              127.53381,
              39.31551
            ],
            [
              127.53381,
              39.264511
            ],
            [
              127.511833,
              39.230491
            ],
            [
              127.489855,
              39.196455
            ],
            [
              127.511833,
              39.162402
            ],
            [
              127.53381,
              39.128333
            ],
            [
              127.599743,
              39.128333
            ],
            [
              127.643698,
              39.111292
            ],
            [
              127.687652,
              39.077198
            ],
            [
              127.731607,
              39.060144
            ],
            [
              127.775562,
              39.026026
            ],
            [
              127.819517,
              39.00896
            ],
            [
              127.863472,
              38.974817
            ],
            [
              127.907427,
              38.957739
            ],
            [
              127.951382,
              38.940657
            ],
            [
              127.995337,
              38.92357
            ],
            [
              128.039292,
              38.889386
            ],
            [
              128.061269,
              38.855185
            ],
            [
              128.105224,
              38.838078
            ],
            [
              128.149179,
              38.820967
            ],
            [
              128.171156,
              38.786733
            ],
            [
              128.237089,
              38.786733
            ],
            [
              128.259066,
              38.752482
            ],
            [
              128.281044,
              38.718216
            ],
            [
              128.324999,
              38.701076
            ],
            [
              128.346976,
              38.666784
            ],
            [
              128.390931,
              38.649632
            ],
            [
              128.412908,
              38.615316
            ],
            [
              128.434886,
              38.580983
            ],
            [
              128.434886,
              38.529454
            ],
            [
              128.456863,
              38.49508
            ],
            [
              128.478841,
              38.46069
            ],
            [
              128.500818,
              38.426283
            ],
            [
              128.522796,
              38.374643
            ],
            [
              128.522796,
              38.322965
            ],
            [
              128.544773,
              38.288493
            ],
            [
              128.566751,
              38.254005
            ],
            [
              128.610705,
              38.2195
            ],
            [
              128.65466,
              38.184979
            ],
            [
              128.698615,
              38.167712
            ],
            [
              128.720593,
              38.133166
            ],
            [
              128.74257,
              38.098604
            ],
            [
              128.764548,
              38.064026
            ],
            [
              128.786525,
              38.029431
            ],
            [
              128.808502,
              37.99482
            ],
            [
              128.852457,
              37.977508
            ],
            [
              128.896412,
              37.942872
            ],
            [
              128.91839,
              37.90822
            ],
            [
              128.940367,
              37.873552
            ],
            [
              128.962345,
              37.838868
            ],
            [
              128.962345,
              37.78681
            ],
            [
              128.984322,
              37.752084
            ],
            [
              128.984322,
              37.699966
            ],
            [
              128.984322,
              37.64781
            ],
            [
              129.0063,
              37.61302
            ],
            [
              129.028277,
              37.578213
            ],
            [
              129.050254,
              37.54339
            ],
            [
              129.094209,
              37.525972
            ],
            [
              129.116187,
              37.473695
            ],
            [
              129.138164,
              37.438823
            ],
            [
              129.182119,
              37.42138
            ],
            [
              129.226074,
              37.386484
            ],
            [
              129.270029,
              37.36903
            ],
            [
              129.335961,
              37.351571
            ],
            [
              129.313984,
              37.316643
            ],
            [
              129.313984,
              37.264219
            ],
            [
              129.335961,
              37.229249
            ],
            [
              129.357939,
              37.194264
            ],
            [
              129.379916,
              37.159262
            ],
            [
              129.401894,
              37.124244
            ],
            [
              129.423871,
              37.089209
            ],
            [
              129.445849,
              37.054159
            ],
            [
              129.467826,
              37.019092
            ],
            [
              129.467826,
              36.966462
            ],
            [
              129.489804,
              36.931355
            ],
            [
              129.489804,
              36.878663
            ],
            [
              129.489804,
              36.825936
            ],
            [
              129.511781,
              36.790764
            ],
            [
              129.511781,
              36.737976
            ],
            [
              129.511781,
              36.685152
            ],
            [
              129.511781,
              36.632291
            ],
            [
              129.511781,
              36.579394
            ],
            [
              129.511781,
              36.526461
            ],
            [
              129.511781,
              36.473491
            ],
            [
              129.511781,
              36.420485
            ],
            [
              129.511781,
              36.367443
            ],
            [
              129.511781,
              36.314365
            ],
            [
              129.489804,
              36.27896
            ],
            [
              129.467826,
              36.243538
            ],
            [
              129.467826,
              36.190376
            ],
            [
              129.467826,
              36.137177
            ],
            [
              129.489804,
              36.101691
            ],
            [
              129.489804,
              36.048433
            ],
            [
              129.511781,
              36.012907
            ],
            [
              129.533758,
              35.977365
            ],
            [
              129.555736,
              35.941807
            ],
            [
              129.599691,
              35.924022
            ],
            [
              129.599691,
              35.870643
            ],
            [
              129.599691,
              35.817228
            ],
            [
              129.577713,
              35.781599
            ],
            [
              129.533758,
              35.763778
            ],
            [
              129.489804,
              35.728124
            ],
            [
              129.445849,
              35.710291
            ],
            [
              129.423871,
              35.674613
            ],
            [
              129.423871,
              35.728124
            ],
            [
              129.445849,
              35.763778
            ],
            [
              129.467826,
              35.728124
            ],
            [
              129.467826,
              35.674613
            ],
            [
              129.467826,
              35.621067
            ],
            [
              129.467826,
              35.567484
            ],
            [
              129.467826,
              35.513866
            ],
            [
              129.511781,
              35.460212
            ],
            [
              129.511781,
              35.406522
            ],
            [
              129.511781,
              35.352796
            ],
            [
              129.467826,
              35.33488
            ],
            [
              129.423871,
              35.299035
            ],
            [
              129.357939,
              35.281106
            ],
            [
              129.313984,
              35.263174
            ],
            [
              129.270029,
              35.245237
            ],
            [
              129.204097,
              35.245237
            ],
            [
              129.160142,
              35.227297
            ],
            [
              129.116187,
              35.209353
            ],
            [
              129.072232,
              35.191404
            ],
            [
              129.028277,
              35.173452
            ],
            [
              128.984322,
              35.155496
            ],
            [
              128.940367,
              35.137536
            ],
            [
              128.91839,
              35.101604
            ],
            [
              128.874435,
              35.083632
            ],
            [
              128.852457,
              35.047676
            ],
            [
              128.808502,
              35.029692
            ],
            [
              128.786525,
              34.993712
            ],
            [
              128.74257,
              34.957716
            ],
            [
              128.720593,
              34.921705
            ],
            [
              128.698615,
              34.867658
            ],
            [
              128.65466,
              34.831607
            ],
            [
              128.588728,
              34.849635
            ],
            [
              128.544773,
              34.885678
            ],
            [
              128.478841,
              34.885678
            ],
            [
              128.434886,
              34.903693
            ],
            [
              128.368953,
              34.903693
            ],
            [
              128.324999,
              34.921705
            ],
            [
              128.259066,
              34.921705
            ],
            [
              128.193134,
              34.921705
            ],
            [
              128.127201,
              34.903693
            ],
            [
              128.061269,
              34.903693
            ],
            [
              128.017314,
              34.885678
            ],
            [
              127.973359,
              34.867658
            ],
            [
              127.929404,
              34.849635
            ],
            [
              127.907427,
              34.813576
            ],
            [
              127.885449,
              34.777501
            ],
            [
              127.863472,
              34.741411
            ],
            [
              127.863472,
              34.687246
            ],
            [
              127.841495,
              34.651116
            ],
            [
              127.79754,
              34.61497
            ],
            [
              127.753585,
              34.596892
            ],
            [
              127.687652,
              34.596892
            ],
            [
              127.62172,
              34.596892
            ],
            [
              127.555788,
              34.596892
            ],
            [
              127.511833,
              34.578809
            ],
            [
              127.4459,
              34.578809
            ],
            [
              127.401946,
              34.560723
            ],
            [
              127.357991,
              34.542632
            ],
            [
              127.292058,
              34.524538
            ],
            [
              127.248103,
              34.506439
            ],
            [
              127.204148,
              34.524538
            ],
            [
              127.160194,
              34.560723
            ],
            [
              127.138216,
              34.596892
            ],
            [
              127.116239,
              34.651116
            ],
            [
              127.116239,
              34.705305
            ],
            [
              127.050306,
              34.705305
            ],
            [
              126.984374,
              34.705305
            ],
            [
              126.962396,
              34.651116
            ],
            [
              126.918442,
              34.633045
            ],
            [
              126.896464,
              34.596892
            ],
            [
              126.852509,
              34.578809
            ],
            [
              126.830532,
              34.542632
            ],
            [
              126.786577,
              34.524538
            ],
            [
              126.720644,
              34.524538
            ],
            [
              126.654712,
              34.524538
            ],
            [
              126.58878,
              34.524538
            ],
            [
              126.544825,
              34.506439
            ],
            [
              126.50087,
              34.542632
            ],
            [
              126.434938,
              34.524538
            ],
            [
              126.390983,
              34.506439
            ],
            [
              126.32505,
              34.506439
            ],
            [
              126.281095,
              34.524538
            ],
            [
              126.215163,
              34.542632
            ],
            [
              126.171208,
              34.560723
            ],
            [
              126.149231,
              34.596892
            ],
            [
              126.127253,
              34.633045
            ],
            [
              126.083298,
              34.669183
            ],
            [
              126.061321,
              34.705305
            ],
            [
              126.083298,
              34.741411
            ],
            [
              126.127253,
              34.759458
            ],
            [
              126.171208,
              34.777501
            ],
            [
              126.215163,
              34.79554
            ],
            [
              126.259118,
              34.813576
            ],
            [
              126.281095,
              34.849635
            ],
            [
              126.32505,
              34.867658
            ],
            [
              126.347028,
              34.903693
            ],
            [
              126.369005,
              34.939713
            ],
            [
              126.41296,
              34.975716
            ],
            [
              126.434938,
              35.011704
            ],
            [
              126.434938,
              35.065655
            ],
            [
              126.434938,
              35.119572
            ],
            [
              126.434938,
              35.173452
            ],
            [
              126.41296,
              35.209353
            ],
            [
              126.434938,
              35.245237
            ],
            [
              126.478893,
              35.263174
            ],
            [
              126.50087,
              35.299035
            ],
            [
              126.50087,
              35.352796
            ],
            [
              126.544825,
              35.370709
            ],
            [
              126.58878,
              35.388617
            ],
            [
              126.610757,
              35.424422
            ],
            [
              126.610757,
              35.4781
            ],
            [
              126.58878,
              35.513866
            ],
            [
              126.566802,
              35.549615
            ],
            [
              126.544825,
              35.585349
            ],
            [
              126.544825,
              35.63892
            ],
            [
              126.566802,
              35.674613
            ],
            [
              126.58878,
              35.710291
            ],
            [
              126.610757,
              35.745953
            ],
            [
              126.632735,
              35.781599
            ],
            [
              126.632735,
              35.835037
            ],
            [
              126.610757,
              35.870643
            ],
            [
              126.58878,
              35.906233
            ],
            [
              126.566802,
              35.941807
            ],
            [
              126.566802,
              35.995138
            ],
            [
              126.566802,
              36.048433
            ],
            [
              126.566802,
              36.101691
            ],
            [
              126.58878,
              36.137177
            ],
            [
              126.566802,
              36.172647
            ],
            [
              126.522847,
              36.208101
            ],
            [
              126.522847,
              36.261251
            ],
            [
              126.544825,
              36.296665
            ],
            [
              126.566802,
              36.332062
            ],
            [
              126.544825,
              36.367443
            ],
            [
              126.50087,
              36.385128
            ],
            [
              126.456915,
              36.420485
            ],
            [
              126.434938,
              36.455827
            ],
            [
              126.41296,
              36.491152
            ],
            [
              126.41296,
              36.544109
            ],
            [
              126.41296,
              36.59703
            ],
            [
              126.369005,
              36.614663
            ],
            [
              126.32505,
              36.632291
            ],
            [
              126.303073,
              36.667535
            ],
            [
              126.259118,
              36.685152
            ],
            [
              126.237141,
              36.720372
            ],
            [
              126.215163,
              36.755576
            ],
            [
              126.215163,
              36.808352
            ],
            [
              126.193186,
              36.843516
            ],
            [
              126.215163,
              36.878663
            ],
            [
              126.237141,
              36.913795
            ],
            [
              126.259118,
              36.94891
            ],
            [
              126.32505,
              36.94891
            ],
            [
              126.369005,
              36.966462
            ],
            [
              126.41296,
              36.984009
            ],
            [
              126.478893,
              36.984009
            ],
            [
              126.522847,
              37.001553
            ],
            [
              126.58878,
              37.001553
            ],
            [
              126.654712,
              37.001553
            ],
            [
              126.698667,
              37.019092
            ],
            [
              126.764599,
              37.019092
            ],
            [
              126.808554,
              37.036628
            ],
            [
              126.808554,
              37.089209
            ],
            [
              126.808554,
              37.159262
            ],
            [
              126.786577,
              37.194264
            ],
            [
              126.786577,
              37.246736
            ],
            [
              126.764599,
              37.281697
            ],
            [
              126.742622,
              37.316643
            ],
            [
              126.742622,
              37.36903
            ],
            [
              126.720644,
              37.403934
            ],
            [
              126.67669,
              37.42138
            ],
            [
              126.632735,
              37.438823
            ],
            [
              126.58878,
              37.456261
            ],
            [
              126.544825,
              37.491124
            ],
            [
              126.50087,
              37.525972
            ],
            [
              126.478893,
              37.560803
            ],
            [
              126.478893,
              37.61302
            ],
            [
              126.522847,
              37.64781
            ],
            [
              126.522847,
              37.699966
            ],
            [
              126.50087,
              37.734716
            ],
            [
              126.478893,
              37.769449
            ],
            [
              126.456915,
              37.804167
            ],
            [
              126.41296,
              37.821519
            ],
            [
              126.347028,
              37.821519
            ],
            [
              126.281095,
              37.821519
            ],
            [
              126.215163,
              37.821519
            ],
            [
              126.149231,
              37.821519
            ],
            [
              126.083298,
              37.838868
            ],
            [
              126.017366,
              37.838868
            ],
            [
              125.951434,
              37.838868
            ],
            [
              125.907479,
              37.873552
            ],
            [
              125.863524,
              37.890888
            ],
            [
              125.819569,
              37.90822
            ],
            [
              125.753637,
              37.90822
            ],
            [
              125.709682,
              37.890888
            ],
            [
              125.665727,
              37.873552
            ],
            [
              125.643749,
              37.838868
            ],
            [
              125.599794,
              37.821519
            ],
            [
              125.55584,
              37.804167
            ],
            [
              125.511885,
              37.78681
            ],
            [
              125.46793,
              37.821519
            ],
            [
              125.423975,
              37.838868
            ],
            [
              125.38002,
              37.856212
            ],
            [
              125.336065,
              37.873552
            ],
            [
              125.29211,
              37.890888
            ],
            [
              125.248155,
              37.90822
            ],
            [
              125.226178,
              37.942872
            ],
            [
              125.160245,
              37.942872
            ],
            [
              125.138268,
              37.977508
            ],
            [
              125.138268,
              38.029431
            ],
            [
              125.160245,
              38.064026
            ],
            [
              125.138268,
              38.098604
            ],
            [
              125.072336,
              38.115887
            ],
            [
              125.006403,
              38.115887
            ],
            [
              124.962448,
              38.133166
            ],
            [
              124.896516,
              38.133166
            ],
            [
              124.852561,
              38.115887
            ],
            [
              124.786629,
              38.115887
            ],
            [
              124.786629,
              38.167712
            ],
            [
              124.786629,
              38.2195
            ],
            [
              124.808606,
              38.254005
            ],
            [
              124.830584,
              38.288493
            ],
            [
              124.830584,
              38.340195
            ],
            [
              124.852561,
              38.374643
            ],
            [
              124.852561,
              38.426283
            ],
            [
              124.896516,
              38.443489
            ],
            [
              124.940471,
              38.46069
            ],
            [
              124.984426,
              38.477887
            ],
            [
              124.984426,
              38.529454
            ],
            [
              124.962448,
              38.563811
            ],
            [
              124.984426,
              38.598152
            ],
            [
              125.006403,
              38.632476
            ],
            [
              125.050358,
              38.666784
            ],
            [
              125.094313,
              38.683932
            ],
            [
              125.160245,
              38.701076
            ],
            [
              125.226178,
              38.701076
            ],
            [
              125.270133,
              38.718216
            ],
            [
              125.336065,
              38.718216
            ],
            [
              125.38002,
              38.735351
            ],
            [
              125.423975,
              38.752482
            ],
            [
              125.489907,
              38.752482
            ],
            [
              125.55584,
              38.752482
            ],
            [
              125.621772,
              38.76961
            ],
            [
              125.665727,
              38.786733
            ],
            [
              125.665727,
              38.838078
            ],
            [
              125.687704,
              38.889386
            ],
            [
              125.687704,
              38.940657
            ],
            [
              125.687704,
              38.99189
            ],
            [
              125.753637,
              38.99189
            ],
            [
              125.841546,
              38.99189
            ],
            [
              125.885501,
              39.026026
            ],
            [
              125.929456,
              39.043087
            ],
            [
              125.973411,
              39.077198
            ],
            [
              125.995389,
              39.111292
            ],
            [
              126.039343,
              39.128333
            ],
            [
              126.083298,
              39.145369
            ],
            [
              126.105276,
              39.17943
            ],
            [
              126.083298,
              39.213475
            ],
            [
              126.061321,
              39.247503
            ],
            [
              126.039343,
              39.281515
            ],
            [
              126.039343,
              39.332501
            ],
            [
              126.039343,
              39.383451
            ],
            [
              126.017366,
              39.417396
            ],
            [
              126.039343,
              39.451325
            ],
            [
              126.083298,
              39.468283
            ],
            [
              126.149231,
              39.468283
            ],
            [
              126.193186,
              39.485238
            ],
            [
              126.237141,
              39.519134
            ],
            [
              126.281095,
              39.536075
            ],
            [
              126.32505,
              39.553013
            ],
            [
              126.390983,
              39.553013
            ],
            [
              126.456915,
              39.553013
            ],
            [
              126.522847,
              39.553013
            ],
            [
              126.566802,
              39.569947
            ],
            [
              126.632735,
              39.569947
            ],
            [
              126.698667,
              39.586876
            ],
            [
              126.764599,
              39.586876
            ],
            [
              126.830532,
              39.586876
            ],
            [
              126.896464,
              39.586876
            ],
            [
              126.984374,
              39.569947
            ],
            [
              127.006351,
              39.536075
            ],
            [
              127.028329,
              39.485238
            ],
            [
              127.028329,
              39.485238
            ],
            [
              126.962396,
              39.502188
            ]
          ]
        ]
      }
    },
    {
      "type": "Feature",
      "properties": {
        "NAME": "발해",
        "name": "764-817",
        "color": "#ef4444",
        "fill": "#ef4444",
        "fill-opacity": 0.5,
        "stroke": "#ef4444",
        "stroke-width": 2,
        "originalType": "polyline",
        "CODE": "발해"
      },
      "geometry": {
        "type": "Polygon",
        "coordinates": [
          [
            [
              126.91406250000001,
              39.676579251753225
            ],
            [
              126.93603515625001,
              39.642724215041945
            ],
            [
              126.95800781250001,
              39.608852596053474
            ],
            [
              126.97998046875001,
              39.57496439850917
            ],
            [
              127.04589843750001,
              39.57496439850917
            ],
            [
              127.11181640625001,
              39.57496439850917
            ],
            [
              127.15576171875001,
              39.55801408394834
            ],
            [
              127.22167968750001,
              39.55801408394834
            ],
            [
              127.26562500000001,
              39.54105962615539
            ],
            [
              127.30957031250001,
              39.52410102560249
            ],
            [
              127.35351562500001,
              39.49017139811362
            ],
            [
              127.39746093750001,
              39.4732003721299
            ],
            [
              127.44140625000001,
              39.45622520529076
            ],
            [
              127.48535156250001,
              39.43924589807626
            ],
            [
              127.52929687500001,
              39.42226245096798
            ],
            [
              127.55126953125001,
              39.45622520529076
            ],
            [
              127.55126953125001,
              39.52410102560249
            ],
            [
              127.57324218750001,
              39.55801408394834
            ],
            [
              127.55126953125001,
              39.59191056936725
            ],
            [
              127.57324218750001,
              39.642724215041945
            ],
            [
              127.59521484375001,
              39.710417702491014
            ],
            [
              127.61718750000001,
              39.744239563583875
            ],
            [
              127.63916015625001,
              39.77804483138541
            ],
            [
              127.66113281250001,
              39.811833502274
            ],
            [
              127.68310546875001,
              39.84560557265301
            ],
            [
              127.74902343750001,
              39.86248538153424
            ],
            [
              127.79296875000001,
              39.87936103895058
            ],
            [
              127.88085937500001,
              39.87936103895058
            ],
            [
              127.92480468750001,
              39.89623254445941
            ],
            [
              127.99072265625001,
              39.89623254445941
            ],
            [
              128.03466796875003,
              39.929963097991866
            ],
            [
              128.07861328125003,
              39.946822145138036
            ],
            [
              128.12255859375003,
              39.963677038621796
            ],
            [
              128.16650390625003,
              39.99737436286404
            ],
            [
              128.23242187500003,
              40.01421679275744
            ],
            [
              128.27636718750003,
              40.03105506725822
            ],
            [
              128.34228515625003,
              40.03105506725822
            ],
            [
              128.38623046875003,
              40.04788918593764
            ],
            [
              128.45214843750003,
              40.06471914836861
            ],
            [
              128.51806640625003,
              40.09836660278415
            ],
            [
              128.56201171875003,
              40.115184093922096
            ],
            [
              128.60595703125003,
              40.13199742711835
            ],
            [
              128.62792968750003,
              40.16561161800945
            ],
            [
              128.69384765625003,
              40.16561161800945
            ],
            [
              128.73779296875003,
              40.182412474869956
            ],
            [
              128.78173828125003,
              40.21600170934665
            ],
            [
              128.82568359375003,
              40.2327900861377
            ],
            [
              128.86962890625003,
              40.24957430208301
            ],
            [
              128.89160156250003,
              40.2831302498031
            ],
            [
              128.93554687500003,
              40.31666954925538
            ],
            [
              128.95751953125003,
              40.35019219721279
            ],
            [
              128.97949218750003,
              40.38369819047266
            ],
            [
              129.02343750000003,
              40.40044494059684
            ],
            [
              129.08935546875003,
              40.433925945858725
            ],
            [
              129.13330078125003,
              40.467390288523035
            ],
            [
              129.17724609375003,
              40.500837965472236
            ],
            [
              129.22119140625003,
              40.51755555333614
            ],
            [
              129.26513671875003,
              40.53426897361321
            ],
            [
              129.30908203125003,
              40.55097822592062
            ],
            [
              129.35302734375003,
              40.56768330987698
            ],
            [
              129.39697265625003,
              40.58438422510251
            ],
            [
              129.41894531250003,
              40.61777354784916
            ],
            [
              129.41894531250003,
              40.66782625707876
            ],
            [
              129.44091796875003,
              40.7011738756282
            ],
            [
              129.46289062500003,
              40.734504807318395
            ],
            [
              129.48486328125003,
              40.78446991060275
            ],
            [
              129.55078125000003,
              40.817759112404545
            ],
            [
              129.59472656250003,
              40.83439745211286
            ],
            [
              129.63867187500003,
              40.85103161721791
            ],
            [
              129.68261718750003,
              40.867661607365505
            ],
            [
              129.74853515625003,
              40.867661607365505
            ],
            [
              129.77050781250003,
              40.900909061378556
            ],
            [
              129.81445312500003,
              40.934139811347876
            ],
            [
              129.83642578125003,
              40.983954610144465
            ],
            [
              129.85839843750003,
              41.03373180930971
            ],
            [
              129.88037109375003,
              41.066895715539566
            ],
            [
              129.88037109375003,
              41.11661022835133
            ],
            [
              129.83642578125003,
              41.14973233533139
            ],
            [
              129.83642578125003,
              41.19938413689552
            ],
            [
              129.83642578125003,
              41.282053494192276
            ],
            [
              129.83642578125003,
              41.331604907365005
            ],
            [
              129.83642578125003,
              41.38111865928946
            ],
            [
              129.83642578125003,
              41.43059474164085
            ],
            [
              129.81445312500003,
              41.463557864943965
            ],
            [
              129.81445312500003,
              41.51297114649658
            ],
            [
              129.81445312500003,
              41.56234673685666
            ],
            [
              129.83642578125003,
              41.61168462813375
            ],
            [
              129.83642578125003,
              41.660984812555185
            ],
            [
              129.85839843750003,
              41.69383065013126
            ],
            [
              129.88037109375003,
              41.759472030328624
            ],
            [
              129.92431640625003,
              41.79226756854107
            ],
            [
              129.92431640625003,
              41.84142942989143
            ],
            [
              129.94628906250003,
              41.87418303702399
            ],
            [
              129.99023437500003,
              41.9069198680082
            ],
            [
              130.01220703125003,
              41.93963992075496
            ],
            [
              130.05615234375003,
              41.97234319319813
            ],
            [
              130.10009765625003,
              41.98868853616642
            ],
            [
              130.14404296875003,
              42.02136663433025
            ],
            [
              130.20996093750003,
              42.05402794712532
            ],
            [
              130.23193359375003,
              42.08667247256559
            ],
            [
              130.25390625000003,
              42.119300208687854
            ],
            [
              130.29785156250003,
              42.13560778014748
            ],
            [
              130.34179687500003,
              42.168210328661566
            ],
            [
              130.40771484375003,
              42.18450530523948
            ],
            [
              130.45166015625003,
              42.20079608304928
            ],
            [
              130.51757812500003,
              42.23336504142707
            ],
            [
              130.56152343750003,
              42.249643221529816
            ],
            [
              130.58349609375003,
              42.28218698241058
            ],
            [
              130.62744140625003,
              42.298452562731875
            ],
            [
              130.62744140625003,
              42.34722410050876
            ],
            [
              130.64941406250003,
              42.37971745414011
            ],
            [
              130.64941406250003,
              42.42842597285935
            ],
            [
              130.67138671875003,
              42.460877308329195
            ],
            [
              130.67138671875003,
              42.50952279176206
            ],
            [
              130.69335937500003,
              42.55813044645233
            ],
            [
              130.69335937500003,
              42.60670026686039
            ],
            [
              130.71533203125003,
              42.655232247559894
            ],
            [
              130.73730468750003,
              42.68756587667059
            ],
            [
              130.78125000000003,
              42.70372638323721
            ],
            [
              130.84716796875003,
              42.70372638323721
            ],
            [
              130.91308593750003,
              42.70372638323721
            ],
            [
              130.97900390625003,
              42.70372638323721
            ],
            [
              131.04492187500003,
              42.70372638323721
            ],
            [
              131.08886718750003,
              42.68756587667059
            ],
            [
              131.13281250000003,
              42.67140116471394
            ],
            [
              131.17675781250003,
              42.655232247559894
            ],
            [
              131.24267578125003,
              42.655232247559894
            ],
            [
              131.28662109375003,
              42.67140116471394
            ],
            [
              131.33056640625003,
              42.68756587667059
            ],
            [
              131.37451171875003,
              42.70372638323721
            ],
            [
              131.39648437500003,
              42.736034779436814
            ],
            [
              131.39648437500003,
              42.78446582857511
            ],
            [
              131.39648437500003,
              42.83285901907171
            ],
            [
              131.39648437500003,
              42.88121434602493
            ],
            [
              131.39648437500003,
              42.92953180464472
            ],
            [
              131.39648437500003,
              42.977811390252576
            ],
            [
              131.41845703125003,
              43.009976737835665
            ],
            [
              131.48437500000003,
              43.02605309828134
            ],
            [
              131.55029296875003,
              43.02605309828134
            ],
            [
              131.59423828125003,
              43.042125249611054
            ],
            [
              131.63818359375003,
              43.05819319166251
            ],
            [
              131.68212890625003,
              43.07425692427476
            ],
            [
              131.70410156250003,
              43.12242286388753
            ],
            [
              131.70410156250003,
              43.170550912884785
            ],
            [
              131.72607421875003,
              43.20261522649966
            ],
            [
              131.77001953125003,
              43.250680115359835
            ],
            [
              131.79199218750003,
              43.29870710285029
            ],
            [
              131.81396484375003,
              43.33070403629747
            ],
            [
              131.83593750000003,
              43.36268412187802
            ],
            [
              131.87988281250003,
              43.37866784637791
            ],
            [
              131.90185546875003,
              43.41062265812784
            ],
            [
              131.92382812500003,
              43.44256061933495
            ],
            [
              131.94580078125003,
              43.474481728966396
            ],
            [
              131.98974609375003,
              43.50638598601083
            ],
            [
              132.01171875000003,
              43.55421077081727
            ],
            [
              132.03369140625003,
              43.58607289211012
            ],
            [
              132.03369140625003,
              43.633834468841094
            ],
            [
              132.05566406250003,
              43.68155811660075
            ],
            [
              132.07763671875003,
              43.729243832426185
            ],
            [
              132.09960937500003,
              43.80863572457475
            ],
            [
              132.09960937500003,
              43.87207336027985
            ],
            [
              132.12158203125003,
              43.9037668833599
            ],
            [
              132.12158203125003,
              43.951275547469045
            ],
            [
              132.12158203125003,
              43.99874626487788
            ],
            [
              132.12158203125003,
              44.06198152268086
            ],
            [
              132.14355468750003,
              44.09357385069735
            ],
            [
              132.16552734375003,
              44.14093071492375
            ],
            [
              132.18750000000003,
              44.172480871706846
            ],
            [
              132.18750000000003,
              44.21977447646212
            ],
            [
              132.18750000000003,
              44.267030123158484
            ],
            [
              132.14355468750003,
              44.29851279899115
            ],
            [
              132.12158203125003,
              44.329978603373846
            ],
            [
              132.09960937500003,
              44.361427535862916
            ],
            [
              132.09960937500003,
              44.424274783488286
            ],
            [
              132.09960937500003,
              44.47136592748904
            ],
            [
              132.12158203125003,
              44.51841910581356
            ],
            [
              132.12158203125003,
              44.5654343173622
            ],
            [
              132.14355468750003,
              44.596756698578425
            ],
            [
              132.16552734375003,
              44.62806220495725
            ],
            [
              132.16552734375003,
              44.69062259222502
            ],
            [
              132.16552734375003,
              44.73749858451933
            ],
            [
              132.09960937500003,
              44.75311547741247
            ],
            [
              132.01171875000003,
              44.75311547741247
            ],
            [
              131.98974609375003,
              44.784336606266656
            ],
            [
              131.98974609375003,
              44.831136656948914
            ],
            [
              132.01171875000003,
              44.877898736149724
            ],
            [
              132.03369140625003,
              44.909052360189854
            ],
            [
              132.05566406250003,
              44.955751152938745
            ],
            [
              132.07763671875003,
              45.01795714222195
            ],
            [
              132.09960937500003,
              45.04903482210384
            ],
            [
              132.09960937500003,
              45.095619698530314
            ],
            [
              132.07763671875003,
              45.12665518728439
            ],
            [
              132.07763671875003,
              45.173176777297414
            ],
            [
              132.05566406250003,
              45.20417007536685
            ],
            [
              132.05566406250003,
              45.250628379862626
            ],
            [
              132.07763671875003,
              45.29704871367028
            ],
            [
              132.07763671875003,
              45.343431077377915
            ],
            [
              132.05566406250003,
              45.38977547167273
            ],
            [
              132.12158203125003,
              45.38977547167273
            ],
            [
              132.18750000000003,
              45.38977547167273
            ],
            [
              132.25341796875003,
              45.38977547167273
            ],
            [
              132.29736328125003,
              45.40521516559004
            ],
            [
              132.36328125000003,
              45.40521516559004
            ],
            [
              132.42919921875003,
              45.38977547167273
            ],
            [
              132.47314453125003,
              45.35888342759638
            ],
            [
              132.51708984375003,
              45.343431077377915
            ],
            [
              132.56103515625003,
              45.32797450833498
            ],
            [
              132.60498046875003,
              45.31251372044095
            ],
            [
              132.64892578125003,
              45.28157948799883
            ],
            [
              132.69287109375003,
              45.26610604340353
            ],
            [
              132.73681640625003,
              45.250628379862626
            ],
            [
              132.78076171875003,
              45.23514649735558
            ],
            [
              132.82470703125003,
              45.219660395862995
            ],
            [
              132.89062500000003,
              45.219660395862995
            ],
            [
              132.95654296875003,
              45.219660395862995
            ],
            [
              133.00048828125003,
              45.23514649735558
            ],
            [
              133.04443359375003,
              45.250628379862626
            ],
            [
              133.08837890625003,
              45.26610604340353
            ],
            [
              133.13232421875003,
              45.29704871367028
            ],
            [
              133.17626953125003,
              45.32797450833498
            ],
            [
              133.19824218750003,
              45.35888342759638
            ],
            [
              133.19824218750003,
              45.40521516559004
            ],
            [
              133.22021484375003,
              45.436081897340756
            ],
            [
              133.24218750000003,
              45.466931754537384
            ],
            [
              133.28613281250003,
              45.48235035526669
            ],
            [
              133.35205078125003,
              45.528580846433485
            ],
            [
              133.37402343750003,
              45.5593800817639
            ],
            [
              133.41796875000003,
              45.59016244380215
            ],
            [
              133.46191406250003,
              45.63630435023772
            ],
            [
              133.48388671875003,
              45.66704453067926
            ],
            [
              133.50585937500003,
              45.697767839186106
            ],
            [
              133.52783203125003,
              45.74382116801715
            ],
            [
              133.54980468750003,
              45.78983653750528
            ],
            [
              133.57177734375003,
              45.82049236277568
            ],
            [
              133.59375000000003,
              45.86644447036748
            ],
            [
              133.61572265625003,
              45.89705812266093
            ],
            [
              133.63769531250003,
              45.92765490671826
            ],
            [
              133.65966796875003,
              45.95823482311334
            ],
            [
              133.68164062500003,
              45.988797872439065
            ],
            [
              133.72558593750003,
              46.00407307214135
            ],
            [
              133.74755859375003,
              46.03461082201588
            ],
            [
              133.76953125000003,
              46.065131706385664
            ],
            [
              133.81347656250003,
              46.08038582421141
            ],
            [
              133.83544921875003,
              46.11088141156513
            ],
            [
              133.85742187500003,
              46.141360135096186
            ],
            [
              133.90136718750003,
              46.171821995510186
            ],
            [
              133.92333984375003,
              46.202266993531424
            ],
            [
              133.94531250000003,
              46.23269512990286
            ],
            [
              133.96728515625003,
              46.26310640538601
            ],
            [
              133.96728515625003,
              46.308691706156864
            ],
            [
              133.98925781250003,
              46.339060832873066
            ],
            [
              133.98925781250003,
              46.399748512920326
            ],
            [
              133.98925781250003,
              46.44522002461611
            ],
            [
              133.96728515625003,
              46.47551329676199
            ],
            [
              133.96728515625003,
              46.520921603777126
            ],
            [
              133.94531250000003,
              46.55117274234427
            ],
            [
              133.92333984375003,
              46.5814070291353
            ],
            [
              133.92333984375003,
              46.62672686437569
            ],
            [
              133.92333984375003,
              46.672008788675754
            ],
            [
              133.92333984375003,
              46.71725280548913
            ],
            [
              133.94531250000003,
              46.74739442539694
            ],
            [
              133.96728515625003,
              46.77751920017979
            ],
            [
              133.98925781250003,
              46.80762713092877
            ],
            [
              134.01123046875003,
              46.85275744691986
            ],
            [
              134.03320312500003,
              46.882823272475804
            ],
            [
              134.07714843750003,
              46.89784987015343
            ],
            [
              134.09912109375003,
              46.927890436037515
            ],
            [
              134.12109375000003,
              46.97291971340813
            ],
            [
              134.12109375000003,
              47.017911108648015
            ],
            [
              134.14306640625003,
              47.047884328558936
            ],
            [
              134.14306640625003,
              47.1077802694269
            ],
            [
              134.14306640625003,
              47.15265804353589
            ],
            [
              134.16503906250003,
              47.182555523225844
            ],
            [
              134.16503906250003,
              47.227370191515114
            ],
            [
              134.12109375000003,
              47.24230000128822
            ],
            [
              134.03320312500003,
              47.24230000128822
            ],
            [
              133.94531250000003,
              47.24230000128822
            ],
            [
              133.87939453125003,
              47.24230000128822
            ],
            [
              133.83544921875003,
              47.227370191515114
            ],
            [
              133.76953125000003,
              47.227370191515114
            ],
            [
              133.72558593750003,
              47.21243617536032
            ],
            [
              133.63769531250003,
              47.21243617536032
            ],
            [
              133.57177734375003,
              47.227370191515114
            ],
            [
              133.52783203125003,
              47.24230000128822
            ],
            [
              133.46191406250003,
              47.25722560485108
            ],
            [
              133.35205078125003,
              47.25722560485108
            ],
            [
              133.26416015625003,
              47.27214700237605
            ],
            [
              133.19824218750003,
              47.27214700237605
            ],
            [
              133.15429687500003,
              47.28706419403674
            ],
            [
              133.06640625000003,
              47.28706419403674
            ],
            [
              133.00048828125003,
              47.28706419403674
            ],
            [
              132.93457031250003,
              47.28706419403674
            ],
            [
              132.86865234375003,
              47.28706419403674
            ],
            [
              132.80273437500003,
              47.28706419403674
            ],
            [
              132.75878906250003,
              47.27214700237605
            ],
            [
              132.69287109375003,
              47.27214700237605
            ],
            [
              132.64892578125003,
              47.24230000128822
            ],
            [
              132.58300781250003,
              47.227370191515114
            ],
            [
              132.49511718750003,
              47.21243617536032
            ],
            [
              132.45117187500003,
              47.182555523225844
            ],
            [
              132.40722656250003,
              47.167608886908944
            ],
            [
              132.36328125000003,
              47.15265804353589
            ],
            [
              132.31933593750003,
              47.137702992940866
            ],
            [
              132.25341796875003,
              47.137702992940866
            ],
            [
              132.14355468750003,
              47.15265804353589
            ],
            [
              132.05566406250003,
              47.15265804353589
            ],
            [
              131.98974609375003,
              47.167608886908944
            ],
            [
              131.90185546875003,
              47.167608886908944
            ],
            [
              131.83593750000003,
              47.167608886908944
            ],
            [
              131.77001953125003,
              47.15265804353589
            ],
            [
              131.70410156250003,
              47.15265804353589
            ],
            [
              131.63818359375003,
              47.15265804353589
            ],
            [
              131.61621093750003,
              47.1077802694269
            ],
            [
              131.57226562500003,
              47.062864625907515
            ],
            [
              131.52832031250003,
              47.017911108648015
            ],
            [
              131.48437500000003,
              47.00291818577265
            ],
            [
              131.46240234375003,
              46.95791416361259
            ],
            [
              131.44042968750003,
              46.927890436037515
            ],
            [
              131.39648437500003,
              46.89784987015343
            ],
            [
              131.37451171875003,
              46.867792464779555
            ],
            [
              131.35253906250003,
              46.837718218753004
            ],
            [
              131.28662109375003,
              46.82267478013648
            ],
            [
              131.22070312500003,
              46.80762713092877
            ],
            [
              131.17675781250003,
              46.792575270989616
            ],
            [
              131.08886718750003,
              46.792575270989616
            ],
            [
              130.97900390625003,
              46.792575270989616
            ],
            [
              130.89111328125003,
              46.77751920017979
            ],
            [
              130.82519531250003,
              46.76245891836121
            ],
            [
              130.73730468750003,
              46.76245891836121
            ],
            [
              130.67138671875003,
              46.76245891836121
            ],
            [
              130.60546875000003,
              46.76245891836121
            ],
            [
              130.56152343750003,
              46.74739442539694
            ],
            [
              130.49560546875003,
              46.74739442539694
            ],
            [
              130.42968750000003,
              46.76245891836121
            ],
            [
              130.36376953125003,
              46.77751920017979
            ],
            [
              130.29785156250003,
              46.77751920017979
            ],
            [
              130.27587890625003,
              46.80762713092877
            ],
            [
              130.23193359375003,
              46.82267478013648
            ],
            [
              130.20996093750003,
              46.85275744691986
            ],
            [
              130.16601562500003,
              46.867792464779555
            ],
            [
              130.12207031250003,
              46.837718218753004
            ],
            [
              130.05615234375003,
              46.82267478013648
            ],
            [
              129.99023437500003,
              46.82267478013648
            ],
            [
              129.94628906250003,
              46.837718218753004
            ],
            [
              129.90234375000003,
              46.85275744691986
            ],
            [
              129.85839843750003,
              46.867792464779555
            ],
            [
              129.77050781250003,
              46.882823272475804
            ],
            [
              129.72656250000003,
              46.91287225795832
            ],
            [
              129.66064453125003,
              46.91287225795832
            ],
            [
              129.61669921875003,
              46.927890436037515
            ],
            [
              129.55078125000003,
              46.94290440453919
            ],
            [
              129.48486328125003,
              46.94290440453919
            ],
            [
              129.41894531250003,
              46.94290440453919
            ],
            [
              129.37500000000003,
              46.95791416361259
            ],
            [
              129.30908203125003,
              46.95791416361259
            ],
            [
              129.24316406250003,
              46.95791416361259
            ],
            [
              129.15527343750003,
              46.95791416361259
            ],
            [
              129.02343750000003,
              46.95791416361259
            ],
            [
              128.93554687500003,
              46.95791416361259
            ],
            [
              128.86962890625003,
              46.95791416361259
            ],
            [
              128.78173828125003,
              46.95791416361259
            ],
            [
              128.71582031250003,
              46.95791416361259
            ],
            [
              128.64990234375003,
              46.95791416361259
            ],
            [
              128.58398437500003,
              46.95791416361259
            ],
            [
              128.54003906250003,
              46.97291971340813
            ],
            [
              128.47412109375003,
              46.97291971340813
            ],
            [
              128.40820312500003,
              46.97291971340813
            ],
            [
              128.34228515625003,
              46.97291971340813
            ],
            [
              128.29833984375003,
              46.95791416361259
            ],
            [
              128.21044921875003,
              46.95791416361259
            ],
            [
              128.12255859375003,
              46.95791416361259
            ],
            [
              128.05664062500003,
              46.95791416361259
            ],
            [
              127.99072265625001,
              46.95791416361259
            ],
            [
              127.90283203125001,
              46.95791416361259
            ],
            [
              127.81494140625001,
              46.95791416361259
            ],
            [
              127.72705078125001,
              46.95791416361259
            ],
            [
              127.66113281250001,
              46.95791416361259
            ],
            [
              127.59521484375001,
              46.95791416361259
            ],
            [
              127.52929687500001,
              46.95791416361259
            ],
            [
              127.48535156250001,
              46.94290440453919
            ],
            [
              127.39746093750001,
              46.927890436037515
            ],
            [
              127.35351562500001,
              46.91287225795832
            ],
            [
              127.28759765625001,
              46.91287225795832
            ],
            [
              127.24365234375001,
              46.89784987015343
            ],
            [
              127.15576171875001,
              46.89784987015343
            ],
            [
              127.11181640625001,
              46.882823272475804
            ],
            [
              127.06787109375001,
              46.867792464779555
            ],
            [
              127.02392578125001,
              46.85275744691986
            ],
            [
              126.97998046875001,
              46.82267478013648
            ],
            [
              126.93603515625001,
              46.792575270989616
            ],
            [
              126.89208984375001,
              46.77751920017979
            ],
            [
              126.84814453125001,
              46.76245891836121
            ],
            [
              126.76025390625,
              46.71725280548913
            ],
            [
              126.73828125000001,
              46.68709433938331
            ],
            [
              126.71630859375001,
              46.656919026024475
            ],
            [
              126.69433593750001,
              46.62672686437569
            ],
            [
              126.67236328125001,
              46.596517853418206
            ],
            [
              126.67236328125001,
              46.55117274234427
            ],
            [
              126.67236328125001,
              46.50578971477834
            ],
            [
              126.69433593750001,
              46.47551329676199
            ],
            [
              126.71630859375001,
              46.44522002461611
            ],
            [
              126.71630859375001,
              46.399748512920326
            ],
            [
              126.73828125000001,
              46.36941310151258
            ],
            [
              126.76025390625,
              46.323878376826634
            ],
            [
              126.78222656250001,
              46.29350082076103
            ],
            [
              126.80419921875001,
              46.26310640538601
            ],
            [
              126.82617187500001,
              46.21748316937619
            ],
            [
              126.84814453125001,
              46.171821995510186
            ],
            [
              126.89208984375001,
              46.15659317314799
            ],
            [
              126.93603515625001,
              46.12612288126483
            ],
            [
              126.97998046875001,
              46.11088141156513
            ],
            [
              127.02392578125001,
              46.09563572590947
            ],
            [
              127.11181640625001,
              46.08038582421141
            ],
            [
              127.17773437500001,
              46.065131706385664
            ],
            [
              127.24365234375001,
              46.065131706385664
            ],
            [
              127.33154296875001,
              46.065131706385664
            ],
            [
              127.37548828125001,
              46.08038582421141
            ],
            [
              127.44140625000001,
              46.08038582421141
            ],
            [
              127.50732421875001,
              46.08038582421141
            ],
            [
              127.57324218750001,
              46.08038582421141
            ],
            [
              127.59521484375001,
              46.04987337234814
            ],
            [
              127.63916015625001,
              46.03461082201588
            ],
            [
              127.66113281250001,
              46.00407307214135
            ],
            [
              127.68310546875001,
              45.97351845612208
            ],
            [
              127.68310546875001,
              45.92765490671826
            ],
            [
              127.66113281250001,
              45.89705812266093
            ],
            [
              127.61718750000001,
              45.851131318458016
            ],
            [
              127.57324218750001,
              45.835813949282915
            ],
            [
              127.57324218750001,
              45.78983653750528
            ],
            [
              127.55126953125001,
              45.75916384213933
            ],
            [
              127.52929687500001,
              45.728474276189395
            ],
            [
              127.55126953125001,
              45.68240829389802
            ],
            [
              127.57324218750001,
              45.65167654947651
            ],
            [
              127.61718750000001,
              45.66704453067926
            ],
            [
              127.66113281250001,
              45.63630435023772
            ],
            [
              127.68310546875001,
              45.60554729744963
            ],
            [
              127.70507812500001,
              45.57477337192227
            ],
            [
              127.72705078125001,
              45.54398257328219
            ],
            [
              127.74902343750001,
              45.51317490117528
            ],
            [
              127.79296875000001,
              45.48235035526669
            ],
            [
              127.81494140625001,
              45.451508935240916
            ],
            [
              127.81494140625001,
              45.40521516559004
            ],
            [
              127.83691406250001,
              45.37433155901829
            ],
            [
              127.85888671875001,
              45.343431077377915
            ],
            [
              127.88085937500001,
              45.31251372044095
            ],
            [
              127.88085937500001,
              45.250628379862626
            ],
            [
              127.88085937500001,
              45.18867553585017
            ],
            [
              127.90283203125001,
              45.142166603027064
            ],
            [
              127.90283203125001,
              45.095619698530314
            ],
            [
              127.92480468750001,
              45.04903482210384
            ],
            [
              127.90283203125001,
              45.01795714222195
            ],
            [
              127.90283203125001,
              44.971308978949196
            ],
            [
              127.88085937500001,
              44.94018910780575
            ],
            [
              127.88085937500001,
              44.893477657719004
            ],
            [
              127.88085937500001,
              44.84672823575365
            ],
            [
              127.88085937500001,
              44.784336606266656
            ],
            [
              127.88085937500001,
              44.73749858451933
            ],
            [
              127.88085937500001,
              44.69062259222502
            ],
            [
              127.90283203125001,
              44.65935083624919
            ],
            [
              127.90283203125001,
              44.612411561138586
            ],
            [
              127.90283203125001,
              44.5654343173622
            ],
            [
              127.92480468750001,
              44.5340950615784
            ],
            [
              127.92480468750001,
              44.48705453872878
            ],
            [
              127.90283203125001,
              44.43997604982488
            ],
            [
              127.90283203125001,
              44.39285959603523
            ],
            [
              127.88085937500001,
              44.361427535862916
            ],
            [
              127.85888671875001,
              44.329978603373846
            ],
            [
              127.85888671875001,
              44.28277356997753
            ],
            [
              127.83691406250001,
              44.25128245859273
            ],
            [
              127.83691406250001,
              44.204014159021085
            ],
            [
              127.81494140625001,
              44.172480871706846
            ],
            [
              127.81494140625001,
              44.12514931065152
            ],
            [
              127.83691406250001,
              44.09357385069735
            ],
            [
              127.85888671875001,
              44.06198152268086
            ],
            [
              127.85888671875001,
              44.01456140435535
            ],
            [
              127.85888671875001,
              43.96710333635204
            ],
            [
              127.85888671875001,
              43.91960732088636
            ],
            [
              127.83691406250001,
              43.887922229794434
            ],
            [
              127.83691406250001,
              43.84036297376959
            ],
            [
              127.81494140625001,
              43.79276577670941
            ],
            [
              127.79296875000001,
              43.76101323493189
            ],
            [
              127.77099609375001,
              43.71335280865552
            ],
            [
              127.77099609375001,
              43.64974656590632
            ],
            [
              127.74902343750001,
              43.617918157444855
            ],
            [
              127.74902343750001,
              43.57014393840041
            ],
            [
              127.72705078125001,
              43.53827338947834
            ],
            [
              127.70507812500001,
              43.49043596412437
            ],
            [
              127.68310546875001,
              43.44256061933495
            ],
            [
              127.68310546875001,
              43.39464735850533
            ],
            [
              127.66113281250001,
              43.34669618513949
            ],
            [
              127.63916015625001,
              43.31470767548843
            ],
            [
              127.63916015625001,
              43.26669332264476
            ],
            [
              127.63916015625001,
              43.218641067141995
            ],
            [
              127.63916015625001,
              43.170550912884785
            ],
            [
              127.66113281250001,
              43.138469757160955
            ],
            [
              127.66113281250001,
              43.09031644728827
            ],
            [
              127.68310546875001,
              43.05819319166251
            ],
            [
              127.70507812500001,
              42.99389616843776
            ],
            [
              127.72705078125001,
              42.96172240344661
            ],
            [
              127.72705078125001,
              42.91343019298848
            ],
            [
              127.72705078125001,
              42.86510011106555
            ],
            [
              127.74902343750001,
              42.83285901907171
            ],
            [
              127.74902343750001,
              42.78446582857511
            ],
            [
              127.74902343750001,
              42.736034779436814
            ],
            [
              127.77099609375001,
              42.70372638323721
            ],
            [
              127.77099609375001,
              42.655232247559894
            ],
            [
              127.79296875000001,
              42.62288179843702
            ],
            [
              127.79296875000001,
              42.55813044645233
            ],
            [
              127.81494140625001,
              42.52572954679499
            ],
            [
              127.81494140625001,
              42.477096672320506
            ],
            [
              127.81494140625001,
              42.42842597285935
            ],
            [
              127.81494140625001,
              42.37971745414011
            ],
            [
              127.81494140625001,
              42.330971122005096
            ],
            [
              127.81494140625001,
              42.28218698241058
            ],
            [
              127.79296875000001,
              42.249643221529816
            ],
            [
              127.79296875000001,
              42.20079608304928
            ],
            [
              127.81494140625001,
              42.168210328661566
            ],
            [
              127.81494140625001,
              42.10298843941331
            ],
            [
              127.83691406250001,
              42.03769938902356
            ],
            [
              127.85888671875001,
              42.00502968329444
            ],
            [
              127.85888671875001,
              41.955993654642725
            ],
            [
              127.88085937500001,
              41.92328199179092
            ],
            [
              127.88085937500001,
              41.857808330344774
            ],
            [
              127.88085937500001,
              41.808659048722696
            ],
            [
              127.90283203125001,
              41.775871895652855
            ],
            [
              127.90283203125001,
              41.710247282465986
            ],
            [
              127.90283203125001,
              41.64455560787359
            ],
            [
              127.90283203125001,
              41.578796889788954
            ],
            [
              127.90283203125001,
              41.52943386491896
            ],
            [
              127.90283203125001,
              41.463557864943965
            ],
            [
              127.92480468750001,
              41.41410690020748
            ],
            [
              127.92480468750001,
              41.36461826041411
            ],
            [
              127.92480468750001,
              41.3150919538094
            ],
            [
              127.90283203125001,
              41.282053494192276
            ],
            [
              127.90283203125001,
              41.232464428214875
            ],
            [
              127.88085937500001,
              41.182837717995795
            ],
            [
              127.88085937500001,
              41.13317337221725
            ],
            [
              127.88085937500001,
              41.08347139968127
            ],
            [
              127.88085937500001,
              41.03373180930971
            ],
            [
              127.85888671875001,
              41.00055118805796
            ],
            [
              127.85888671875001,
              40.95074892144636
            ],
            [
              127.83691406250001,
              40.91752652454302
            ],
            [
              127.81494140625001,
              40.88428742220279
            ],
            [
              127.79296875000001,
              40.85103161721791
            ],
            [
              127.77099609375001,
              40.817759112404545
            ],
            [
              127.74902343750001,
              40.78446991060275
            ],
            [
              127.72705078125001,
              40.75116401467656
            ],
            [
              127.70507812500001,
              40.717841427514024
            ],
            [
              127.68310546875001,
              40.684502152027186
            ],
            [
              127.63916015625001,
              40.65114619115217
            ],
            [
              127.61718750000001,
              40.61777354784916
            ],
            [
              127.57324218750001,
              40.58438422510251
            ],
            [
              127.55126953125001,
              40.55097822592062
            ],
            [
              127.50732421875001,
              40.53426897361321
            ],
            [
              127.48535156250001,
              40.500837965472236
            ],
            [
              127.44140625000001,
              40.467390288523035
            ],
            [
              127.41943359375001,
              40.433925945858725
            ],
            [
              127.39746093750001,
              40.40044494059684
            ],
            [
              127.35351562500001,
              40.38369819047266
            ],
            [
              127.33154296875001,
              40.35019219721279
            ],
            [
              127.28759765625001,
              40.31666954925538
            ],
            [
              127.26562500000001,
              40.2831302498031
            ],
            [
              127.26562500000001,
              40.21600170934665
            ],
            [
              127.24365234375001,
              40.182412474869956
            ],
            [
              127.24365234375001,
              40.13199742711835
            ],
            [
              127.22167968750001,
              40.09836660278415
            ],
            [
              127.19970703125001,
              40.04788918593764
            ],
            [
              127.19970703125001,
              39.98052777800823
            ],
            [
              127.17773437500001,
              39.946822145138036
            ],
            [
              127.15576171875001,
              39.91309989761965
            ],
            [
              127.13378906250001,
              39.87936103895058
            ],
            [
              127.08984375000001,
              39.84560557265301
            ],
            [
              127.06787109375001,
              39.811833502274
            ],
            [
              127.04589843750001,
              39.77804483138541
            ],
            [
              127.00195312500001,
              39.744239563583875
            ],
            [
              126.97998046875001,
              39.710417702491014
            ],
            [
              126.97998046875001,
              39.659653806413814
            ],
            [
              126.97998046875001,
              39.608852596053474
            ],
            [
              127.00195312500001,
              39.57496439850917
            ],
            [
              127.00195312500001,
              39.57496439850917
            ],
            [
              126.91406250000001,
              39.676579251753225
            ]
          ]
        ]
      }
    }
  ]
}