{
  "type": "FeatureCollection",
  "features": [
    {
      "type": "Feature",
      "properties": {
        "NAME": "Silla",
        "name": "Silla",
        "color": "#ef4444",
        "fill": "#ef4444",
        "fill-opacity": 0.5,
        "stroke": "#ef4444",
        "stroke-width": 2,
        "originalType": "polygon",
        "CODE": "1"
      },
      "geometry": {
        "type": "Polygon",
        "coordinates": [
          [
            [
              126.962396,
              39.502188
            ],
            [
              127.006351,
              39.485238
            ],
            [
              127.050306,
              39.468283
            ],
            [
              127.116239,
              39.468283
            ],
            [
              127.160194,
              39.485238
            ],
            [
              127.204148,
              39.502188
            ],
            [
              127.248103,
              39.485238
            ],
            [
              127.314036,
              39.468283
            ],
            [
              127.357991,
              39.451325
            ],
            [
              127.423923,
              39.451325
            ],
            [
              127.467878,
              39.434363
            ],
            [
              127.489855,
              39.400425
            ],
            [
              127.511833,
              39.366472
            ],
            [
              127.555788,
              39.349488
            ],
            [
              127.53381,
              39.31551
            ],
            [
              127.53381,
              39.264511
            ],
            [
              127.511833,
              39.230491
            ],
            [
              127.489855,
              39.196455
            ],
            [
              127.511833,
              39.162402
            ],
            [
              127.53381,
              39.128333
            ],
            [
              127.599743,
              39.128333
            ],
            [
              127.643698,
              39.111292
            ],
            [
              127.687652,
              39.077198
            ],
            [
              127.731607,
              39.060144
            ],
            [
              127.775562,
              39.026026
            ],
            [
              127.819517,
              39.00896
            ],
            [
              127.863472,
              38.974817
            ],
            [
              127.907427,
              38.957739
            ],
            [
              127.951382,
              38.940657
            ],
            [
              127.995337,
              38.92357
            ],
            [
              128.039292,
              38.889386
            ],
            [
              128.061269,
              38.855185
            ],
            [
              128.105224,
              38.838078
            ],
            [
              128.149179,
              38.820967
            ],
            [
              128.171156,
              38.786733
            ],
            [
              128.237089,
              38.786733
            ],
            [
              128.259066,
              38.752482
            ],
            [
              128.281044,
              38.718216
            ],
            [
              128.324999,
              38.701076
            ],
            [
              128.346976,
              38.666784
            ],
            [
              128.390931,
              38.649632
            ],
            [
              128.412908,
              38.615316
            ],
            [
              128.434886,
              38.580983
            ],
            [
              128.434886,
              38.529454
            ],
            [
              128.456863,
              38.49508
            ],
            [
              128.478841,
              38.46069
            ],
            [
              128.500818,
              38.426283
            ],
            [
              128.522796,
              38.374643
            ],
            [
              128.522796,
              38.322965
            ],
            [
              128.544773,
              38.288493
            ],
            [
              128.566751,
              38.254005
            ],
            [
              128.610705,
              38.2195
            ],
            [
              128.65466,
              38.184979
            ],
            [
              128.698615,
              38.167712
            ],
            [
              128.720593,
              38.133166
            ],
            [
              128.74257,
              38.098604
            ],
            [
              128.764548,
              38.064026
            ],
            [
              128.786525,
              38.029431
            ],
            [
              128.808502,
              37.99482
            ],
            [
              128.852457,
              37.977508
            ],
            [
              128.896412,
              37.942872
            ],
            [
              128.91839,
              37.90822
            ],
            [
              128.940367,
              37.873552
            ],
            [
              128.962345,
              37.838868
            ],
            [
              128.962345,
              37.78681
            ],
            [
              128.984322,
              37.752084
            ],
            [
              128.984322,
              37.699966
            ],
            [
              128.984322,
              37.64781
            ],
            [
              129.0063,
              37.61302
            ],
            [
              129.028277,
              37.578213
            ],
            [
              129.050254,
              37.54339
            ],
            [
              129.094209,
              37.525972
            ],
            [
              129.116187,
              37.473695
            ],
            [
              129.138164,
              37.438823
            ],
            [
              129.182119,
              37.42138
            ],
            [
              129.226074,
              37.386484
            ],
            [
              129.270029,
              37.36903
            ],
            [
              129.335961,
              37.351571
            ],
            [
              129.313984,
              37.316643
            ],
            [
              129.313984,
              37.264219
            ],
            [
              129.335961,
              37.229249
            ],
            [
              129.357939,
              37.194264
            ],
            [
              129.379916,
              37.159262
            ],
            [
              129.401894,
              37.124244
            ],
            [
              129.423871,
              37.089209
            ],
            [
              129.445849,
              37.054159
            ],
            [
              129.467826,
              37.019092
            ],
            [
              129.467826,
              36.966462
            ],
            [
              129.489804,
              36.931355
            ],
            [
              129.489804,
              36.878663
            ],
            [
              129.489804,
              36.825936
            ],
            [
              129.511781,
              36.790764
            ],
            [
              129.511781,
              36.737976
            ],
            [
              129.511781,
              36.685152
            ],
            [
              129.511781,
              36.632291
            ],
            [
              129.511781,
              36.579394
            ],
            [
              129.511781,
              36.526461
            ],
            [
              129.511781,
              36.473491
            ],
            [
              129.511781,
              36.420485
            ],
            [
              129.511781,
              36.367443
            ],
            [
              129.511781,
              36.314365
            ],
            [
              129.489804,
              36.27896
            ],
            [
              129.467826,
              36.243538
            ],
            [
              129.467826,
              36.190376
            ],
            [
              129.467826,
              36.137177
            ],
            [
              129.489804,
              36.101691
            ],
            [
              129.489804,
              36.048433
            ],
            [
              129.511781,
              36.012907
            ],
            [
              129.533758,
              35.977365
            ],
            [
              129.555736,
              35.941807
            ],
            [
              129.599691,
              35.924022
            ],
            [
              129.599691,
              35.870643
            ],
            [
              129.599691,
              35.817228
            ],
            [
              129.577713,
              35.781599
            ],
            [
              129.533758,
              35.763778
            ],
            [
              129.489804,
              35.728124
            ],
            [
              129.445849,
              35.710291
            ],
            [
              129.423871,
              35.674613
            ],
            [
              129.423871,
              35.728124
            ],
            [
              129.445849,
              35.763778
            ],
            [
              129.467826,
              35.728124
            ],
            [
              129.467826,
              35.674613
            ],
            [
              129.467826,
              35.621067
            ],
            [
              129.467826,
              35.567484
            ],
            [
              129.467826,
              35.513866
            ],
            [
              129.511781,
              35.460212
            ],
            [
              129.511781,
              35.406522
            ],
            [
              129.511781,
              35.352796
            ],
            [
              129.467826,
              35.33488
            ],
            [
              129.423871,
              35.299035
            ],
            [
              129.357939,
              35.281106
            ],
            [
              129.313984,
              35.263174
            ],
            [
              129.270029,
              35.245237
            ],
            [
              129.204097,
              35.245237
            ],
            [
              129.160142,
              35.227297
            ],
            [
              129.116187,
              35.209353
            ],
            [
              129.072232,
              35.191404
            ],
            [
              129.028277,
              35.173452
            ],
            [
              128.984322,
              35.155496
            ],
            [
              128.940367,
              35.137536
            ],
            [
              128.91839,
              35.101604
            ],
            [
              128.874435,
              35.083632
            ],
            [
              128.852457,
              35.047676
            ],
            [
              128.808502,
              35.029692
            ],
            [
              128.786525,
              34.993712
            ],
            [
              128.74257,
              34.957716
            ],
            [
              128.720593,
              34.921705
            ],
            [
              128.698615,
              34.867658
            ],
            [
              128.65466,
              34.831607
            ],
            [
              128.588728,
              34.849635
            ],
            [
              128.544773,
              34.885678
            ],
            [
              128.478841,
              34.885678
            ],
            [
              128.434886,
              34.903693
            ],
            [
              128.368953,
              34.903693
            ],
            [
              128.324999,
              34.921705
            ],
            [
              128.259066,
              34.921705
            ],
            [
              128.193134,
              34.921705
            ],
            [
              128.127201,
              34.903693
            ],
            [
              128.061269,
              34.903693
            ],
            [
              128.017314,
              34.885678
            ],
            [
              127.973359,
              34.867658
            ],
            [
              127.929404,
              34.849635
            ],
            [
              127.907427,
              34.813576
            ],
            [
              127.885449,
              34.777501
            ],
            [
              127.863472,
              34.741411
            ],
            [
              127.863472,
              34.687246
            ],
            [
              127.841495,
              34.651116
            ],
            [
              127.79754,
              34.61497
            ],
            [
              127.753585,
              34.596892
            ],
            [
              127.687652,
              34.596892
            ],
            [
              127.62172,
              34.596892
            ],
            [
              127.555788,
              34.596892
            ],
            [
              127.511833,
              34.578809
            ],
            [
              127.4459,
              34.578809
            ],
            [
              127.401946,
              34.560723
            ],
            [
              127.357991,
              34.542632
            ],
            [
              127.292058,
              34.524538
            ],
            [
              127.248103,
              34.506439
            ],
            [
              127.204148,
              34.524538
            ],
            [
              127.160194,
              34.560723
            ],
            [
              127.138216,
              34.596892
            ],
            [
              127.116239,
              34.651116
            ],
            [
              127.116239,
              34.705305
            ],
            [
              127.050306,
              34.705305
            ],
            [
              126.984374,
              34.705305
            ],
            [
              126.962396,
              34.651116
            ],
            [
              126.918442,
              34.633045
            ],
            [
              126.896464,
              34.596892
            ],
            [
              126.852509,
              34.578809
            ],
            [
              126.830532,
              34.542632
            ],
            [
              126.786577,
              34.524538
            ],
            [
              126.720644,
              34.524538
            ],
            [
              126.654712,
              34.524538
            ],
            [
              126.58878,
              34.524538
            ],
            [
              126.544825,
              34.506439
            ],
            [
              126.50087,
              34.542632
            ],
            [
              126.434938,
              34.524538
            ],
            [
              126.390983,
              34.506439
            ],
            [
              126.32505,
              34.506439
            ],
            [
              126.281095,
              34.524538
            ],
            [
              126.215163,
              34.542632
            ],
            [
              126.171208,
              34.560723
            ],
            [
              126.149231,
              34.596892
            ],
            [
              126.127253,
              34.633045
            ],
            [
              126.083298,
              34.669183
            ],
            [
              126.061321,
              34.705305
            ],
            [
              126.083298,
              34.741411
            ],
            [
              126.127253,
              34.759458
            ],
            [
              126.171208,
              34.777501
            ],
            [
              126.215163,
              34.79554
            ],
            [
              126.259118,
              34.813576
            ],
            [
              126.281095,
              34.849635
            ],
            [
              126.32505,
              34.867658
            ],
            [
              126.347028,
              34.903693
            ],
            [
              126.369005,
              34.939713
            ],
            [
              126.41296,
              34.975716
            ],
            [
              126.434938,
              35.011704
            ],
            [
              126.434938,
              35.065655
            ],
            [
              126.434938,
              35.119572
            ],
            [
              126.434938,
              35.173452
            ],
            [
              126.41296,
              35.209353
            ],
            [
              126.434938,
              35.245237
            ],
            [
              126.478893,
              35.263174
            ],
            [
              126.50087,
              35.299035
            ],
            [
              126.50087,
              35.352796
            ],
            [
              126.544825,
              35.370709
            ],
            [
              126.58878,
              35.388617
            ],
            [
              126.610757,
              35.424422
            ],
            [
              126.610757,
              35.4781
            ],
            [
              126.58878,
              35.513866
            ],
            [
              126.566802,
              35.549615
            ],
            [
              126.544825,
              35.585349
            ],
            [
              126.544825,
              35.63892
            ],
            [
              126.566802,
              35.674613
            ],
            [
              126.58878,
              35.710291
            ],
            [
              126.610757,
              35.745953
            ],
            [
              126.632735,
              35.781599
            ],
            [
              126.632735,
              35.835037
            ],
            [
              126.610757,
              35.870643
            ],
            [
              126.58878,
              35.906233
            ],
            [
              126.566802,
              35.941807
            ],
            [
              126.566802,
              35.995138
            ],
            [
              126.566802,
              36.048433
            ],
            [
              126.566802,
              36.101691
            ],
            [
              126.58878,
              36.137177
            ],
            [
              126.566802,
              36.172647
            ],
            [
              126.522847,
              36.208101
            ],
            [
              126.522847,
              36.261251
            ],
            [
              126.544825,
              36.296665
            ],
            [
              126.566802,
              36.332062
            ],
            [
              126.544825,
              36.367443
            ],
            [
              126.50087,
              36.385128
            ],
            [
              126.456915,
              36.420485
            ],
            [
              126.434938,
              36.455827
            ],
            [
              126.41296,
              36.491152
            ],
            [
              126.41296,
              36.544109
            ],
            [
              126.41296,
              36.59703
            ],
            [
              126.369005,
              36.614663
            ],
            [
              126.32505,
              36.632291
            ],
            [
              126.303073,
              36.667535
            ],
            [
              126.259118,
              36.685152
            ],
            [
              126.237141,
              36.720372
            ],
            [
              126.215163,
              36.755576
            ],
            [
              126.215163,
              36.808352
            ],
            [
              126.193186,
              36.843516
            ],
            [
              126.215163,
              36.878663
            ],
            [
              126.237141,
              36.913795
            ],
            [
              126.259118,
              36.94891
            ],
            [
              126.32505,
              36.94891
            ],
            [
              126.369005,
              36.966462
            ],
            [
              126.41296,
              36.984009
            ],
            [
              126.478893,
              36.984009
            ],
            [
              126.522847,
              37.001553
            ],
            [
              126.58878,
              37.001553
            ],
            [
              126.654712,
              37.001553
            ],
            [
              126.698667,
              37.019092
            ],
            [
              126.764599,
              37.019092
            ],
            [
              126.808554,
              37.036628
            ],
            [
              126.808554,
              37.089209
            ],
            [
              126.808554,
              37.159262
            ],
            [
              126.786577,
              37.194264
            ],
            [
              126.786577,
              37.246736
            ],
            [
              126.764599,
              37.281697
            ],
            [
              126.742622,
              37.316643
            ],
            [
              126.742622,
              37.36903
            ],
            [
              126.720644,
              37.403934
            ],
            [
              126.67669,
              37.42138
            ],
            [
              126.632735,
              37.438823
            ],
            [
              126.58878,
              37.456261
            ],
            [
              126.544825,
              37.491124
            ],
            [
              126.50087,
              37.525972
            ],
            [
              126.478893,
              37.560803
            ],
            [
              126.478893,
              37.61302
            ],
            [
              126.522847,
              37.64781
            ],
            [
              126.522847,
              37.699966
            ],
            [
              126.50087,
              37.734716
            ],
            [
              126.478893,
              37.769449
            ],
            [
              126.456915,
              37.804167
            ],
            [
              126.41296,
              37.821519
            ],
            [
              126.347028,
              37.821519
            ],
            [
              126.281095,
              37.821519
            ],
            [
              126.215163,
              37.821519
            ],
            [
              126.149231,
              37.821519
            ],
            [
              126.083298,
              37.838868
            ],
            [
              126.017366,
              37.838868
            ],
            [
              125.951434,
              37.838868
            ],
            [
              125.907479,
              37.873552
            ],
            [
              125.863524,
              37.890888
            ],
            [
              125.819569,
              37.90822
            ],
            [
              125.753637,
              37.90822
            ],
            [
              125.709682,
              37.890888
            ],
            [
              125.665727,
              37.873552
            ],
            [
              125.643749,
              37.838868
            ],
            [
              125.599794,
              37.821519
            ],
            [
              125.55584,
              37.804167
            ],
            [
              125.511885,
              37.78681
            ],
            [
              125.46793,
              37.821519
            ],
            [
              125.423975,
              37.838868
            ],
            [
              125.38002,
              37.856212
            ],
            [
              125.336065,
              37.873552
            ],
            [
              125.29211,
              37.890888
            ],
            [
              125.248155,
              37.90822
            ],
            [
              125.226178,
              37.942872
            ],
            [
              125.160245,
              37.942872
            ],
            [
              125.138268,
              37.977508
            ],
            [
              125.138268,
              38.029431
            ],
            [
              125.160245,
              38.064026
            ],
            [
              125.138268,
              38.098604
            ],
            [
              125.072336,
              38.115887
            ],
            [
              125.006403,
              38.115887
            ],
            [
              124.962448,
              38.133166
            ],
            [
              124.896516,
              38.133166
            ],
            [
              124.852561,
              38.115887
            ],
            [
              124.786629,
              38.115887
            ],
            [
              124.786629,
              38.167712
            ],
            [
              124.786629,
              38.2195
            ],
            [
              124.808606,
              38.254005
            ],
            [
              124.830584,
              38.288493
            ],
            [
              124.830584,
              38.340195
            ],
            [
              124.852561,
              38.374643
            ],
            [
              124.852561,
              38.426283
            ],
            [
              124.896516,
              38.443489
            ],
            [
              124.940471,
              38.46069
            ],
            [
              124.984426,
              38.477887
            ],
            [
              124.984426,
              38.529454
            ],
            [
              124.962448,
              38.563811
            ],
            [
              124.984426,
              38.598152
            ],
            [
              125.006403,
              38.632476
            ],
            [
              125.050358,
              38.666784
            ],
            [
              125.094313,
              38.683932
            ],
            [
              125.160245,
              38.701076
            ],
            [
              125.226178,
              38.701076
            ],
            [
              125.270133,
              38.718216
            ],
            [
              125.336065,
              38.718216
            ],
            [
              125.38002,
              38.735351
            ],
            [
              125.423975,
              38.752482
            ],
            [
              125.489907,
              38.752482
            ],
            [
              125.55584,
              38.752482
            ],
            [
              125.621772,
              38.76961
            ],
            [
              125.665727,
              38.786733
            ],
            [
              125.665727,
              38.838078
            ],
            [
              125.687704,
              38.889386
            ],
            [
              125.687704,
              38.940657
            ],
            [
              125.687704,
              38.99189
            ],
            [
              125.753637,
              38.99189
            ],
            [
              125.841546,
              38.99189
            ],
            [
              125.885501,
              39.026026
            ],
            [
              125.929456,
              39.043087
            ],
            [
              125.973411,
              39.077198
            ],
            [
              125.995389,
              39.111292
            ],
            [
              126.039343,
              39.128333
            ],
            [
              126.083298,
              39.145369
            ],
            [
              126.105276,
              39.17943
            ],
            [
              126.083298,
              39.213475
            ],
            [
              126.061321,
              39.247503
            ],
            [
              126.039343,
              39.281515
            ],
            [
              126.039343,
              39.332501
            ],
            [
              126.039343,
              39.383451
            ],
            [
              126.017366,
              39.417396
            ],
            [
              126.039343,
              39.451325
            ],
            [
              126.083298,
              39.468283
            ],
            [
              126.149231,
              39.468283
            ],
            [
              126.193186,
              39.485238
            ],
            [
              126.237141,
              39.519134
            ],
            [
              126.281095,
              39.536075
            ],
            [
              126.32505,
              39.553013
            ],
            [
              126.390983,
              39.553013
            ],
            [
              126.456915,
              39.553013
            ],
            [
              126.522847,
              39.553013
            ],
            [
              126.566802,
              39.569947
            ],
            [
              126.632735,
              39.569947
            ],
            [
              126.698667,
              39.586876
            ],
            [
              126.764599,
              39.586876
            ],
            [
              126.830532,
              39.586876
            ],
            [
              126.896464,
              39.586876
            ],
            [
              126.984374,
              39.569947
            ],
            [
              127.006351,
              39.536075
            ],
            [
              127.028329,
              39.485238
            ],
            [
              127.028329,
              39.485238
            ],
            [
              126.962396,
              39.502188
            ]
          ]
        ]
      }
    },
    {
      "type": "Feature",
      "properties": {
        "NAME": "발해",
        "name": "818-819",
        "color": "#ef4444",
        "fill": "#ef4444",
        "fill-opacity": 0.5,
        "stroke": "#ef4444",
        "stroke-width": 2,
        "originalType": "polyline",
        "CODE": "발해"
      },
      "geometry": {
        "type": "Polygon",
        "coordinates": [
          [
            [
              126.91406250000001,
              39.66028383056247
            ],
            [
              126.95800781250001,
              39.62642081083839
            ],
            [
              127.00195312500001,
              39.609483083060255
            ],
            [
              127.06787109375001,
              39.609483083060255
            ],
            [
              127.11181640625001,
              39.59254121062542
            ],
            [
              127.15576171875001,
              39.57559519400131
            ],
            [
              127.22167968750001,
              39.55864503365695
            ],
            [
              127.26562500000001,
              39.54169073006289
            ],
            [
              127.30957031250001,
              39.50776969501597
            ],
            [
              127.35351562500001,
              39.49080296451209
            ],
            [
              127.39746093750001,
              39.4738320926565
            ],
            [
              127.44140625000001,
              39.4568570799277
            ],
            [
              127.48535156250001,
              39.42289463377181
            ],
            [
              127.55126953125001,
              39.42289463377181
            ],
            [
              127.55126953125001,
              39.4738320926565
            ],
            [
              127.55126953125001,
              39.52473228369135
            ],
            [
              127.55126953125001,
              39.57559519400131
            ],
            [
              127.55126953125001,
              39.62642081083839
            ],
            [
              127.59521484375001,
              39.66028383056247
            ],
            [
              127.61718750000001,
              39.69413026608932
            ],
            [
              127.63916015625001,
              39.72796011373551
            ],
            [
              127.63916015625001,
              39.77867377493257
            ],
            [
              127.66113281250001,
              39.82935009293028
            ],
            [
              127.72705078125001,
              39.846233898342966
            ],
            [
              127.79296875000001,
              39.846233898342966
            ],
            [
              127.85888671875001,
              39.846233898342966
            ],
            [
              127.92480468750001,
              39.846233898342966
            ],
            [
              127.96875000000001,
              39.86311355271835
            ],
            [
              128.03466796875003,
              39.87998905561235
            ],
            [
              128.07861328125003,
              39.89686040658238
            ],
            [
              128.10058593750003,
              39.93059065098817
            ],
            [
              128.12255859375003,
              39.96430428242634
            ],
            [
              128.16650390625003,
              39.98115486719262
            ],
            [
              128.21044921875003,
              39.99800129741221
            ],
            [
              128.25439453125003,
              40.01484357265334
            ],
            [
              128.29833984375003,
              40.03168169248585
            ],
            [
              128.34228515625003,
              40.0485156564811
            ],
            [
              128.40820312500003,
              40.06534546421197
            ],
            [
              128.45214843750003,
              40.082171115252955
            ],
            [
              128.49609375000003,
              40.098992609180016
            ],
            [
              128.56201171875003,
              40.11580994557065
            ],
            [
              128.60595703125003,
              40.14943214406052
            ],
            [
              128.67187500000003,
              40.166237005322465
            ],
            [
              128.71582031250003,
              40.183037707373444
            ],
            [
              128.75976562500003,
              40.19983424979868
            ],
            [
              128.80371093750003,
              40.21662663218487
            ],
            [
              128.82568359375003,
              40.2501989151948
            ],
            [
              128.86962890625003,
              40.26697881499965
            ],
            [
              128.91357421875003,
              40.30052612917338
            ],
            [
              128.95751953125003,
              40.33405679340267
            ],
            [
              129.00146484375003,
              40.35081588078269
            ],
            [
              129.04541015625003,
              40.367570804473104
            ],
            [
              129.08935546875003,
              40.40106815919468
            ],
            [
              129.13330078125003,
              40.41781058943441
            ],
            [
              129.17724609375003,
              40.43454885440174
            ],
            [
              129.19921875000003,
              40.46801288695294
            ],
            [
              129.24316406250003,
              40.50146025373132
            ],
            [
              129.28710937500003,
              40.551600048816056
            ],
            [
              129.33105468750003,
              40.5683049776228
            ],
            [
              129.37500000000003,
              40.58500573768458
            ],
            [
              129.41894531250003,
              40.61839475006169
            ],
            [
              129.41894531250003,
              40.668446993632536
            ],
            [
              129.44091796875003,
              40.71846169828514
            ],
            [
              129.44091796875003,
              40.768438854091286
            ],
            [
              129.48486328125003,
              40.785089560140136
            ],
            [
              129.52880859375003,
              40.80173609264411
            ],
            [
              129.57275390625003,
              40.818378451244556
            ],
            [
              129.63867187500003,
              40.818378451244556
            ],
            [
              129.68261718750003,
              40.835016635584225
            ],
            [
              129.72656250000003,
              40.85165064530749
            ],
            [
              129.77050781250003,
              40.86828048006007
            ],
            [
              129.81445312500003,
              40.901527623243894
            ],
            [
              129.83642578125003,
              40.93475806233209
            ],
            [
              129.88037109375003,
              40.96797179454466
            ],
            [
              129.90234375000003,
              41.01776106144968
            ],
            [
              129.90234375000003,
              41.06751272248837
            ],
            [
              129.90234375000003,
              41.11722676858013
            ],
            [
              129.90234375000003,
              41.166903190764636
            ],
            [
              129.90234375000003,
              41.21654198020145
            ],
            [
              129.85839843750003,
              41.233079879003526
            ],
            [
              129.83642578125003,
              41.26614312816994
            ],
            [
              129.83642578125003,
              41.31570662606885
            ],
            [
              129.83642578125003,
              41.36523246541626
            ],
            [
              129.83642578125003,
              41.414720637849335
            ],
            [
              129.85839843750003,
              41.44769182266515
            ],
            [
              129.85839843750003,
              41.49711719864596
            ],
            [
              129.88037109375003,
              41.5465048859916
            ],
            [
              129.88037109375003,
              41.595854876773615
            ],
            [
              129.90234375000003,
              41.64516716318162
            ],
            [
              129.92431640625003,
              41.678021070108805
            ],
            [
              129.92431640625003,
              41.727270498856534
            ],
            [
              129.94628906250003,
              41.76008249368691
            ],
            [
              129.96826171875003,
              41.79287771982158
            ],
            [
              129.99023437500003,
              41.82565617509126
            ],
            [
              130.01220703125003,
              41.85841785734968
            ],
            [
              130.03417968750003,
              41.89116276447368
            ],
            [
              130.05615234375003,
              41.92389089436305
            ],
            [
              130.10009765625003,
              41.956602244940555
            ],
            [
              130.12207031250003,
              41.98929681415198
            ],
            [
              130.16601562500003,
              42.021974599965894
            ],
            [
              130.18798828125003,
              42.054635600373906
            ],
            [
              130.23193359375003,
              42.0709598054293
            ],
            [
              130.25390625000003,
              42.103595624012534
            ],
            [
              130.29785156250003,
              42.11990723705253
            ],
            [
              130.34179687500003,
              42.15251786942035
            ],
            [
              130.38574218750003,
              42.16881688826887
            ],
            [
              130.40771484375003,
              42.20140233010753
            ],
            [
              130.47363281250003,
              42.217688752626856
            ],
            [
              130.51757812500003,
              42.23397097590139
            ],
            [
              130.56152343750003,
              42.266522823790005
            ],
            [
              130.60546875000003,
              42.28279244794465
            ],
            [
              130.62744140625003,
              42.315319095536566
            ],
            [
              130.64941406250003,
              42.34782894067116
            ],
            [
              130.67138671875003,
              42.38032198156704
            ],
            [
              130.69335937500003,
              42.412798216465504
            ],
            [
              130.69335937500003,
              42.46148105377611
            ],
            [
              130.71533203125003,
              42.493915266134046
            ],
            [
              130.73730468750003,
              42.54253506169696
            ],
            [
              130.73730468750003,
              42.59111702474315
            ],
            [
              130.75927734375003,
              42.63966114980993
            ],
            [
              130.78125000000003,
              42.67200287610829
            ],
            [
              130.82519531250003,
              42.68816743154753
            ],
            [
              130.89111328125003,
              42.68816743154753
            ],
            [
              130.95703125000003,
              42.68816743154753
            ],
            [
              131.02294921875003,
              42.68816743154753
            ],
            [
              131.08886718750003,
              42.68816743154753
            ],
            [
              131.13281250000003,
              42.67200287610829
            ],
            [
              131.17675781250003,
              42.65583411546442
            ],
            [
              131.22070312500003,
              42.67200287610829
            ],
            [
              131.28662109375003,
              42.67200287610829
            ],
            [
              131.33056640625003,
              42.68816743154753
            ],
            [
              131.37451171875003,
              42.70432778158961
            ],
            [
              131.39648437500003,
              42.75278359742791
            ],
            [
              131.39648437500003,
              42.80120155789216
            ],
            [
              131.39648437500003,
              42.8656999437911
            ],
            [
              131.39648437500003,
              42.91402955589537
            ],
            [
              131.41845703125003,
              42.94622825784988
            ],
            [
              131.44042968750003,
              42.97841012664495
            ],
            [
              131.46240234375003,
              43.01057516093327
            ],
            [
              131.48437500000003,
              43.04272335938942
            ],
            [
              131.55029296875003,
              43.04272335938942
            ],
            [
              131.63818359375003,
              43.05879114477221
            ],
            [
              131.68212890625003,
              43.07485472070985
            ],
            [
              131.72607421875003,
              43.106969243612944
            ],
            [
              131.74804687500003,
              43.13906692683886
            ],
            [
              131.74804687500003,
              43.18718187458097
            ],
            [
              131.77001953125003,
              43.235258926182624
            ],
            [
              131.79199218750003,
              43.26728923853753
            ],
            [
              131.81396484375003,
              43.2993027052427
            ],
            [
              131.83593750000003,
              43.331299325168715
            ],
            [
              131.87988281250003,
              43.379262664929264
            ],
            [
              131.90185546875003,
              43.41121716310772
            ],
            [
              131.92382812500003,
              43.44315481072395
            ],
            [
              131.94580078125003,
              43.4750756067455
            ],
            [
              131.98974609375003,
              43.50697955016141
            ],
            [
              131.98974609375003,
              43.55480386449102
            ],
            [
              132.01171875000003,
              43.60259025498723
            ],
            [
              132.03369140625003,
              43.63442677829939
            ],
            [
              132.05566406250003,
              43.66624644427209
            ],
            [
              132.07763671875003,
              43.71394433379438
            ],
            [
              132.09960937500003,
              43.74572185260272
            ],
            [
              132.12158203125003,
              43.77748251107472
            ],
            [
              132.14355468750003,
              43.80922630840184
            ],
            [
              132.16552734375003,
              43.84095324379661
            ],
            [
              132.16552734375003,
              43.88851202909514
            ],
            [
              132.16552734375003,
              43.93603287082923
            ],
            [
              132.16552734375003,
              43.999334965701486
            ],
            [
              132.16552734375003,
              44.046767263336925
            ],
            [
              132.16552734375003,
              44.109951291416934
            ],
            [
              132.18750000000003,
              44.14151800320391
            ],
            [
              132.20947265625003,
              44.188836441464886
            ],
            [
              132.20947265625003,
              44.23611692280586
            ],
            [
              132.18750000000003,
              44.28335944550423
            ],
            [
              132.16552734375003,
              44.31483337169847
            ],
            [
              132.12158203125003,
              44.33056400794213
            ],
            [
              132.14355468750003,
              44.39344437263098
            ],
            [
              132.16552734375003,
              44.424859246086626
            ],
            [
              132.18750000000003,
              44.456257246434
            ],
            [
              132.18750000000003,
              44.50332260909259
            ],
            [
              132.18750000000003,
              44.55035000531696
            ],
            [
              132.18750000000003,
              44.59733943407761
            ],
            [
              132.18750000000003,
              44.64429089444802
            ],
            [
              132.18750000000003,
              44.691204385604514
            ],
            [
              132.16552734375003,
              44.73807990682589
            ],
            [
              132.16552734375003,
              44.784917457493215
            ],
            [
              132.09960937500003,
              44.784917457493215
            ],
            [
              132.05566406250003,
              44.76930915958859
            ],
            [
              132.03369140625003,
              44.80052153638918
            ],
            [
              132.03369140625003,
              44.84730845886473
            ],
            [
              132.05566406250003,
              44.87847864520014
            ],
            [
              132.07763671875003,
              44.90963195517815
            ],
            [
              132.09960937500003,
              44.940768388730866
            ],
            [
              132.09960937500003,
              44.987441395663225
            ],
            [
              132.09960937500003,
              45.03407643045806
            ],
            [
              132.09960937500003,
              45.080673493138576
            ],
            [
              132.09960937500003,
              45.12723258382846
            ],
            [
              132.07763671875003,
              45.158250882177796
            ],
            [
              132.05566406250003,
              45.18925230427536
            ],
            [
              132.05566406250003,
              45.235722794697274
            ],
            [
              132.05566406250003,
              45.282155314263385
            ],
            [
              132.07763671875003,
              45.32854986352987
            ],
            [
              132.09960937500003,
              45.359458468749615
            ],
            [
              132.12158203125003,
              45.39035019878852
            ],
            [
              132.14355468750003,
              45.42122505388484
            ],
            [
              132.18750000000003,
              45.4366561534092
            ],
            [
              132.25341796875003,
              45.4366561534092
            ],
            [
              132.31933593750003,
              45.42122505388484
            ],
            [
              132.36328125000003,
              45.37490644315224
            ],
            [
              132.42919921875003,
              45.359458468749615
            ],
            [
              132.47314453125003,
              45.32854986352987
            ],
            [
              132.51708984375003,
              45.31308923265814
            ],
            [
              132.56103515625003,
              45.29762438291072
            ],
            [
              132.60498046875003,
              45.26668202669304
            ],
            [
              132.67089843750003,
              45.25120452017787
            ],
            [
              132.73681640625003,
              45.25120452017787
            ],
            [
              132.80273437500003,
              45.25120452017787
            ],
            [
              132.84667968750003,
              45.26668202669304
            ],
            [
              132.91259765625003,
              45.26668202669304
            ],
            [
              132.97851562500003,
              45.26668202669304
            ],
            [
              133.04443359375003,
              45.282155314263385
            ],
            [
              133.08837890625003,
              45.31308923265814
            ],
            [
              133.11035156250003,
              45.34400627555147
            ],
            [
              133.15429687500003,
              45.37490644315224
            ],
            [
              133.19824218750003,
              45.40578973568885
            ],
            [
              133.22021484375003,
              45.4366561534092
            ],
            [
              133.24218750000003,
              45.46750569658064
            ],
            [
              133.28613281250003,
              45.49833836548989
            ],
            [
              133.30810546875003,
              45.52915416044319
            ],
            [
              133.35205078125003,
              45.55995308176601
            ],
            [
              133.37402343750003,
              45.590735129803264
            ],
            [
              133.41796875000003,
              45.62150030491905
            ],
            [
              133.43994140625003,
              45.65224860749688
            ],
            [
              133.48388671875003,
              45.682980037939295
            ],
            [
              133.50585937500003,
              45.71369459666825
            ],
            [
              133.54980468750003,
              45.75973480126887
            ],
            [
              133.57177734375003,
              45.79040718268537
            ],
            [
              133.59375000000003,
              45.82106269401563
            ],
            [
              133.63769531250003,
              45.86701433071539
            ],
            [
              133.65966796875003,
              45.89762766909342
            ],
            [
              133.68164062500003,
              45.9282241392458
            ],
            [
              133.70361328125003,
              45.943516048916116
            ],
            [
              133.72558593750003,
              45.97408721781275
            ],
            [
              133.76953125000003,
              46.035178955964085
            ],
            [
              133.81347656250003,
              46.05044134936816
            ],
            [
              133.83544921875003,
              46.08095348738434
            ],
            [
              133.87939453125003,
              46.09620323216355
            ],
            [
              133.90136718750003,
              46.12669007369085
            ],
            [
              133.90136718750003,
              46.17238871721885
            ],
            [
              133.92333984375003,
              46.21804942039826
            ],
            [
              133.94531250000003,
              46.263672185753336
            ],
            [
              133.96728515625003,
              46.29406628737682
            ],
            [
              133.98925781250003,
              46.339625828889886
            ],
            [
              134.01123046875003,
              46.369977783816125
            ],
            [
              134.03320312500003,
              46.41547410919493
            ],
            [
              134.03320312500003,
              46.460932508772984
            ],
            [
              134.03320312500003,
              46.506352985573834
            ],
            [
              134.03320312500003,
              46.55173554271399
            ],
            [
              134.03320312500003,
              46.6121866383219
            ],
            [
              134.03320312500003,
              46.65748072889309
            ],
            [
              134.05517578125003,
              46.687655728722596
            ],
            [
              134.05517578125003,
              46.73288664023304
            ],
            [
              134.07714843750003,
              46.763019523963074
            ],
            [
              134.09912109375003,
              46.793135563131756
            ],
            [
              134.12109375000003,
              46.82323475883954
            ],
            [
              134.14306640625003,
              46.868351973363445
            ],
            [
              134.16503906250003,
              46.898409065351295
            ],
            [
              134.18701171875003,
              46.92844931787118
            ],
            [
              134.20898437500003,
              46.95847273210419
            ],
            [
              134.20898437500003,
              47.018469050523244
            ],
            [
              134.20898437500003,
              47.06342209788111
            ],
            [
              134.23095703125003,
              47.09336975491696
            ],
            [
              134.25292968750003,
              47.12330058048
            ],
            [
              134.25292968750003,
              47.168165262653936
            ],
            [
              134.20898437500003,
              47.18311174239121
            ],
            [
              134.18701171875003,
              47.22792594097914
            ],
            [
              134.14306640625003,
              47.257781041212624
            ],
            [
              134.05517578125003,
              47.24285559419785
            ],
            [
              133.96728515625003,
              47.24285559419785
            ],
            [
              133.92333984375003,
              47.22792594097914
            ],
            [
              133.85742187500003,
              47.21299208138517
            ],
            [
              133.81347656250003,
              47.1980540152456
            ],
            [
              133.74755859375003,
              47.1980540152456
            ],
            [
              133.70361328125003,
              47.21299208138517
            ],
            [
              133.65966796875003,
              47.22792594097914
            ],
            [
              133.57177734375003,
              47.22792594097914
            ],
            [
              133.50585937500003,
              47.24285559419785
            ],
            [
              133.41796875000003,
              47.24285559419785
            ],
            [
              133.37402343750003,
              47.257781041212624
            ],
            [
              133.30810546875003,
              47.257781041212624
            ],
            [
              133.26416015625003,
              47.27270228219602
            ],
            [
              133.17626953125003,
              47.27270228219602
            ],
            [
              133.11035156250003,
              47.27270228219602
            ],
            [
              133.06640625000003,
              47.287619317321585
            ],
            [
              133.00048828125003,
              47.287619317321585
            ],
            [
              132.95654296875003,
              47.302532146763966
            ],
            [
              132.89062500000003,
              47.302532146763966
            ],
            [
              132.82470703125003,
              47.302532146763966
            ],
            [
              132.78076171875003,
              47.317440770698994
            ],
            [
              132.73681640625003,
              47.302532146763966
            ],
            [
              132.69287109375003,
              47.287619317321585
            ],
            [
              132.64892578125003,
              47.27270228219602
            ],
            [
              132.62695312500003,
              47.24285559419785
            ],
            [
              132.58300781250003,
              47.22792594097914
            ],
            [
              132.53906250000003,
              47.1980540152456
            ],
            [
              132.49511718750003,
              47.18311174239121
            ],
            [
              132.45117187500003,
              47.168165262653936
            ],
            [
              132.40722656250003,
              47.153214575866706
            ],
            [
              132.31933593750003,
              47.13825968186368
            ],
            [
              132.23144531250003,
              47.153214575866706
            ],
            [
              132.16552734375003,
              47.153214575866706
            ],
            [
              132.12158203125003,
              47.168165262653936
            ],
            [
              132.07763671875003,
              47.18311174239121
            ],
            [
              132.01171875000003,
              47.1980540152456
            ],
            [
              131.94580078125003,
              47.21299208138517
            ],
            [
              131.85791015625003,
              47.21299208138517
            ],
            [
              131.77001953125003,
              47.22792594097914
            ],
            [
              131.70410156250003,
              47.22792594097914
            ],
            [
              131.63818359375003,
              47.22792594097914
            ],
            [
              131.61621093750003,
              47.18311174239121
            ],
            [
              131.59423828125003,
              47.12330058048
            ],
            [
              131.59423828125003,
              47.07839803041345
            ],
            [
              131.57226562500003,
              47.04844195716055
            ],
            [
              131.55029296875003,
              47.018469050523244
            ],
            [
              131.50634765625003,
              46.98847930924932
            ],
            [
              131.46240234375003,
              46.97347812523713
            ],
            [
              131.44042968750003,
              46.94346312969903
            ],
            [
              131.39648437500003,
              46.92844931787118
            ],
            [
              131.37451171875003,
              46.898409065351295
            ],
            [
              131.30859375000003,
              46.898409065351295
            ],
            [
              131.26464843750003,
              46.883382624364
            ],
            [
              131.22070312500003,
              46.868351973363445
            ],
            [
              131.17675781250003,
              46.85331711220483
            ],
            [
              131.13281250000003,
              46.83827804074438
            ],
            [
              131.06689453125003,
              46.82323475883954
            ],
            [
              131.00097656250003,
              46.82323475883954
            ],
            [
              130.93505859375003,
              46.80818726634878
            ],
            [
              130.89111328125003,
              46.793135563131756
            ],
            [
              130.82519531250003,
              46.793135563131756
            ],
            [
              130.75927734375003,
              46.793135563131756
            ],
            [
              130.67138671875003,
              46.793135563131756
            ],
            [
              130.62744140625003,
              46.77807964904923
            ],
            [
              130.56152343750003,
              46.793135563131756
            ],
            [
              130.49560546875003,
              46.793135563131756
            ],
            [
              130.42968750000003,
              46.80818726634878
            ],
            [
              130.36376953125003,
              46.80818726634878
            ],
            [
              130.34179687500003,
              46.83827804074438
            ],
            [
              130.29785156250003,
              46.868351973363445
            ],
            [
              130.25390625000003,
              46.883382624364
            ],
            [
              130.18798828125003,
              46.883382624364
            ],
            [
              130.14404296875003,
              46.868351973363445
            ],
            [
              130.10009765625003,
              46.85331711220483
            ],
            [
              130.03417968750003,
              46.85331711220483
            ],
            [
              129.96826171875003,
              46.85331711220483
            ],
            [
              129.90234375000003,
              46.85331711220483
            ],
            [
              129.85839843750003,
              46.868351973363445
            ],
            [
              129.81445312500003,
              46.898409065351295
            ],
            [
              129.77050781250003,
              46.913431296471344
            ],
            [
              129.72656250000003,
              46.94346312969903
            ],
            [
              129.68261718750003,
              46.97347812523713
            ],
            [
              129.63867187500003,
              46.98847930924932
            ],
            [
              129.59472656250003,
              46.97347812523713
            ],
            [
              129.52880859375003,
              46.97347812523713
            ],
            [
              129.46289062500003,
              46.95847273210419
            ],
            [
              129.35302734375003,
              46.95847273210419
            ],
            [
              129.28710937500003,
              46.95847273210419
            ],
            [
              129.17724609375003,
              46.95847273210419
            ],
            [
              129.11132812500003,
              46.95847273210419
            ],
            [
              129.04541015625003,
              46.97347812523713
            ],
            [
              128.97949218750003,
              46.97347812523713
            ],
            [
              128.89160156250003,
              46.97347812523713
            ],
            [
              128.78173828125003,
              46.98847930924932
            ],
            [
              128.69384765625003,
              46.98847930924932
            ],
            [
              128.62792968750003,
              46.97347812523713
            ],
            [
              128.56201171875003,
              46.97347812523713
            ],
            [
              128.49609375000003,
              46.97347812523713
            ],
            [
              128.43017578125003,
              46.98847930924932
            ],
            [
              128.34228515625003,
              46.98847930924932
            ],
            [
              128.27636718750003,
              46.98847930924932
            ],
            [
              128.16650390625003,
              46.98847930924932
            ],
            [
              128.12255859375003,
              46.97347812523713
            ],
            [
              128.05664062500003,
              46.97347812523713
            ],
            [
              127.94677734375001,
              46.97347812523713
            ],
            [
              127.90283203125001,
              46.98847930924932
            ],
            [
              127.83691406250001,
              46.98847930924932
            ],
            [
              127.79296875000001,
              46.97347812523713
            ],
            [
              127.72705078125001,
              46.97347812523713
            ],
            [
              127.66113281250001,
              46.97347812523713
            ],
            [
              127.57324218750001,
              46.97347812523713
            ],
            [
              127.48535156250001,
              46.97347812523713
            ],
            [
              127.44140625000001,
              46.95847273210419
            ],
            [
              127.37548828125001,
              46.95847273210419
            ],
            [
              127.30957031250001,
              46.95847273210419
            ],
            [
              127.26562500000001,
              46.94346312969903
            ],
            [
              127.19970703125001,
              46.92844931787118
            ],
            [
              127.13378906250001,
              46.92844931787118
            ],
            [
              127.06787109375001,
              46.913431296471344
            ],
            [
              127.00195312500001,
              46.883382624364
            ],
            [
              126.95800781250001,
              46.868351973363445
            ],
            [
              126.91406250000001,
              46.85331711220483
            ],
            [
              126.87011718750001,
              46.82323475883954
            ],
            [
              126.82617187500001,
              46.793135563131756
            ],
            [
              126.80419921875001,
              46.763019523963074
            ],
            [
              126.78222656250001,
              46.71781388131857
            ],
            [
              126.76025390625,
              46.687655728722596
            ],
            [
              126.73828125000001,
              46.65748072889309
            ],
            [
              126.73828125000001,
              46.6121866383219
            ],
            [
              126.71630859375001,
              46.581969515910195
            ],
            [
              126.69433593750001,
              46.55173554271399
            ],
            [
              126.65039062500001,
              46.52148471775961
            ],
            [
              126.62841796875001,
              46.49121704009164
            ],
            [
              126.60644531250001,
              46.460932508772984
            ],
            [
              126.56250000000001,
              46.41547410919493
            ],
            [
              126.51855468750001,
              46.38514743976973
            ],
            [
              126.49658203125001,
              46.35480391355826
            ],
            [
              126.43066406250001,
              46.32444352970597
            ],
            [
              126.40869140625001,
              46.29406628737682
            ],
            [
              126.36474609375001,
              46.27887134402728
            ],
            [
              126.32080078125001,
              46.263672185753336
            ],
            [
              126.27685546875001,
              46.23326122403638
            ],
            [
              126.21093750000001,
              46.202833401445524
            ],
            [
              126.16699218750001,
              46.17238871721885
            ],
            [
              126.12304687500001,
              46.15716005175909
            ],
            [
              126.10107421875001,
              46.12669007369085
            ],
            [
              126.05712890625001,
              46.09620323216355
            ],
            [
              126.01318359375001,
              46.06569952648058
            ],
            [
              125.99121093750001,
              46.035178955964085
            ],
            [
              125.96923828125001,
              45.98936647718974
            ],
            [
              125.94726562500001,
              45.943516048916116
            ],
            [
              125.92529296875001,
              45.91292801266237
            ],
            [
              125.90332031250001,
              45.88232310846775
            ],
            [
              125.88134765625001,
              45.85170133576747
            ],
            [
              125.88134765625001,
              45.80573704708001
            ],
            [
              125.88134765625001,
              45.75973480126887
            ],
            [
              125.85937500000001,
              45.72904554927726
            ],
            [
              125.83740234375001,
              45.69833942624087
            ],
            [
              125.81542968750001,
              45.6676164317091
            ],
            [
              125.79345703125001,
              45.63687656525049
            ],
            [
              125.77148437500001,
              45.55995308176601
            ],
            [
              125.72753906250001,
              45.52915416044319
            ],
            [
              125.70556640625001,
              45.49833836548989
            ],
            [
              125.66162109375001,
              45.45208303429609
            ],
            [
              125.63964843750001,
              45.42122505388484
            ],
            [
              125.61767578125001,
              45.39035019878852
            ],
            [
              125.59570312500001,
              45.359458468749615
            ],
            [
              125.57373046875001,
              45.32854986352987
            ],
            [
              125.55175781250001,
              45.29762438291072
            ],
            [
              125.52978515625,
              45.26668202669304
            ],
            [
              125.48583984375001,
              45.25120452017787
            ],
            [
              125.44189453125001,
              45.20474668676356
            ],
            [
              125.41992187500001,
              45.17375370275159
            ],
            [
              125.39794921875001,
              45.14274384254074
            ],
            [
              125.35400390625001,
              45.12723258382846
            ],
            [
              125.33203125000001,
              45.096197409136295
            ],
            [
              125.28808593750001,
              45.04961300380467
            ],
            [
              125.24414062500001,
              45.03407643045806
            ],
            [
              125.22216796875001,
              45.00299062638881
            ],
            [
              125.20019531250001,
              44.97188794581041
            ],
            [
              125.17822265625001,
              44.940768388730866
            ],
            [
              125.13427734375001,
              44.89405740973854
            ],
            [
              125.09033203125001,
              44.8628956615721
            ],
            [
              125.06835937500001,
              44.831717037089675
            ],
            [
              125.04638671875001,
              44.784917457493215
            ],
            [
              125.02441406250001,
              44.75369664269308
            ],
            [
              124.98046875000001,
              44.73807990682589
            ],
            [
              124.95849609375001,
              44.691204385604514
            ],
            [
              124.93652343750001,
              44.65993294367279
            ],
            [
              124.91455078125,
              44.612994139620554
            ],
            [
              124.89257812500001,
              44.581680509823784
            ],
            [
              124.89257812500001,
              44.53467842513388
            ],
            [
              124.89257812500001,
              44.456257246434
            ],
            [
              124.87060546875001,
              44.424859246086626
            ],
            [
              124.87060546875001,
              44.37773060860605
            ],
            [
              124.89257812500001,
              44.33056400794213
            ],
            [
              124.89257812500001,
              44.28335944550423
            ],
            [
              124.91455078125,
              44.25186864808097
            ],
            [
              124.93652343750001,
              44.22036097990289
            ],
            [
              124.95849609375001,
              44.188836441464886
            ],
            [
              124.98046875000001,
              44.15729503328249
            ],
            [
              125.00244140625001,
              44.125736755891985
            ],
            [
              125.04638671875001,
              44.09416160985039
            ],
            [
              125.06835937500001,
              44.046767263336925
            ],
            [
              125.09033203125001,
              44.015149948241145
            ],
            [
              125.11230468750001,
              43.983515766607816
            ],
            [
              125.13427734375001,
              43.951864719087695
            ],
            [
              125.15625000000001,
              43.92019680635257
            ],
            [
              125.17822265625001,
              43.88851202909514
            ],
            [
              125.22216796875001,
              43.856810388029096
            ],
            [
              125.24414062500001,
              43.82509188388915
            ],
            [
              125.26611328125001,
              43.77748251107472
            ],
            [
              125.31005859375001,
              43.76160428943178
            ],
            [
              125.33203125000001,
              43.72983520068922
            ],
            [
              125.35400390625001,
              43.69804925202255
            ],
            [
              125.37597656250001,
              43.66624644427209
            ],
            [
              125.41992187500001,
              43.63442677829939
            ],
            [
              125.44189453125001,
              43.58666567211055
            ],
            [
              125.48583984375001,
              43.55480386449102
            ],
            [
              125.50781250000001,
              43.5229252018322
            ],
            [
              125.57373046875001,
              43.4750756067455
            ],
            [
              125.61767578125001,
              43.44315481072395
            ],
            [
              125.66162109375001,
              43.42718809330113
            ],
            [
              125.68359375000001,
              43.39524202027338
            ],
            [
              125.72753906250001,
              43.36327909720769
            ],
            [
              125.74951171875001,
              43.331299325168715
            ],
            [
              125.79345703125001,
              43.31530312112288
            ],
            [
              125.81542968750001,
              43.28329807766746
            ],
            [
              125.83740234375001,
              43.25127618799487
            ],
            [
              125.88134765625001,
              43.235258926182624
            ],
            [
              125.90332031250001,
              43.20321176932909
            ],
            [
              125.92529296875001,
              43.17114776914966
            ],
            [
              125.96923828125001,
              43.13906692683886
            ],
            [
              125.99121093750001,
              43.106969243612944
            ],
            [
              126.01318359375001,
              43.07485472070985
            ],
            [
              126.03515625000001,
              43.04272335938942
            ],
            [
              126.05712890625001,
              43.01057516093327
            ],
            [
              126.10107421875001,
              42.97841012664495
            ],
            [
              126.12304687500001,
              42.94622825784988
            ],
            [
              126.14501953125,
              42.897923892910384
            ],
            [
              126.16699218750001,
              42.84958165800735
            ],
            [
              126.18896484375001,
              42.80120155789216
            ],
            [
              126.21093750000001,
              42.75278359742791
            ],
            [
              126.21093750000001,
              42.70432778158961
            ],
            [
              126.21093750000001,
              42.65583411546442
            ],
            [
              126.21093750000001,
              42.60730260425184
            ],
            [
              126.23291015625001,
              42.5749272410136
            ],
            [
              126.25488281250001,
              42.54253506169696
            ],
            [
              126.27685546875001,
              42.51012606792613
            ],
            [
              126.29882812500001,
              42.47770026134759
            ],
            [
              126.32080078125001,
              42.445257643630306
            ],
            [
              126.32080078125001,
              42.396562199875014
            ],
            [
              126.32080078125001,
              42.34782894067116
            ],
            [
              126.34277343750001,
              42.29905787193556
            ],
            [
              126.36474609375001,
              42.266522823790005
            ],
            [
              126.36474609375001,
              42.217688752626856
            ],
            [
              126.38671875000001,
              42.18511170857662
            ],
            [
              126.38671875000001,
              42.13621465226858
            ],
            [
              126.38671875000001,
              42.08727981339038
            ],
            [
              126.38671875000001,
              42.03830719847026
            ],
            [
              126.40869140625001,
              41.98929681415198
            ],
            [
              126.40869140625001,
              41.9402486671947
            ],
            [
              126.40869140625001,
              41.89116276447368
            ],
            [
              126.40869140625001,
              41.84203911298011
            ],
            [
              126.38671875000001,
              41.809269043949215
            ],
            [
              126.38671875000001,
              41.76008249368691
            ],
            [
              126.36474609375001,
              41.71085821386468
            ],
            [
              126.36474609375001,
              41.66159621190151
            ],
            [
              126.36474609375001,
              41.61229649533348
            ],
            [
              126.34277343750001,
              41.562959071814134
            ],
            [
              126.34277343750001,
              41.5135839491146
            ],
            [
              126.34277343750001,
              41.44769182266515
            ],
            [
              126.34277343750001,
              41.39822876609569
            ],
            [
              126.36474609375001,
              41.36523246541626
            ],
            [
              126.36474609375001,
              41.299189643969626
            ],
            [
              126.38671875000001,
              41.26614312816994
            ],
            [
              126.40869140625001,
              41.233079879003526
            ],
            [
              126.43066406250001,
              41.199999899013044
            ],
            [
              126.45263671875001,
              41.166903190764636
            ],
            [
              126.47460937500001,
              41.13378975684813
            ],
            [
              126.49658203125001,
              41.100659599876984
            ],
            [
              126.51855468750001,
              41.05093301446806
            ],
            [
              126.56250000000001,
              41.00116881712572
            ],
            [
              126.56250000000001,
              40.95136701697061
            ],
            [
              126.60644531250001,
              40.901527623243894
            ],
            [
              126.62841796875001,
              40.86828048006007
            ],
            [
              126.65039062500001,
              40.835016635584225
            ],
            [
              126.67236328125001,
              40.785089560140136
            ],
            [
              126.69433593750001,
              40.75178397485778
            ],
            [
              126.71630859375001,
              40.701794301673885
            ],
            [
              126.73828125000001,
              40.668446993632536
            ],
            [
              126.76025390625,
              40.63508300162502
            ],
            [
              126.80419921875001,
              40.601702328623134
            ],
            [
              126.82617187500001,
              40.551600048816056
            ],
            [
              126.82617187500001,
              40.50146025373132
            ],
            [
              126.84814453125001,
              40.46801288695294
            ],
            [
              126.84814453125001,
              40.41781058943441
            ],
            [
              126.87011718750001,
              40.367570804473104
            ],
            [
              126.89208984375001,
              40.33405679340267
            ],
            [
              126.91406250000001,
              40.28375455312769
            ],
            [
              126.91406250000001,
              40.21662663218487
            ],
            [
              126.91406250000001,
              40.166237005322465
            ],
            [
              126.93603515625001,
              40.13262312400396
            ],
            [
              126.91406250000001,
              40.098992609180016
            ],
            [
              126.89208984375001,
              40.06534546421197
            ],
            [
              126.89208984375001,
              40.01484357265334
            ],
            [
              126.89208984375001,
              39.96430428242634
            ],
            [
              126.89208984375001,
              39.89686040658238
            ],
            [
              126.89208984375001,
              39.846233898342966
            ],
            [
              126.91406250000001,
              39.81246213692594
            ],
            [
              126.93603515625001,
              39.761773369842615
            ],
            [
              126.95800781250001,
              39.72796011373551
            ],
            [
              126.97998046875001,
              39.69413026608932
            ],
            [
              127.02392578125001,
              39.66028383056247
            ],
            [
              127.04589843750001,
              39.62642081083839
            ],
            [
              127.04589843750001,
              39.59254121062542
            ],
            [
              126.91406250000001,
              39.66028383056247
            ]
          ]
        ]
      }
    }
  ]
}