{
    "type": "FeatureCollection",
    "name": "korean_war_frontlines",
    "description": "6.25 전쟁 날짜별 전선 위치 (1950.06.25 ~ 1953.07.27)",
    "features": [
        {
            "type": "Feature",
            "properties": {
                "date": "1950-06-25",
                "phase": "개전",
                "description": "북한군 38선 전면 남침"
            },
            "geometry": {
                "type": "LineString",
                "coordinates": [
                    [
                        124.60,
                        38.32
                    ],
                    [
                        125.50,
                        38.30
                    ],
                    [
                        126.33,
                        38.32
                    ],
                    [
                        127.00,
                        38.30
                    ],
                    [
                        127.50,
                        38.20
                    ],
                    [
                        128.00,
                        38.30
                    ],
                    [
                        129.00,
                        38.35
                    ],
                    [
                        129.50,
                        38.40
                    ]
                ]
            }
        },
        {
            "type": "Feature",
            "properties": {
                "date": "1950-06-26",
                "phase": "의정부 함락",
                "description": "북한군 의정부 지역 돌파"
            },
            "geometry": {
                "type": "LineString",
                "coordinates": [
                    [
                        124.60,
                        38.00
                    ],
                    [
                        125.50,
                        37.90
                    ],
                    [
                        126.50,
                        37.80
                    ],
                    [
                        127.00,
                        37.75
                    ],
                    [
                        127.50,
                        37.80
                    ],
                    [
                        128.00,
                        38.00
                    ],
                    [
                        129.00,
                        38.10
                    ],
                    [
                        129.50,
                        38.20
                    ]
                ]
            }
        },
        {
            "type": "Feature",
            "properties": {
                "date": "1950-06-28",
                "phase": "서울 함락",
                "description": "북한군 서울 점령, 한강 방어선 형성"
            },
            "geometry": {
                "type": "LineString",
                "coordinates": [
                    [
                        124.60,
                        37.50
                    ],
                    [
                        125.50,
                        37.45
                    ],
                    [
                        126.50,
                        37.50
                    ],
                    [
                        126.97,
                        37.40
                    ],
                    [
                        127.50,
                        37.45
                    ],
                    [
                        128.00,
                        37.70
                    ],
                    [
                        129.00,
                        37.90
                    ],
                    [
                        129.50,
                        38.00
                    ]
                ]
            }
        },
        {
            "type": "Feature",
            "properties": {
                "date": "1950-07-05",
                "phase": "오산 전투",
                "description": "스미스 특수임무부대 투입"
            },
            "geometry": {
                "type": "LineString",
                "coordinates": [
                    [
                        124.60,
                        37.00
                    ],
                    [
                        125.50,
                        36.90
                    ],
                    [
                        126.50,
                        36.95
                    ],
                    [
                        127.00,
                        36.98
                    ],
                    [
                        127.50,
                        37.00
                    ],
                    [
                        128.00,
                        37.20
                    ],
                    [
                        129.00,
                        37.50
                    ],
                    [
                        129.50,
                        37.70
                    ]
                ]
            }
        },
        {
            "type": "Feature",
            "properties": {
                "date": "1950-07-20",
                "phase": "대전 함락",
                "description": "북한군 대전 점령"
            },
            "geometry": {
                "type": "LineString",
                "coordinates": [
                    [
                        124.60,
                        36.50
                    ],
                    [
                        125.50,
                        36.30
                    ],
                    [
                        126.50,
                        36.20
                    ],
                    [
                        127.00,
                        36.35
                    ],
                    [
                        127.50,
                        36.40
                    ],
                    [
                        128.00,
                        36.60
                    ],
                    [
                        129.00,
                        36.90
                    ],
                    [
                        129.50,
                        37.10
                    ]
                ]
            }
        },
        {
            "type": "Feature",
            "properties": {
                "date": "1950-08-01",
                "phase": "낙동강 방어선 형성",
                "description": "UN군 낙동강 방어선 구축, 부산 교두보"
            },
            "geometry": {
                "type": "LineString",
                "coordinates": [
                    [
                        128.50,
                        34.90
                    ],
                    [
                        128.60,
                        35.10
                    ],
                    [
                        128.60,
                        35.30
                    ],
                    [
                        128.70,
                        35.50
                    ],
                    [
                        128.80,
                        35.70
                    ],
                    [
                        128.90,
                        35.90
                    ],
                    [
                        129.00,
                        36.10
                    ],
                    [
                        129.10,
                        36.30
                    ],
                    [
                        129.30,
                        36.50
                    ]
                ]
            }
        },
        {
            "type": "Feature",
            "properties": {
                "date": "1950-09-15",
                "phase": "인천 상륙작전",
                "description": "맥아더 장군 인천 상륙, 전세 역전"
            },
            "geometry": {
                "type": "LineString",
                "coordinates": [
                    [
                        128.50,
                        34.90
                    ],
                    [
                        128.60,
                        35.10
                    ],
                    [
                        128.60,
                        35.30
                    ],
                    [
                        128.70,
                        35.50
                    ],
                    [
                        128.80,
                        35.70
                    ],
                    [
                        128.90,
                        35.90
                    ],
                    [
                        129.00,
                        36.10
                    ],
                    [
                        129.10,
                        36.30
                    ],
                    [
                        129.30,
                        36.50
                    ]
                ]
            }
        },
        {
            "type": "Feature",
            "properties": {
                "date": "1950-09-28",
                "phase": "서울 수복",
                "description": "UN군 서울 탈환"
            },
            "geometry": {
                "type": "LineString",
                "coordinates": [
                    [
                        124.60,
                        37.60
                    ],
                    [
                        125.50,
                        37.55
                    ],
                    [
                        126.50,
                        37.55
                    ],
                    [
                        126.97,
                        37.56
                    ],
                    [
                        127.50,
                        37.50
                    ],
                    [
                        128.00,
                        37.45
                    ],
                    [
                        129.00,
                        37.40
                    ],
                    [
                        129.50,
                        37.35
                    ]
                ]
            }
        },
        {
            "type": "Feature",
            "properties": {
                "date": "1950-10-01",
                "phase": "38선 돌파",
                "description": "UN군 38선 북진"
            },
            "geometry": {
                "type": "LineString",
                "coordinates": [
                    [
                        124.60,
                        38.32
                    ],
                    [
                        125.50,
                        38.30
                    ],
                    [
                        126.33,
                        38.32
                    ],
                    [
                        127.00,
                        38.30
                    ],
                    [
                        127.50,
                        38.35
                    ],
                    [
                        128.00,
                        38.40
                    ],
                    [
                        129.00,
                        38.45
                    ],
                    [
                        129.50,
                        38.50
                    ]
                ]
            }
        },
        {
            "type": "Feature",
            "properties": {
                "date": "1950-10-19",
                "phase": "평양 점령",
                "description": "UN군 평양 점령"
            },
            "geometry": {
                "type": "LineString",
                "coordinates": [
                    [
                        124.60,
                        39.20
                    ],
                    [
                        125.50,
                        39.10
                    ],
                    [
                        125.75,
                        39.03
                    ],
                    [
                        126.50,
                        39.00
                    ],
                    [
                        127.50,
                        39.10
                    ],
                    [
                        128.00,
                        39.20
                    ],
                    [
                        129.00,
                        39.30
                    ],
                    [
                        129.50,
                        39.40
                    ]
                ]
            }
        },
        {
            "type": "Feature",
            "properties": {
                "date": "1950-10-26",
                "phase": "압록강 도달",
                "description": "UN군 압록강 접근"
            },
            "geometry": {
                "type": "LineString",
                "coordinates": [
                    [
                        124.40,
                        40.00
                    ],
                    [
                        125.00,
                        40.20
                    ],
                    [
                        125.50,
                        40.10
                    ],
                    [
                        126.00,
                        40.00
                    ],
                    [
                        127.00,
                        40.20
                    ],
                    [
                        128.00,
                        40.50
                    ],
                    [
                        129.00,
                        40.80
                    ],
                    [
                        129.50,
                        41.00
                    ]
                ]
            }
        },
        {
            "type": "Feature",
            "properties": {
                "date": "1950-11-27",
                "phase": "중공군 개입",
                "description": "중국군 대규모 개입, 장진호 전투"
            },
            "geometry": {
                "type": "LineString",
                "coordinates": [
                    [
                        124.40,
                        40.00
                    ],
                    [
                        125.00,
                        40.00
                    ],
                    [
                        125.50,
                        39.80
                    ],
                    [
                        126.50,
                        39.50
                    ],
                    [
                        127.50,
                        39.30
                    ],
                    [
                        128.00,
                        39.00
                    ],
                    [
                        129.00,
                        38.80
                    ],
                    [
                        129.50,
                        38.60
                    ]
                ]
            }
        },
        {
            "type": "Feature",
            "properties": {
                "date": "1950-12-15",
                "phase": "흥남 철수",
                "description": "UN군 흥남 철수 작전"
            },
            "geometry": {
                "type": "LineString",
                "coordinates": [
                    [
                        124.60,
                        38.50
                    ],
                    [
                        125.50,
                        38.40
                    ],
                    [
                        126.33,
                        38.32
                    ],
                    [
                        127.00,
                        38.20
                    ],
                    [
                        127.50,
                        38.10
                    ],
                    [
                        128.00,
                        38.00
                    ],
                    [
                        129.00,
                        37.90
                    ],
                    [
                        129.50,
                        37.80
                    ]
                ]
            }
        },
        {
            "type": "Feature",
            "properties": {
                "date": "1951-01-04",
                "phase": "1.4 후퇴",
                "description": "서울 재함락, UN군 후퇴"
            },
            "geometry": {
                "type": "LineString",
                "coordinates": [
                    [
                        124.60,
                        37.00
                    ],
                    [
                        125.50,
                        36.90
                    ],
                    [
                        126.50,
                        36.95
                    ],
                    [
                        127.00,
                        37.00
                    ],
                    [
                        127.50,
                        37.10
                    ],
                    [
                        128.00,
                        37.20
                    ],
                    [
                        129.00,
                        37.30
                    ],
                    [
                        129.50,
                        37.40
                    ]
                ]
            }
        },
        {
            "type": "Feature",
            "properties": {
                "date": "1951-03-14",
                "phase": "서울 재수복",
                "description": "UN군 서울 재탈환"
            },
            "geometry": {
                "type": "LineString",
                "coordinates": [
                    [
                        124.60,
                        37.60
                    ],
                    [
                        125.50,
                        37.55
                    ],
                    [
                        126.50,
                        37.55
                    ],
                    [
                        126.97,
                        37.56
                    ],
                    [
                        127.50,
                        37.60
                    ],
                    [
                        128.00,
                        37.70
                    ],
                    [
                        129.00,
                        37.80
                    ],
                    [
                        129.50,
                        37.90
                    ]
                ]
            }
        },
        {
            "type": "Feature",
            "properties": {
                "date": "1951-06-01",
                "phase": "전선 교착",
                "description": "38선 부근 전선 교착"
            },
            "geometry": {
                "type": "LineString",
                "coordinates": [
                    [
                        124.60,
                        38.00
                    ],
                    [
                        125.50,
                        37.95
                    ],
                    [
                        126.33,
                        38.00
                    ],
                    [
                        127.00,
                        38.10
                    ],
                    [
                        127.50,
                        38.20
                    ],
                    [
                        128.00,
                        38.30
                    ],
                    [
                        129.00,
                        38.40
                    ],
                    [
                        129.50,
                        38.50
                    ]
                ]
            }
        },
        {
            "type": "Feature",
            "properties": {
                "date": "1953-07-27",
                "phase": "휴전",
                "description": "휴전협정 체결, 현재 휴전선"
            },
            "geometry": {
                "type": "LineString",
                "coordinates": [
                    [
                        124.60,
                        37.90
                    ],
                    [
                        125.50,
                        37.95
                    ],
                    [
                        126.10,
                        37.97
                    ],
                    [
                        126.70,
                        37.85
                    ],
                    [
                        127.00,
                        37.88
                    ],
                    [
                        127.50,
                        38.20
                    ],
                    [
                        128.00,
                        38.30
                    ],
                    [
                        128.50,
                        38.35
                    ],
                    [
                        129.00,
                        38.50
                    ],
                    [
                        129.50,
                        38.60
                    ]
                ]
            }
        }
    ]
}