{
  "type": "FeatureCollection",
  "features": [
    {
      "type": "Feature",
      "properties": {
        "NAME": "6.25",
        "name": "6.25",
        "color": "#ef4444",
        "fill": "#ef4444",
        "fill-opacity": 0.5,
        "stroke": "#ef4444",
        "stroke-width": 2,
        "originalType": "polyline"
      },
      "geometry": {
        "type": "Polygon",
        "coordinates": [
          [
            [
              130.53955078125003,
              42.528722720666245
            ],
            [
              130.51757812500003,
              42.56108949987608
            ],
            [
              130.47363281250003,
              42.59343949749586
            ],
            [
              130.40771484375003,
              42.609608202706546
            ],
            [
              130.38574218750003,
              42.64193302493591
            ],
            [
              130.34179687500003,
              42.65808914156129
            ],
            [
              130.31982421875003,
              42.70653231114941
            ],
            [
              130.27587890625003,
              42.73880677205359
            ],
            [
              130.25390625000003,
              42.80330532192289
            ],
            [
              130.23193359375003,
              42.835529407940655
            ],
            [
              130.20996093750003,
              42.89992719493907
            ],
            [
              130.18798828125003,
              42.948181442748435
            ],
            [
              130.14404296875003,
              42.96425779253997
            ],
            [
              130.10009765625003,
              42.98032994231055
            ],
            [
              130.03417968750003,
              42.98032994231055
            ],
            [
              129.96826171875003,
              42.98032994231055
            ],
            [
              129.88037109375003,
              42.948181442748435
            ],
            [
              129.85839843750003,
              42.89992719493907
            ],
            [
              129.83642578125003,
              42.85163515308641
            ],
            [
              129.83642578125003,
              42.80330532192289
            ],
            [
              129.83642578125003,
              42.75493770629221
            ],
            [
              129.83642578125003,
              42.70653231114941
            ],
            [
              129.81445312500003,
              42.65808914156129
            ],
            [
              129.79248046875003,
              42.62577271191902
            ],
            [
              129.77050781250003,
              42.57726659648566
            ],
            [
              129.72656250000003,
              42.56108949987608
            ],
            [
              129.68261718750003,
              42.54490820786863
            ],
            [
              129.63867187500003,
              42.51253303847315
            ],
            [
              129.59472656250003,
              42.49633916149509
            ],
            [
              129.55078125000003,
              42.46393882401368
            ],
            [
              129.50683593750003,
              42.43152170989537
            ],
            [
              129.46289062500003,
              42.41530686212644
            ],
            [
              129.39697265625003,
              42.41530686212644
            ],
            [
              129.35302734375003,
              42.39908782083591
            ],
            [
              129.30908203125003,
              42.36663715855332
            ],
            [
              129.26513671875003,
              42.35040553799638
            ],
            [
              129.24316406250003,
              42.31792971914956
            ],
            [
              129.19921875000003,
              42.2854371314729
            ],
            [
              129.15527343750003,
              42.252927776763066
            ],
            [
              129.13330078125003,
              42.22040165683917
            ],
            [
              129.06738281250003,
              42.20413231049664
            ],
            [
              129.04541015625003,
              42.17158104621192
            ],
            [
              129.00146484375003,
              42.13901302135973
            ],
            [
              128.97949218750003,
              42.09012956217587
            ],
            [
              128.93554687500003,
              42.07382669756828
            ],
            [
              128.89160156250003,
              42.057519644259074
            ],
            [
              128.86962890625003,
              42.024892972517655
            ],
            [
              128.80371093750003,
              42.024892972517655
            ],
            [
              128.71582031250003,
              41.99224954892915
            ],
            [
              128.62792968750003,
              41.99224954892915
            ],
            [
              128.56201171875003,
              41.99224954892915
            ],
            [
              128.49609375000003,
              41.99224954892915
            ],
            [
              128.43017578125003,
              41.99224954892915
            ],
            [
              128.36425781250003,
              41.959589375493984
            ],
            [
              128.29833984375003,
              41.959589375493984
            ],
            [
              128.23242187500003,
              41.959589375493984
            ],
            [
              128.16650390625003,
              41.959589375493984
            ],
            [
              128.10058593750003,
              41.91056771381053
            ],
            [
              128.10058593750003,
              41.86150837645396
            ],
            [
              128.12255859375003,
              41.82878122409192
            ],
            [
              128.14453125000003,
              41.77965910964898
            ],
            [
              128.18847656250003,
              41.763276702998255
            ],
            [
              128.18847656250003,
              41.714104381327815
            ],
            [
              128.23242187500003,
              41.697705241110484
            ],
            [
              128.23242187500003,
              41.64848272534845
            ],
            [
              128.18847656250003,
              41.6320668559892
            ],
            [
              128.16650390625003,
              41.582794159548214
            ],
            [
              128.14453125000003,
              41.5499247911405
            ],
            [
              128.10058593750003,
              41.533483836566866
            ],
            [
              128.05664062500003,
              41.500589388135
            ],
            [
              127.99072265625001,
              41.500589388135
            ],
            [
              127.92480468750001,
              41.48413589486314
            ],
            [
              127.90283203125001,
              41.45121637168437
            ],
            [
              127.83691406250001,
              41.45121637168437
            ],
            [
              127.77099609375001,
              41.45121637168437
            ],
            [
              127.70507812500001,
              41.45121637168437
            ],
            [
              127.63916015625001,
              41.45121637168437
            ],
            [
              127.57324218750001,
              41.45121637168437
            ],
            [
              127.48535156250001,
              41.45121637168437
            ],
            [
              127.39746093750001,
              41.45121637168437
            ],
            [
              127.30957031250001,
              41.45121637168437
            ],
            [
              127.24365234375001,
              41.500589388135
            ],
            [
              127.19970703125001,
              41.51703870213422
            ],
            [
              127.15576171875001,
              41.5499247911405
            ],
            [
              127.11181640625001,
              41.5992225728046
            ],
            [
              127.08984375000001,
              41.6320668559892
            ],
            [
              127.02392578125001,
              41.64848272534845
            ],
            [
              126.95800781250001,
              41.68130191818923
            ],
            [
              126.89208984375001,
              41.73049933856472
            ],
            [
              126.87011718750001,
              41.763276702998255
            ],
            [
              126.78222656250001,
              41.763276702998255
            ],
            [
              126.76025390625,
              41.73049933856472
            ],
            [
              126.69433593750001,
              41.697705241110484
            ],
            [
              126.69433593750001,
              41.64848272534845
            ],
            [
              126.62841796875001,
              41.6320668559892
            ],
            [
              126.60644531250001,
              41.5992225728046
            ],
            [
              126.56250000000001,
              41.566361565564144
            ],
            [
              126.54052734375001,
              41.533483836566866
            ],
            [
              126.51855468750001,
              41.500589388135
            ],
            [
              126.49658203125001,
              41.46767822261399
            ],
            [
              126.47460937500001,
              41.43475034237251
            ],
            [
              126.43066406250001,
              41.4182801349782
            ],
            [
              126.40869140625001,
              41.385327187148285
            ],
            [
              126.36474609375001,
              41.36884444731945
            ],
            [
              126.34277343750001,
              41.33586643736172
            ],
            [
              126.29882812500001,
              41.28636810130234
            ],
            [
              126.23291015625001,
              41.2368321873781
            ],
            [
              126.21093750000001,
              41.20378737237618
            ],
            [
              126.16699218750001,
              41.170725862443994
            ],
            [
              126.12304687500001,
              41.104552768129395
            ],
            [
              126.05712890625001,
              41.07144118897628
            ],
            [
              126.01318359375001,
              41.038312925351526
            ],
            [
              125.94726562500001,
              41.005167979928736
            ],
            [
              125.88134765625001,
              40.97200635540532
            ],
            [
              125.81542968750001,
              40.922232651265254
            ],
            [
              125.77148437500001,
              40.889029340946735
            ],
            [
              125.72753906250001,
              40.85580936115514
            ],
            [
              125.66162109375001,
              40.85580936115514
            ],
            [
              125.59570312500001,
              40.82257271469471
            ],
            [
              125.52978515625,
              40.8059481423465
            ],
            [
              125.48583984375001,
              40.77268650119292
            ],
            [
              125.41992187500001,
              40.75604943310349
            ],
            [
              125.35400390625001,
              40.739408200485435
            ],
            [
              125.31005859375001,
              40.706113243111865
            ],
            [
              125.24414062500001,
              40.689459519084274
            ],
            [
              125.20019531250001,
              40.65613958217852
            ],
            [
              125.15625000000001,
              40.6394733700373
            ],
            [
              125.11230468750001,
              40.60612846023171
            ],
            [
              125.04638671875001,
              40.58944976331328
            ],
            [
              124.98046875000001,
              40.55607988732123
            ],
            [
              124.93652343750001,
              40.52269337097464
            ],
            [
              124.87060546875001,
              40.48929021731742
            ],
            [
              124.82666015625001,
              40.43915429859214
            ],
            [
              124.76074218750001,
              40.40570956513394
            ],
            [
              124.73876953125001,
              40.372248205209075
            ],
            [
              124.67285156250001,
              40.372248205209075
            ],
            [
              124.62890625000001,
              40.322024997599954
            ],
            [
              124.58496093750001,
              40.25500255778351
            ],
            [
              124.51904296875001,
              40.20469211978001
            ],
            [
              124.49707031250001,
              40.171131068112736
            ],
            [
              124.40917968750001,
              40.1039591564403
            ],
            [
              124.34326171875001,
              40.036720855927705
            ],
            [
              124.27734375000001,
              39.9862485791396
            ],
            [
              124.25537109375001,
              39.95257966226533
            ],
            [
              124.23339843750001,
              39.9020451970759
            ],
            [
              124.18945312500001,
              39.83460789406671
            ],
            [
              124.14550781250001,
              39.80086438646373
            ],
            [
              124.18945312500001,
              39.76710431287912
            ],
            [
              124.25537109375001,
              39.76710431287912
            ],
            [
              124.40917968750001,
              39.76710431287912
            ],
            [
              124.49707031250001,
              39.76710431287912
            ],
            [
              124.58496093750001,
              39.76710431287912
            ],
            [
              124.67285156250001,
              39.76710431287912
            ],
            [
              124.73876953125001,
              39.75021806496582
            ],
            [
              124.80468750000001,
              39.699534482165234
            ],
            [
              124.84863281250001,
              39.682631676393726
            ],
            [
              124.89257812500001,
              39.64881365033785
            ],
            [
              124.93652343750001,
              39.63189843097371
            ],
            [
              125.02441406250001,
              39.59805558188515
            ],
            [
              125.04638671875001,
              39.564196188750536
            ],
            [
              125.11230468750001,
              39.530320255312844
            ],
            [
              125.11230468750001,
              39.47947535033725
            ],
            [
              125.15625000000001,
              39.44555808268127
            ],
            [
              125.20019531250001,
              39.42859325098571
            ],
            [
              125.26611328125001,
              39.411624288019404
            ],
            [
              125.28808593750001,
              39.37767397020711
            ],
            [
              125.28808593750001,
              39.30972378067867
            ],
            [
              125.28808593750001,
              39.25871779430691
            ],
            [
              125.28808593750001,
              39.20767467058867
            ],
            [
              125.28808593750001,
              39.15659442302423
            ],
            [
              125.28808593750001,
              39.088429701639456
            ],
            [
              125.28808593750001,
              39.03726288498642
            ],
            [
              125.28808593750001,
              38.96898278844171
            ],
            [
              125.28808593750001,
              38.91772947852572
            ],
            [
              125.28808593750001,
              38.86643912368512
            ],
            [
              125.22216796875001,
              38.780872915946816
            ],
            [
              125.20019531250001,
              38.74661764634631
            ],
            [
              125.20019531250001,
              38.67805778275541
            ],
            [
              125.17822265625001,
              38.60943218260697
            ],
            [
              125.15625000000001,
              38.575094742405845
            ],
            [
              125.13427734375001,
              38.52355779453038
            ],
            [
              125.11230468750001,
              38.471983915106165
            ],
            [
              125.11230468750001,
              38.4203731194852
            ],
            [
              125.09033203125001,
              38.38594542104674
            ],
            [
              125.06835937500001,
              38.351501326907986
            ],
            [
              125.04638671875001,
              38.31704084171467
            ],
            [
              125.02441406250001,
              38.26531939092363
            ],
            [
              125.00244140625001,
              38.23081794858894
            ],
            [
              124.98046875000001,
              38.19630013166396
            ],
            [
              124.95849609375001,
              38.16176594491117
            ],
            [
              124.95849609375001,
              38.10993398183706
            ],
            [
              124.95849609375001,
              38.05806521370236
            ],
            [
              124.95849609375001,
              37.98884963224405
            ],
            [
              124.98046875000001,
              37.93689504965545
            ],
            [
              125.02441406250001,
              37.88490371720023
            ],
            [
              125.04638671875001,
              37.798169875884994
            ],
            [
              125.09033203125001,
              37.7808108702054
            ],
            [
              125.11230468750001,
              37.74608062650316
            ],
            [
              125.20019531250001,
              37.74608062650316
            ],
            [
              125.26611328125001,
              37.763447786865775
            ],
            [
              125.28808593750001,
              37.798169875884994
            ],
            [
              125.37597656250001,
              37.83287565172401
            ],
            [
              125.37597656250001,
              37.88490371720023
            ],
            [
              125.44189453125001,
              37.91956868799309
            ],
            [
              125.50781250000001,
              37.91956868799309
            ],
            [
              125.57373046875001,
              37.91956868799309
            ],
            [
              125.63964843750001,
              37.91956868799309
            ],
            [
              125.70556640625001,
              37.91956868799309
            ],
            [
              125.74951171875001,
              37.88490371720023
            ],
            [
              125.81542968750001,
              37.85022242061752
            ],
            [
              125.90332031250001,
              37.815524803269106
            ],
            [
              125.96923828125001,
              37.815524803269106
            ],
            [
              126.03515625000001,
              37.815524803269106
            ],
            [
              126.12304687500001,
              37.798169875884994
            ],
            [
              126.18896484375001,
              37.798169875884994
            ],
            [
              126.25488281250001,
              37.798169875884994
            ],
            [
              126.32080078125001,
              37.798169875884994
            ],
            [
              126.38671875000001,
              37.798169875884994
            ],
            [
              126.43066406250001,
              37.7808108702054
            ],
            [
              126.45263671875001,
              37.711334077265526
            ],
            [
              126.49658203125001,
              37.67657122762192
            ],
            [
              126.49658203125001,
              37.62439640118112
            ],
            [
              126.49658203125001,
              37.572184927946616
            ],
            [
              126.49658203125001,
              37.51993682556498
            ],
            [
              126.49658203125001,
              37.45021574113443
            ],
            [
              126.49658203125001,
              37.39788224012268
            ],
            [
              126.51855468750001,
              37.36297292201742
            ],
            [
              126.51855468750001,
              37.293105548263924
            ],
            [
              126.51855468750001,
              37.2406623940108
            ],
            [
              126.51855468750001,
              37.18818272549622
            ],
            [
              126.51855468750001,
              37.13566656135522
            ],
            [
              126.51855468750001,
              37.08311392035833
            ],
            [
              126.43066406250001,
              37.04805857077132
            ],
            [
              126.38671875000001,
              37.03052482141186
            ],
            [
              126.34277343750001,
              37.01298702328379
            ],
            [
              126.29882812500001,
              36.99544517709572
            ],
            [
              126.25488281250001,
              36.977899283558
            ],
            [
              126.23291015625001,
              36.94279535728321
            ],
            [
              126.23291015625001,
              36.87253896797785
            ],
            [
              126.23291015625001,
              36.81980422901733
            ],
            [
              126.23291015625001,
              36.74943468500215
            ],
            [
              126.25488281250001,
              36.71422568669432
            ],
            [
              126.27685546875001,
              36.67900054536622
            ],
            [
              126.25488281250001,
              36.64375926693669
            ],
            [
              126.21093750000001,
              36.608501857351584
            ],
            [
              126.16699218750001,
              36.59086710524125
            ],
            [
              126.16699218750001,
              36.537938668634325
            ],
            [
              126.23291015625001,
              36.50263290152985
            ],
            [
              126.27685546875001,
              36.484973977435615
            ],
            [
              126.49658203125001,
              36.44964405196
            ],
            [
              126.56250000000001,
              36.41429802851741
            ],
            [
              126.58447265625001,
              36.37893591323062
            ],
            [
              126.58447265625001,
              36.32586258155346
            ],
            [
              126.58447265625001,
              36.27275307794298
            ],
            [
              126.58447265625001,
              36.21960742340967
            ],
            [
              126.58447265625001,
              36.16642563910262
            ],
            [
              126.58447265625001,
              36.113207746309754
            ],
            [
              126.58447265625001,
              36.04219442421795
            ],
            [
              126.58447265625001,
              35.98889236185931
            ],
            [
              126.58447265625001,
              35.93555426297977
            ],
            [
              126.58447265625001,
              35.882180149470855
            ],
            [
              126.58447265625001,
              35.82877004336397
            ],
            [
              126.58447265625001,
              35.75750061840988
            ],
            [
              126.56250000000001,
              35.721841942181356
            ],
            [
              126.54052734375001,
              35.668323991868625
            ],
            [
              126.49658203125001,
              35.59691087948733
            ],
            [
              126.47460937500001,
              35.50755481357121
            ],
            [
              126.43066406250001,
              35.471784509989895
            ],
            [
              126.40869140625001,
              35.418099207570044
            ],
            [
              126.36474609375001,
              35.3822891179709
            ],
            [
              126.29882812500001,
              35.3643781093693
            ],
            [
              126.25488281250001,
              35.34646312605653
            ],
            [
              126.23291015625001,
              35.292694336558085
            ],
            [
              126.23291015625001,
              35.238889806077445
            ],
            [
              126.21093750000001,
              35.20300027469741
            ],
            [
              126.18896484375001,
              35.14913622869684
            ],
            [
              126.16699218750001,
              35.09523650528589
            ],
            [
              126.16699218750001,
              35.04130112856432
            ],
            [
              126.16699218750001,
              34.98733012277428
            ],
            [
              126.14501953125,
              34.95132967035656
            ],
            [
              126.10107421875001,
              34.89729933704399
            ],
            [
              126.10107421875001,
              34.82520357555176
            ],
            [
              126.07910156250001,
              34.75304464843286
            ],
            [
              126.07910156250001,
              34.698884036253304
            ],
            [
              126.07910156250001,
              34.626614712036535
            ],
            [
              126.07910156250001,
              34.572371370705326
            ],
            [
              126.07910156250001,
              34.518092616386255
            ],
            [
              126.12304687500001,
              34.481887118939866
            ],
            [
              126.16699218750001,
              34.445665901401945
            ],
            [
              126.18896484375001,
              34.40942897142908
            ],
            [
              126.25488281250001,
              34.39130461668005
            ],
            [
              126.29882812500001,
              34.37317633670638
            ],
            [
              126.36474609375001,
              34.37317633670638
            ],
            [
              126.40869140625001,
              34.3550441324732
            ],
            [
              126.51855468750001,
              34.336908004947325
            ],
            [
              126.60644531250001,
              34.336908004947325
            ],
            [
              126.69433593750001,
              34.31876795509746
            ],
            [
              126.73828125000001,
              34.30062398389398
            ],
            [
              126.82617187500001,
              34.30062398389398
            ],
            [
              126.87011718750001,
              34.31876795509746
            ],
            [
              126.93603515625001,
              34.37317633670638
            ],
            [
              126.95800781250001,
              34.40942897142908
            ],
            [
              127.00195312500001,
              34.445665901401945
            ],
            [
              127.04589843750001,
              34.481887118939866
            ],
            [
              127.11181640625001,
              34.49999183315193
            ],
            [
              127.19970703125001,
              34.49999183315193
            ],
            [
              127.26562500000001,
              34.49999183315193
            ],
            [
              127.39746093750001,
              34.49999183315193
            ],
            [
              127.48535156250001,
              34.463778474704476
            ],
            [
              127.55126953125001,
              34.463778474704476
            ],
            [
              127.61718750000001,
              34.463778474704476
            ],
            [
              127.70507812500001,
              34.463778474704476
            ],
            [
              127.77099609375001,
              34.481887118939866
            ],
            [
              127.83691406250001,
              34.481887118939866
            ],
            [
              127.85888671875001,
              34.53618946769019
            ],
            [
              127.88085937500001,
              34.572371370705326
            ],
            [
              127.88085937500001,
              34.626614712036535
            ],
            [
              127.90283203125001,
              34.66275725311912
            ],
            [
              127.92480468750001,
              34.73499505395282
            ],
            [
              127.96875000000001,
              34.807169763244325
            ],
            [
              127.96875000000001,
              34.879281321669545
            ],
            [
              128.01269531250003,
              34.91531340089216
            ],
            [
              128.03466796875003,
              34.96933187415071
            ],
            [
              128.10058593750003,
              34.98733012277428
            ],
            [
              128.18847656250003,
              34.98733012277428
            ],
            [
              128.25439453125003,
              34.98733012277428
            ],
            [
              128.32031250000003,
              34.98733012277428
            ],
            [
              128.40820312500003,
              34.96933187415071
            ],
            [
              128.45214843750003,
              34.93332351230034
            ],
            [
              128.49609375000003,
              34.89729933704399
            ],
            [
              128.56201171875003,
              34.89729933704399
            ],
            [
              128.62792968750003,
              34.89729933704399
            ],
            [
              128.69384765625003,
              34.89729933704399
            ],
            [
              128.75976562500003,
              34.93332351230034
            ],
            [
              128.75976562500003,
              35.00532441532074
            ],
            [
              128.78173828125003,
              35.07726200666343
            ],
            [
              128.80371093750003,
              35.11320704242818
            ],
            [
              128.82568359375003,
              35.167094876039776
            ],
            [
              128.91357421875003,
              35.167094876039776
            ],
            [
              129.00146484375003,
              35.167094876039776
            ],
            [
              129.04541015625003,
              35.185049558335756
            ],
            [
              129.15527343750003,
              35.20300027469741
            ],
            [
              129.24316406250003,
              35.220947024239265
            ],
            [
              129.28710937500003,
              35.238889806077445
            ],
            [
              129.33105468750003,
              35.256828619329895
            ],
            [
              129.35302734375003,
              35.292694336558085
            ],
            [
              129.39697265625003,
              35.310621238778495
            ],
            [
              129.39697265625003,
              35.3643781093693
            ],
            [
              129.41894531250003,
              35.400196150993246
            ],
            [
              129.41894531250003,
              35.45389338793033
            ],
            [
              129.41894531250003,
              35.50755481357121
            ],
            [
              129.41894531250003,
              35.561180404760556
            ],
            [
              129.44091796875003,
              35.59691087948733
            ],
            [
              129.50683593750003,
              35.65047669551761
            ],
            [
              129.57275390625003,
              35.68616729898827
            ],
            [
              129.61669921875003,
              35.73967327658304
            ],
            [
              129.68261718750003,
              35.75750061840988
            ],
            [
              129.68261718750003,
              35.81095868013458
            ],
            [
              129.68261718750003,
              35.882180149470855
            ],
            [
              129.68261718750003,
              35.93555426297977
            ],
            [
              129.68261718750003,
              35.98889236185931
            ],
            [
              129.66064453125003,
              36.02443107550188
            ],
            [
              129.63867187500003,
              36.077709101420126
            ],
            [
              129.61669921875003,
              36.113207746309754
            ],
            [
              129.61669921875003,
              36.16642563910262
            ],
            [
              129.61669921875003,
              36.23732665705402
            ],
            [
              129.59472656250003,
              36.27275307794298
            ],
            [
              129.59472656250003,
              36.343557712249776
            ],
            [
              129.59472656250003,
              36.396618981970796
            ],
            [
              129.59472656250003,
              36.44964405196
            ],
            [
              129.59472656250003,
              36.52028779884868
            ],
            [
              129.59472656250003,
              36.59086710524125
            ],
            [
              129.59472656250003,
              36.64375926693669
            ],
            [
              129.59472656250003,
              36.69661513353852
            ],
            [
              129.59472656250003,
              36.74943468500215
            ],
            [
              129.59472656250003,
              36.80221790142023
            ],
            [
              129.59472656250003,
              36.85496476302246
            ],
            [
              129.59472656250003,
              36.907675250175444
            ],
            [
              129.59472656250003,
              36.9603493433826
            ],
            [
              129.59472656250003,
              37.01298702328379
            ],
            [
              129.57275390625003,
              37.06558827065525
            ],
            [
              129.55078125000003,
              37.118153066409405
            ],
            [
              129.55078125000003,
              37.17068139159465
            ],
            [
              129.55078125000003,
              37.223173227395286
            ],
            [
              129.50683593750003,
              37.25814750348501
            ],
            [
              129.50683593750003,
              37.310578482199965
            ],
            [
              129.44091796875003,
              37.36297292201742
            ],
            [
              129.39697265625003,
              37.39788224012268
            ],
            [
              129.37500000000003,
              37.432775305178566
            ],
            [
              129.30908203125003,
              37.45021574113443
            ],
            [
              129.26513671875003,
              37.50251265469664
            ],
            [
              129.24316406250003,
              37.53735692850262
            ],
            [
              129.22119140625003,
              37.572184927946616
            ],
            [
              129.17724609375003,
              37.589592823137544
            ],
            [
              129.15527343750003,
              37.62439640118112
            ],
            [
              129.13330078125003,
              37.659183691758074
            ],
            [
              129.11132812500003,
              37.693954689672836
            ],
            [
              129.06738281250003,
              37.74608062650316
            ],
            [
              129.04541015625003,
              37.7808108702054
            ],
            [
              129.02343750000003,
              37.815524803269106
            ],
            [
              129.00146484375003,
              37.85022242061752
            ],
            [
              128.97949218750003,
              37.88490371720023
            ],
            [
              128.93554687500003,
              37.91956868799309
            ],
            [
              128.89160156250003,
              37.95421732799823
            ],
            [
              128.84765625000003,
              38.023465595785154
            ],
            [
              128.82568359375003,
              38.05806521370236
            ],
            [
              128.78173828125003,
              38.10993398183706
            ],
            [
              128.75976562500003,
              38.144492714344764
            ],
            [
              128.71582031250003,
              38.17903508421737
            ],
            [
              128.67187500000003,
              38.21356108665319
            ],
            [
              128.64990234375003,
              38.24807071687673
            ],
            [
              128.62792968750003,
              38.282563970138405
            ],
            [
              128.58398437500003,
              38.31704084171467
            ],
            [
              128.54003906250003,
              38.351501326907986
            ],
            [
              128.51806640625003,
              38.38594542104674
            ],
            [
              128.47412109375003,
              38.471983915106165
            ],
            [
              128.45214843750003,
              38.50637060413895
            ],
            [
              128.45214843750003,
              38.55791986422837
            ],
            [
              128.43017578125003,
              38.59226551538554
            ],
            [
              128.38623046875003,
              38.64375319754089
            ],
            [
              128.34228515625003,
              38.67805778275541
            ],
            [
              128.29833984375003,
              38.71234593382413
            ],
            [
              128.25439453125003,
              38.74661764634631
            ],
            [
              128.18847656250003,
              38.76374733678421
            ],
            [
              128.14453125000003,
              38.815111738276165
            ],
            [
              128.10058593750003,
              38.83222498036193
            ],
            [
              128.05664062500003,
              38.84933410901039
            ],
            [
              128.01269531250003,
              38.88354002385118
            ],
            [
              127.92480468750001,
              38.9006368089753
            ],
            [
              127.90283203125001,
              38.95190246878667
            ],
            [
              127.85888671875001,
              38.96898278844171
            ],
            [
              127.83691406250001,
              39.0201990392059
            ],
            [
              127.81494140625001,
              39.05432261099685
            ],
            [
              127.77099609375001,
              39.07137821671981
            ],
            [
              127.74902343750001,
              39.10547706524159
            ],
            [
              127.72705078125001,
              39.13955942644424
            ],
            [
              127.68310546875001,
              39.173625296245554
            ],
            [
              127.63916015625001,
              39.20767467058867
            ],
            [
              127.57324218750001,
              39.20767467058867
            ],
            [
              127.50732421875001,
              39.224693170702544
            ],
            [
              127.48535156250001,
              39.25871779430691
            ],
            [
              127.48535156250001,
              39.30972378067867
            ],
            [
              127.48535156250001,
              39.36069261633125
            ],
            [
              127.48535156250001,
              39.42859325098571
            ],
            [
              127.48535156250001,
              39.47947535033725
            ],
            [
              127.48535156250001,
              39.530320255312844
            ],
            [
              127.48535156250001,
              39.59805558188515
            ],
            [
              127.48535156250001,
              39.64881365033785
            ],
            [
              127.48535156250001,
              39.699534482165234
            ],
            [
              127.48535156250001,
              39.75021806496582
            ],
            [
              127.52929687500001,
              39.76710431287912
            ],
            [
              127.57324218750001,
              39.817738211236595
            ],
            [
              127.61718750000001,
              39.83460789406671
            ],
            [
              127.66113281250001,
              39.85147343450877
            ],
            [
              127.74902343750001,
              39.9020451970759
            ],
            [
              127.79296875000001,
              39.918894163542866
            ],
            [
              127.85888671875001,
              39.918894163542866
            ],
            [
              127.90283203125001,
              39.93573898541803
            ],
            [
              127.96875000000001,
              39.95257966226533
            ],
            [
              128.07861328125003,
              39.9694161936502
            ],
            [
              128.18847656250003,
              39.9862485791396
            ],
            [
              128.27636718750003,
              40.00307681830202
            ],
            [
              128.32031250000003,
              40.036720855927705
            ],
            [
              128.38623046875003,
              40.036720855927705
            ],
            [
              128.45214843750003,
              40.05353665353566
            ],
            [
              128.54003906250003,
              40.087155804215
            ],
            [
              128.58398437500003,
              40.1039591564403
            ],
            [
              128.62792968750003,
              40.13755341255841
            ],
            [
              128.67187500000003,
              40.171131068112736
            ],
            [
              128.71582031250003,
              40.22146641812426
            ],
            [
              128.75976562500003,
              40.25500255778351
            ],
            [
              128.80371093750003,
              40.288522085354685
            ],
            [
              128.84765625000003,
              40.322024997599954
            ],
            [
              128.86962890625003,
              40.3555112913059
            ],
            [
              128.89160156250003,
              40.388980963283366
            ],
            [
              128.91357421875003,
              40.422434010367475
            ],
            [
              128.95751953125003,
              40.47258240245516
            ],
            [
              128.97949218750003,
              40.505993873618685
            ],
            [
              129.02343750000003,
              40.53938870900258
            ],
            [
              129.06738281250003,
              40.55607988732123
            ],
            [
              129.11132812500003,
              40.57276690555088
            ],
            [
              129.15527343750003,
              40.58944976331328
            ],
            [
              129.19921875000003,
              40.62280299593096
            ],
            [
              129.24316406250003,
              40.6394733700373
            ],
            [
              129.33105468750003,
              40.65613958217852
            ],
            [
              129.39697265625003,
              40.689459519084274
            ],
            [
              129.50683593750003,
              40.72276280370048
            ],
            [
              129.57275390625003,
              40.739408200485435
            ],
            [
              129.59472656250003,
              40.77268650119292
            ],
            [
              129.63867187500003,
              40.8059481423465
            ],
            [
              129.68261718750003,
              40.82257271469471
            ],
            [
              129.72656250000003,
              40.83919312108231
            ],
            [
              129.74853515625003,
              40.872421434560366
            ],
            [
              129.77050781250003,
              40.905633079964474
            ],
            [
              129.81445312500003,
              40.95541928933025
            ],
            [
              129.83642578125003,
              40.98858925238509
            ],
            [
              129.83642578125003,
              41.038312925351526
            ],
            [
              129.83642578125003,
              41.08799906427798
            ],
            [
              129.83642578125003,
              41.13764766016078
            ],
            [
              129.83642578125003,
              41.22031186690373
            ],
            [
              129.83642578125003,
              41.26986030489393
            ],
            [
              129.83642578125003,
              41.31937116784836
            ],
            [
              129.81445312500003,
              41.35235753062156
            ],
            [
              129.81445312500003,
              41.40180574980259
            ],
            [
              129.79248046875003,
              41.43475034237251
            ],
            [
              129.77050781250003,
              41.46767822261399
            ],
            [
              129.77050781250003,
              41.533483836566866
            ],
            [
              129.77050781250003,
              41.5992225728046
            ],
            [
              129.77050781250003,
              41.64848272534845
            ],
            [
              129.79248046875003,
              41.697705241110484
            ],
            [
              129.83642578125003,
              41.73049933856472
            ],
            [
              129.85839843750003,
              41.763276702998255
            ],
            [
              129.90234375000003,
              41.77965910964898
            ],
            [
              129.94628906250003,
              41.81241137046445
            ],
            [
              129.96826171875003,
              41.84514689284346
            ],
            [
              130.03417968750003,
              41.89421878719899
            ],
            [
              130.03417968750003,
              41.94325300821522
            ],
            [
              130.05615234375003,
              41.99224954892915
            ],
            [
              130.07812500000003,
              42.024892972517655
            ],
            [
              130.12207031250003,
              42.07382669756828
            ],
            [
              130.14404296875003,
              42.10642823783824
            ],
            [
              130.18798828125003,
              42.13901302135973
            ],
            [
              130.20996093750003,
              42.17158104621192
            ],
            [
              130.25390625000003,
              42.20413231049664
            ],
            [
              130.29785156250003,
              42.22040165683917
            ],
            [
              130.36376953125003,
              42.22040165683917
            ],
            [
              130.38574218750003,
              42.252927776763066
            ],
            [
              130.42968750000003,
              42.2854371314729
            ],
            [
              130.47363281250003,
              42.31792971914956
            ],
            [
              130.49560546875003,
              42.35040553799638
            ],
            [
              130.51757812500003,
              42.382864586239236
            ],
            [
              130.53955078125003,
              42.44773236392868
            ],
            [
              130.56152343750003,
              42.48014108993912
            ],
            [
              130.56152343750003,
              42.528722720666245
            ],
            [
              130.56152343750003,
              42.54490820786863
            ],
            [
              130.53955078125003,
              42.528722720666245
            ]
          ]
        ]
      }
    }
  ]
}