{
  "type": "FeatureCollection",
  "features": [
    {
      "type": "Feature",
      "properties": {
        "NAME": "Goryeo",
        "name": "Goryeo",
        "color": "#ef4444",
        "fill": "#ef4444",
        "fill-opacity": 0.5,
        "stroke": "#ef4444",
        "stroke-width": 2,
        "originalType": "polygon"
      },
      "geometry": {
        "type": "Polygon",
        "coordinates": [
          [
            [
              126.099205,
              36.849008
            ],
            [
              126.088221,
              36.831419
            ],
            [
              126.088221,
              36.805029
            ],
            [
              126.077236,
              36.78743
            ],
            [
              126.077236,
              36.761024
            ],
            [
              126.077236,
              36.73461
            ],
            [
              126.077236,
              36.708186
            ],
            [
              126.088221,
              36.681753
            ],
            [
              126.099205,
              36.664126
            ],
            [
              126.121175,
              36.655311
            ],
            [
              126.143144,
              36.637678
            ],
            [
              126.154129,
              36.620041
            ],
            [
              126.176098,
              36.611221
            ],
            [
              126.198067,
              36.6024
            ],
            [
              126.220036,
              36.593578
            ],
            [
              126.231021,
              36.575931
            ],
            [
              126.242005,
              36.55828
            ],
            [
              126.25299,
              36.540625
            ],
            [
              126.263975,
              36.522966
            ],
            [
              126.274959,
              36.505302
            ],
            [
              126.285944,
              36.487635
            ],
            [
              126.296928,
              36.469964
            ],
            [
              126.307913,
              36.443449
            ],
            [
              126.329882,
              36.425768
            ],
            [
              126.340867,
              36.408083
            ],
            [
              126.351852,
              36.390393
            ],
            [
              126.362836,
              36.363852
            ],
            [
              126.373821,
              36.346152
            ],
            [
              126.384805,
              36.328449
            ],
            [
              126.406775,
              36.310741
            ],
            [
              126.417759,
              36.293029
            ],
            [
              126.439728,
              36.284172
            ],
            [
              126.450713,
              36.257594
            ],
            [
              126.461698,
              36.231007
            ],
            [
              126.472682,
              36.204411
            ],
            [
              126.483667,
              36.186676
            ],
            [
              126.494651,
              36.168936
            ],
            [
              126.505636,
              36.151192
            ],
            [
              126.505636,
              36.124569
            ],
            [
              126.505636,
              36.097937
            ],
            [
              126.505636,
              36.071296
            ],
            [
              126.483667,
              36.062414
            ],
            [
              126.472682,
              36.044646
            ],
            [
              126.461698,
              36.026874
            ],
            [
              126.450713,
              36.009098
            ],
            [
              126.439728,
              35.991318
            ],
            [
              126.439728,
              35.964641
            ],
            [
              126.439728,
              35.937955
            ],
            [
              126.439728,
              35.91126
            ],
            [
              126.439728,
              35.884555
            ],
            [
              126.439728,
              35.857842
            ],
            [
              126.439728,
              35.82221
            ],
            [
              126.439728,
              35.795476
            ],
            [
              126.428744,
              35.777648
            ],
            [
              126.428744,
              35.750899
            ],
            [
              126.428744,
              35.724141
            ],
            [
              126.439728,
              35.706297
            ],
            [
              126.439728,
              35.679523
            ],
            [
              126.439728,
              35.652741
            ],
            [
              126.417759,
              35.634881
            ],
            [
              126.406775,
              35.617017
            ],
            [
              126.39579,
              35.59915
            ],
            [
              126.384805,
              35.57234
            ],
            [
              126.384805,
              35.545522
            ],
            [
              126.384805,
              35.518695
            ],
            [
              126.39579,
              35.500805
            ],
            [
              126.39579,
              35.473963
            ],
            [
              126.39579,
              35.447112
            ],
            [
              126.39579,
              35.420252
            ],
            [
              126.384805,
              35.393383
            ],
            [
              126.351852,
              35.393383
            ],
            [
              126.329882,
              35.375466
            ],
            [
              126.307913,
              35.366505
            ],
            [
              126.285944,
              35.348582
            ],
            [
              126.263975,
              35.330654
            ],
            [
              126.263975,
              35.303755
            ],
            [
              126.25299,
              35.285818
            ],
            [
              126.25299,
              35.258904
            ],
            [
              126.242005,
              35.231982
            ],
            [
              126.242005,
              35.20505
            ],
            [
              126.231021,
              35.187091
            ],
            [
              126.220036,
              35.169127
            ],
            [
              126.209052,
              35.15116
            ],
            [
              126.187082,
              35.142175
            ],
            [
              126.165113,
              35.133189
            ],
            [
              126.154129,
              35.115213
            ],
            [
              126.132159,
              35.106224
            ],
            [
              126.099205,
              35.088243
            ],
            [
              126.077236,
              35.070258
            ],
            [
              126.055267,
              35.052269
            ],
            [
              126.044282,
              35.034276
            ],
            [
              126.022313,
              35.016279
            ],
            [
              126.011329,
              34.989276
            ],
            [
              126.011329,
              34.962264
            ],
            [
              126.000344,
              34.944251
            ],
            [
              126.000344,
              34.908213
            ],
            [
              126.000344,
              34.881175
            ],
            [
              126.000344,
              34.854127
            ],
            [
              126.000344,
              34.827071
            ],
            [
              126.000344,
              34.800006
            ],
            [
              126.000344,
              34.772931
            ],
            [
              126.000344,
              34.745848
            ],
            [
              126.011329,
              34.727788
            ],
            [
              126.022313,
              34.70069
            ],
            [
              126.022313,
              34.673583
            ],
            [
              126.033298,
              34.655507
            ],
            [
              126.033298,
              34.628386
            ],
            [
              126.033298,
              34.601255
            ],
            [
              126.033298,
              34.574116
            ],
            [
              126.033298,
              34.546968
            ],
            [
              126.033298,
              34.519811
            ],
            [
              126.033298,
              34.492645
            ],
            [
              126.044282,
              34.46547
            ],
            [
              126.044282,
              34.438287
            ],
            [
              126.044282,
              34.411094
            ],
            [
              126.044282,
              34.383893
            ],
            [
              126.055267,
              34.365754
            ],
            [
              126.066252,
              34.347611
            ],
            [
              126.088221,
              34.338538
            ],
            [
              126.11019,
              34.329464
            ],
            [
              126.154129,
              34.329464
            ],
            [
              126.176098,
              34.320389
            ],
            [
              126.209052,
              34.320389
            ],
            [
              126.231021,
              34.329464
            ],
            [
              126.263975,
              34.329464
            ],
            [
              126.307913,
              34.347611
            ],
            [
              126.340867,
              34.347611
            ],
            [
              126.373821,
              34.338538
            ],
            [
              126.417759,
              34.329464
            ],
            [
              126.439728,
              34.320389
            ],
            [
              126.461698,
              34.311313
            ],
            [
              126.483667,
              34.302236
            ],
            [
              126.505636,
              34.28408
            ],
            [
              126.527605,
              34.275
            ],
            [
              126.560559,
              34.275
            ],
            [
              126.582528,
              34.265919
            ],
            [
              126.615482,
              34.265919
            ],
            [
              126.648436,
              34.265919
            ],
            [
              126.692374,
              34.265919
            ],
            [
              126.714344,
              34.275
            ],
            [
              126.736313,
              34.28408
            ],
            [
              126.758282,
              34.293158
            ],
            [
              126.780251,
              34.302236
            ],
            [
              126.802221,
              34.311313
            ],
            [
              126.835174,
              34.311313
            ],
            [
              126.857144,
              34.320389
            ],
            [
              126.890097,
              34.320389
            ],
            [
              126.912067,
              34.329464
            ],
            [
              126.934036,
              34.338538
            ],
            [
              126.956005,
              34.347611
            ],
            [
              126.96699,
              34.365754
            ],
            [
              126.977974,
              34.383893
            ],
            [
              126.999944,
              34.392961
            ],
            [
              127.010928,
              34.411094
            ],
            [
              127.032897,
              34.420159
            ],
            [
              127.054867,
              34.429224
            ],
            [
              127.065851,
              34.447349
            ],
            [
              127.08782,
              34.45641
            ],
            [
              127.098805,
              34.47453
            ],
            [
              127.120774,
              34.492645
            ],
            [
              127.120774,
              34.519811
            ],
            [
              127.153728,
              34.519811
            ],
            [
              127.197667,
              34.519811
            ],
            [
              127.23062,
              34.519811
            ],
            [
              127.263574,
              34.519811
            ],
            [
              127.296528,
              34.519811
            ],
            [
              127.329482,
              34.519811
            ],
            [
              127.362436,
              34.528864
            ],
            [
              127.384405,
              34.537916
            ],
            [
              127.406374,
              34.546968
            ],
            [
              127.417359,
              34.565068
            ],
            [
              127.439328,
              34.574116
            ],
            [
              127.450313,
              34.59221
            ],
            [
              127.472282,
              34.601255
            ],
            [
              127.494251,
              34.6103
            ],
            [
              127.527205,
              34.6103
            ],
            [
              127.571143,
              34.6103
            ],
            [
              127.604097,
              34.6103
            ],
            [
              127.637051,
              34.601255
            ],
            [
              127.670005,
              34.601255
            ],
            [
              127.702959,
              34.601255
            ],
            [
              127.735912,
              34.601255
            ],
            [
              127.746897,
              34.619343
            ],
            [
              127.768866,
              34.628386
            ],
            [
              127.790836,
              34.637427
            ],
            [
              127.80182,
              34.655507
            ],
            [
              127.812805,
              34.673583
            ],
            [
              127.823789,
              34.691655
            ],
            [
              127.834774,
              34.709724
            ],
            [
              127.856743,
              34.727788
            ],
            [
              127.878712,
              34.745848
            ],
            [
              127.911666,
              34.745848
            ],
            [
              127.933635,
              34.754877
            ],
            [
              127.955605,
              34.763905
            ],
            [
              127.977574,
              34.772931
            ],
            [
              127.999543,
              34.781957
            ],
            [
              128.021512,
              34.790982
            ],
            [
              128.043482,
              34.809028
            ],
            [
              128.054466,
              34.827071
            ],
            [
              128.076435,
              34.836091
            ],
            [
              128.08742,
              34.854127
            ],
            [
              128.098405,
              34.87216
            ],
            [
              128.109389,
              34.890189
            ],
            [
              128.131358,
              34.899201
            ],
            [
              128.153328,
              34.908213
            ],
            [
              128.175297,
              34.917224
            ],
            [
              128.197266,
              34.926234
            ],
            [
              128.219235,
              34.935243
            ],
            [
              128.252189,
              34.935243
            ],
            [
              128.285143,
              34.935243
            ],
            [
              128.307112,
              34.926234
            ],
            [
              128.329081,
              34.908213
            ],
            [
              128.362035,
              34.899201
            ],
            [
              128.384004,
              34.890189
            ],
            [
              128.405974,
              34.87216
            ],
            [
              128.427943,
              34.863144
            ],
            [
              128.449912,
              34.854127
            ],
            [
              128.482866,
              34.854127
            ],
            [
              128.504835,
              34.845109
            ],
            [
              128.537789,
              34.845109
            ],
            [
              128.570743,
              34.845109
            ],
            [
              128.603697,
              34.845109
            ],
            [
              128.625666,
              34.854127
            ],
            [
              128.65862,
              34.863144
            ],
            [
              128.680589,
              34.87216
            ],
            [
              128.702558,
              34.890189
            ],
            [
              128.713543,
              34.908213
            ],
            [
              128.746497,
              34.926234
            ],
            [
              128.757481,
              34.944251
            ],
            [
              128.768466,
              34.962264
            ],
            [
              128.77945,
              34.980273
            ],
            [
              128.790435,
              34.998278
            ],
            [
              128.812404,
              35.016279
            ],
            [
              128.823389,
              35.034276
            ],
            [
              128.845358,
              35.043273
            ],
            [
              128.867327,
              35.052269
            ],
            [
              128.889297,
              35.061264
            ],
            [
              128.911266,
              35.070258
            ],
            [
              128.94422,
              35.079251
            ],
            [
              128.977173,
              35.079251
            ],
            [
              128.999143,
              35.088243
            ],
            [
              129.021112,
              35.097234
            ],
            [
              129.043081,
              35.106224
            ],
            [
              129.06505,
              35.115213
            ],
            [
              129.076035,
              35.133189
            ],
            [
              129.08702,
              35.15116
            ],
            [
              129.08702,
              35.178109
            ],
            [
              129.098004,
              35.196071
            ],
            [
              129.119973,
              35.214028
            ],
            [
              129.141943,
              35.231982
            ],
            [
              129.163912,
              35.240957
            ],
            [
              129.196866,
              35.240957
            ],
            [
              129.22982,
              35.249931
            ],
            [
              129.262773,
              35.249931
            ],
            [
              129.295727,
              35.249931
            ],
            [
              129.317696,
              35.258904
            ],
            [
              129.339666,
              35.267876
            ],
            [
              129.361635,
              35.276848
            ],
            [
              129.372619,
              35.294787
            ],
            [
              129.383604,
              35.312723
            ],
            [
              129.394589,
              35.330654
            ],
            [
              129.405573,
              35.348582
            ],
            [
              129.416558,
              35.375466
            ],
            [
              129.427543,
              35.402341
            ],
            [
              129.460496,
              35.420252
            ],
            [
              129.482466,
              35.429207
            ],
            [
              129.49345,
              35.447112
            ],
            [
              129.504435,
              35.465014
            ],
            [
              129.526404,
              35.482912
            ],
            [
              129.537389,
              35.509751
            ],
            [
              129.548373,
              35.527639
            ],
            [
              129.548373,
              35.554463
            ],
            [
              129.548373,
              35.590214
            ],
            [
              129.548373,
              35.62595
            ],
            [
              129.548373,
              35.652741
            ],
            [
              129.548373,
              35.679523
            ],
            [
              129.537389,
              35.697373
            ],
            [
              129.537389,
              35.724141
            ],
            [
              129.537389,
              35.750899
            ],
            [
              129.537389,
              35.777648
            ],
            [
              129.537389,
              35.804388
            ],
            [
              129.537389,
              35.83112
            ],
            [
              129.537389,
              35.857842
            ],
            [
              129.537389,
              35.884555
            ],
            [
              129.548373,
              35.902359
            ],
            [
              129.559358,
              35.929057
            ],
            [
              129.559358,
              35.955747
            ],
            [
              129.559358,
              35.982427
            ],
            [
              129.559358,
              36.009098
            ],
            [
              129.559358,
              36.03576
            ],
            [
              129.559358,
              36.062414
            ],
            [
              129.548373,
              36.089058
            ],
            [
              129.515419,
              36.089058
            ],
            [
              129.482466,
              36.089058
            ],
            [
              129.482466,
              36.106815
            ],
            [
              129.482466,
              36.133445
            ],
            [
              129.482466,
              36.160065
            ],
            [
              129.482466,
              36.186676
            ],
            [
              129.482466,
              36.213278
            ],
            [
              129.482466,
              36.239871
            ],
            [
              129.471481,
              36.257594
            ],
            [
              129.460496,
              36.275314
            ],
            [
              129.460496,
              36.301886
            ],
            [
              129.460496,
              36.328449
            ],
            [
              129.460496,
              36.355002
            ],
            [
              129.460496,
              36.381547
            ],
            [
              129.449512,
              36.399238
            ],
            [
              129.449512,
              36.425768
            ],
            [
              129.438527,
              36.452289
            ],
            [
              129.438527,
              36.4788
            ],
            [
              129.438527,
              36.505302
            ],
            [
              129.438527,
              36.531796
            ],
            [
              129.438527,
              36.55828
            ],
            [
              129.438527,
              36.584755
            ],
            [
              129.438527,
              36.611221
            ],
            [
              129.449512,
              36.62886
            ],
            [
              129.449512,
              36.655311
            ],
            [
              129.460496,
              36.67294
            ],
            [
              129.460496,
              36.699376
            ],
            [
              129.460496,
              36.725803
            ],
            [
              129.471481,
              36.752221
            ],
            [
              129.471481,
              36.778629
            ],
            [
              129.471481,
              36.805029
            ],
            [
              129.471481,
              36.831419
            ],
            [
              129.471481,
              36.8578
            ],
            [
              129.482466,
              36.875383
            ],
            [
              129.471481,
              36.892961
            ],
            [
              129.471481,
              36.919321
            ],
            [
              129.471481,
              36.945672
            ],
            [
              129.471481,
              36.980792
            ],
            [
              129.460496,
              37.007122
            ],
            [
              129.449512,
              37.042214
            ],
            [
              129.449512,
              37.068523
            ],
            [
              129.438527,
              37.086056
            ],
            [
              129.427543,
              37.11235
            ],
            [
              129.427543,
              37.138634
            ],
            [
              129.416558,
              37.156151
            ],
            [
              129.405573,
              37.173665
            ],
            [
              129.394589,
              37.191174
            ],
            [
              129.394589,
              37.217431
            ],
            [
              129.383604,
              37.23493
            ],
            [
              129.372619,
              37.252426
            ],
            [
              129.361635,
              37.269917
            ],
            [
              129.35065,
              37.287404
            ],
            [
              129.339666,
              37.304887
            ],
            [
              129.339666,
              37.331104
            ],
            [
              129.328681,
              37.348577
            ],
            [
              129.317696,
              37.366046
            ],
            [
              129.306712,
              37.383511
            ],
            [
              129.295727,
              37.400972
            ],
            [
              129.284743,
              37.418428
            ],
            [
              129.273758,
              37.462052
            ],
            [
              129.262773,
              37.479495
            ],
            [
              129.251789,
              37.496933
            ],
            [
              129.240804,
              37.514367
            ],
            [
              129.22982,
              37.549224
            ],
            [
              129.218835,
              37.584064
            ],
            [
              129.20785,
              37.601478
            ],
            [
              129.185881,
              37.618888
            ],
            [
              129.163912,
              37.636293
            ],
            [
              129.152927,
              37.653695
            ],
            [
              129.130958,
              37.662395
            ],
            [
              129.119973,
              37.67979
            ],
            [
              129.098004,
              37.688486
            ],
            [
              129.08702,
              37.705876
            ],
            [
              129.06505,
              37.723261
            ],
            [
              129.043081,
              37.731952
            ],
            [
              129.021112,
              37.749332
            ],
            [
              129.010127,
              37.766707
            ],
            [
              128.988158,
              37.775393
            ],
            [
              128.977173,
              37.792762
            ],
            [
              128.966189,
              37.810127
            ],
            [
              128.955204,
              37.827488
            ],
            [
              128.94422,
              37.844845
            ],
            [
              128.933235,
              37.862198
            ],
            [
              128.92225,
              37.879546
            ],
            [
              128.900281,
              37.896891
            ],
            [
              128.889297,
              37.914231
            ],
            [
              128.878312,
              37.931568
            ],
            [
              128.867327,
              37.9489
            ],
            [
              128.856343,
              37.966228
            ],
            [
              128.845358,
              37.983552
            ],
            [
              128.823389,
              37.992213
            ],
            [
              128.812404,
              38.009531
            ],
            [
              128.790435,
              38.026845
            ],
            [
              128.768466,
              38.0355
            ],
            [
              128.746497,
              38.052808
            ],
            [
              128.735512,
              38.070112
            ],
            [
              128.713543,
              38.087411
            ],
            [
              128.702558,
              38.104707
            ],
            [
              128.680589,
              38.113353
            ],
            [
              128.669604,
              38.130642
            ],
            [
              128.647635,
              38.139285
            ],
            [
              128.636651,
              38.156569
            ],
            [
              128.625666,
              38.173848
            ],
            [
              128.614681,
              38.191123
            ],
            [
              128.603697,
              38.208394
            ],
            [
              128.592712,
              38.225661
            ],
            [
              128.581727,
              38.242923
            ],
            [
              128.581727,
              38.26881
            ],
            [
              128.570743,
              38.286062
            ],
            [
              128.559758,
              38.303311
            ],
            [
              128.548774,
              38.320555
            ],
            [
              128.537789,
              38.337795
            ],
            [
              128.526804,
              38.355031
            ],
            [
              128.504835,
              38.363648
            ],
            [
              128.493851,
              38.380878
            ],
            [
              128.482866,
              38.398103
            ],
            [
              128.482866,
              38.423934
            ],
            [
              128.471881,
              38.44115
            ],
            [
              128.460897,
              38.466966
            ],
            [
              128.449912,
              38.492772
            ],
            [
              128.438928,
              38.509971
            ],
            [
              128.438928,
              38.535762
            ],
            [
              128.427943,
              38.552951
            ],
            [
              128.427943,
              38.578727
            ],
            [
              128.416958,
              38.595905
            ],
            [
              128.405974,
              38.61308
            ],
            [
              128.394989,
              38.63025
            ],
            [
              128.384004,
              38.664579
            ],
            [
              128.37302,
              38.698891
            ],
            [
              128.362035,
              38.716041
            ],
            [
              128.351051,
              38.733186
            ],
            [
              128.340066,
              38.750328
            ],
            [
              128.329081,
              38.767465
            ],
            [
              128.296128,
              38.767465
            ],
            [
              128.263174,
              38.767465
            ],
            [
              128.241205,
              38.776033
            ],
            [
              128.219235,
              38.784599
            ],
            [
              128.208251,
              38.801728
            ],
            [
              128.186282,
              38.818853
            ],
            [
              128.175297,
              38.835974
            ],
            [
              128.164312,
              38.853091
            ],
            [
              128.153328,
              38.870204
            ],
            [
              128.131358,
              38.878759
            ],
            [
              128.109389,
              38.895865
            ],
            [
              128.08742,
              38.904417
            ],
            [
              128.065451,
              38.912968
            ],
            [
              128.054466,
              38.930066
            ],
            [
              128.032497,
              38.94716
            ],
            [
              128.021512,
              38.96425
            ],
            [
              127.999543,
              38.972794
            ],
            [
              127.988559,
              38.989878
            ],
            [
              127.977574,
              39.006958
            ],
            [
              127.966589,
              39.024033
            ],
            [
              127.94462,
              39.041105
            ],
            [
              127.933635,
              39.058172
            ],
            [
              127.922651,
              39.075236
            ],
            [
              127.900682,
              39.083766
            ],
            [
              127.889697,
              39.100823
            ],
            [
              127.867728,
              39.10935
            ],
            [
              127.845759,
              39.117876
            ],
            [
              127.823789,
              39.126401
            ],
            [
              127.80182,
              39.134925
            ],
            [
              127.779851,
              39.143448
            ],
            [
              127.757882,
              39.15197
            ],
            [
              127.735912,
              39.16049
            ],
            [
              127.702959,
              39.16049
            ],
            [
              127.680989,
              39.16901
            ],
            [
              127.65902,
              39.177529
            ],
            [
              127.637051,
              39.186047
            ],
            [
              127.615082,
              39.194563
            ],
            [
              127.593113,
              39.203079
            ],
            [
              127.560159,
              39.203079
            ],
            [
              127.538189,
              39.211594
            ],
            [
              127.505236,
              39.220107
            ],
            [
              127.461297,
              39.220107
            ],
            [
              127.428343,
              39.22862
            ],
            [
              127.406374,
              39.245642
            ],
            [
              127.406374,
              39.271167
            ],
            [
              127.406374,
              39.296683
            ],
            [
              127.428343,
              39.288179
            ],
            [
              127.417359,
              39.271167
            ],
            [
              127.384405,
              39.271167
            ],
            [
              127.417359,
              39.279674
            ],
            [
              127.428343,
              39.296683
            ],
            [
              127.417359,
              39.313689
            ],
            [
              127.417359,
              39.339189
            ],
            [
              127.439328,
              39.356184
            ],
            [
              127.450313,
              39.373176
            ],
            [
              127.461297,
              39.390162
            ],
            [
              127.483266,
              39.407145
            ],
            [
              127.494251,
              39.424124
            ],
            [
              127.505236,
              39.441098
            ],
            [
              127.494251,
              39.466552
            ],
            [
              127.483266,
              39.483517
            ],
            [
              127.472282,
              39.500477
            ],
            [
              127.461297,
              39.517433
            ],
            [
              127.450313,
              39.534384
            ],
            [
              127.439328,
              39.551332
            ],
            [
              127.439328,
              39.576746
            ],
            [
              127.439328,
              39.60215
            ],
            [
              127.439328,
              39.627545
            ],
            [
              127.450313,
              39.64447
            ],
            [
              127.450313,
              39.669849
            ],
            [
              127.450313,
              39.69522
            ],
            [
              127.450313,
              39.720581
            ],
            [
              127.450313,
              39.745932
            ],
            [
              127.450313,
              39.771274
            ],
            [
              127.450313,
              39.796607
            ],
            [
              127.450313,
              39.821931
            ],
            [
              127.439328,
              39.838808
            ],
            [
              127.417359,
              39.847245
            ],
            [
              127.384405,
              39.847245
            ],
            [
              127.351451,
              39.847245
            ],
            [
              127.318497,
              39.838808
            ],
            [
              127.285543,
              39.838808
            ],
            [
              127.25259,
              39.838808
            ],
            [
              127.23062,
              39.83037
            ],
            [
              127.208651,
              39.821931
            ],
            [
              127.197667,
              39.805049
            ],
            [
              127.164713,
              39.805049
            ],
            [
              127.142743,
              39.796607
            ],
            [
              127.120774,
              39.788164
            ],
            [
              127.08782,
              39.788164
            ],
            [
              127.054867,
              39.788164
            ],
            [
              127.021913,
              39.77972
            ],
            [
              126.988959,
              39.771274
            ],
            [
              126.956005,
              39.771274
            ],
            [
              126.934036,
              39.77972
            ],
            [
              126.912067,
              39.788164
            ],
            [
              126.901082,
              39.805049
            ],
            [
              126.890097,
              39.821931
            ],
            [
              126.879113,
              39.838808
            ],
            [
              126.868128,
              39.855681
            ],
            [
              126.857144,
              39.87255
            ],
            [
              126.835174,
              39.889415
            ],
            [
              126.82419,
              39.906275
            ],
            [
              126.82419,
              39.931558
            ],
            [
              126.813205,
              39.948409
            ],
            [
              126.802221,
              39.965255
            ],
            [
              126.791236,
              39.982097
            ],
            [
              126.780251,
              40.007352
            ],
            [
              126.769267,
              40.024183
            ],
            [
              126.758282,
              40.041011
            ],
            [
              126.747298,
              40.057834
            ],
            [
              126.725328,
              40.074653
            ],
            [
              126.714344,
              40.091468
            ],
            [
              126.703359,
              40.108279
            ],
            [
              126.68139,
              40.116683
            ],
            [
              126.648436,
              40.125086
            ],
            [
              126.626467,
              40.133487
            ],
            [
              126.604498,
              40.141888
            ],
            [
              126.582528,
              40.150288
            ],
            [
              126.549575,
              40.150288
            ],
            [
              126.516621,
              40.150288
            ],
            [
              126.494651,
              40.158686
            ],
            [
              126.461698,
              40.158686
            ],
            [
              126.428744,
              40.158686
            ],
            [
              126.39579,
              40.167084
            ],
            [
              126.362836,
              40.167084
            ],
            [
              126.329882,
              40.167084
            ],
            [
              126.307913,
              40.175481
            ],
            [
              126.274959,
              40.175481
            ],
            [
              126.242005,
              40.175481
            ],
            [
              126.209052,
              40.183876
            ],
            [
              126.176098,
              40.183876
            ],
            [
              126.154129,
              40.192271
            ],
            [
              126.121175,
              40.192271
            ],
            [
              126.099205,
              40.200664
            ],
            [
              126.066252,
              40.200664
            ],
            [
              126.044282,
              40.209057
            ],
            [
              126.011329,
              40.209057
            ],
            [
              125.989359,
              40.217448
            ],
            [
              125.96739,
              40.225838
            ],
            [
              125.934436,
              40.225838
            ],
            [
              125.901482,
              40.225838
            ],
            [
              125.879513,
              40.234228
            ],
            [
              125.857544,
              40.242616
            ],
            [
              125.846559,
              40.259389
            ],
            [
              125.835575,
              40.276158
            ],
            [
              125.835575,
              40.301305
            ],
            [
              125.813606,
              40.309684
            ],
            [
              125.802621,
              40.326441
            ],
            [
              125.780652,
              40.334818
            ],
            [
              125.747698,
              40.334818
            ],
            [
              125.725729,
              40.343194
            ],
            [
              125.692775,
              40.343194
            ],
            [
              125.670806,
              40.351569
            ],
            [
              125.648836,
              40.359942
            ],
            [
              125.626867,
              40.368315
            ],
            [
              125.604898,
              40.376687
            ],
            [
              125.571944,
              40.385057
            ],
            [
              125.53899,
              40.385057
            ],
            [
              125.506036,
              40.385057
            ],
            [
              125.473083,
              40.385057
            ],
            [
              125.451113,
              40.376687
            ],
            [
              125.407175,
              40.376687
            ],
            [
              125.374221,
              40.376687
            ],
            [
              125.352252,
              40.368315
            ],
            [
              125.330283,
              40.359942
            ],
            [
              125.297329,
              40.359942
            ],
            [
              125.27536,
              40.351569
            ],
            [
              125.25339,
              40.343194
            ],
            [
              125.220437,
              40.334818
            ],
            [
              125.198467,
              40.326441
            ],
            [
              125.165514,
              40.326441
            ],
            [
              125.143544,
              40.318063
            ],
            [
              125.121575,
              40.309684
            ],
            [
              125.099606,
              40.301305
            ],
            [
              125.077637,
              40.292924
            ],
            [
              125.055667,
              40.284542
            ],
            [
              125.033698,
              40.276158
            ],
            [
              125.022714,
              40.259389
            ],
            [
              125.000744,
              40.251003
            ],
            [
              124.98976,
              40.234228
            ],
            [
              124.967791,
              40.225838
            ],
            [
              124.945821,
              40.217448
            ],
            [
              124.912868,
              40.217448
            ],
            [
              124.879914,
              40.217448
            ],
            [
              124.857944,
              40.225838
            ],
            [
              124.824991,
              40.225838
            ],
            [
              124.792037,
              40.225838
            ],
            [
              124.759083,
              40.225838
            ],
            [
              124.726129,
              40.225838
            ],
            [
              124.70416,
              40.217448
            ],
            [
              124.682191,
              40.209057
            ],
            [
              124.660221,
              40.200664
            ],
            [
              124.638252,
              40.192271
            ],
            [
              124.627268,
              40.175481
            ],
            [
              124.605298,
              40.167084
            ],
            [
              124.594314,
              40.150288
            ],
            [
              124.583329,
              40.133487
            ],
            [
              124.583329,
              40.108279
            ],
            [
              124.583329,
              40.083061
            ],
            [
              124.572345,
              40.066244
            ],
            [
              124.550375,
              40.049423
            ],
            [
              124.528406,
              40.041011
            ],
            [
              124.517422,
              40.024183
            ],
            [
              124.506437,
              40.007352
            ],
            [
              124.506437,
              39.982097
            ],
            [
              124.495452,
              39.965255
            ],
            [
              124.484468,
              39.948409
            ],
            [
              124.473483,
              39.931558
            ],
            [
              124.473483,
              39.906275
            ],
            [
              124.484468,
              39.889415
            ],
            [
              124.484468,
              39.864116
            ],
            [
              124.495452,
              39.847245
            ],
            [
              124.506437,
              39.83037
            ],
            [
              124.517422,
              39.813491
            ],
            [
              124.528406,
              39.796607
            ],
            [
              124.539391,
              39.77972
            ],
            [
              124.56136,
              39.771274
            ],
            [
              124.572345,
              39.754381
            ],
            [
              124.583329,
              39.737483
            ],
            [
              124.605298,
              39.729032
            ],
            [
              124.616283,
              39.712128
            ],
            [
              124.638252,
              39.703674
            ],
            [
              124.660221,
              39.686764
            ],
            [
              124.693175,
              39.678307
            ],
            [
              124.715145,
              39.669849
            ],
            [
              124.748098,
              39.661391
            ],
            [
              124.770068,
              39.652931
            ],
            [
              124.803021,
              39.652931
            ],
            [
              124.814006,
              39.636008
            ],
            [
              124.835975,
              39.627545
            ],
            [
              124.84696,
              39.610616
            ],
            [
              124.868929,
              39.60215
            ],
            [
              124.901883,
              39.60215
            ],
            [
              124.934837,
              39.60215
            ],
            [
              124.967791,
              39.60215
            ],
            [
              124.98976,
              39.610616
            ],
            [
              125.000744,
              39.627545
            ],
            [
              125.022714,
              39.636008
            ],
            [
              125.044683,
              39.627545
            ],
            [
              125.055667,
              39.610616
            ],
            [
              125.077637,
              39.60215
            ],
            [
              125.099606,
              39.593683
            ],
            [
              125.121575,
              39.585215
            ],
            [
              125.143544,
              39.576746
            ],
            [
              125.176498,
              39.576746
            ],
            [
              125.198467,
              39.568275
            ],
            [
              125.231421,
              39.559804
            ],
            [
              125.264375,
              39.559804
            ],
            [
              125.286344,
              39.551332
            ],
            [
              125.319298,
              39.551332
            ],
            [
              125.330283,
              39.534384
            ],
            [
              125.341267,
              39.517433
            ],
            [
              125.341267,
              39.491997
            ],
            [
              125.341267,
              39.466552
            ],
            [
              125.330283,
              39.449584
            ],
            [
              125.319298,
              39.432612
            ],
            [
              125.319298,
              39.407145
            ],
            [
              125.319298,
              39.38167
            ],
            [
              125.330283,
              39.364681
            ],
            [
              125.341267,
              39.347687
            ],
            [
              125.363237,
              39.339189
            ],
            [
              125.374221,
              39.32219
            ],
            [
              125.385206,
              39.305187
            ],
            [
              125.407175,
              39.288179
            ],
            [
              125.407175,
              39.26266
            ],
            [
              125.407175,
              39.237131
            ],
            [
              125.407175,
              39.211594
            ],
            [
              125.407175,
              39.186047
            ],
            [
              125.385206,
              39.177529
            ],
            [
              125.363237,
              39.16901
            ],
            [
              125.341267,
              39.16049
            ],
            [
              125.319298,
              39.15197
            ],
            [
              125.297329,
              39.143448
            ],
            [
              125.286344,
              39.126401
            ],
            [
              125.27536,
              39.10935
            ],
            [
              125.264375,
              39.092295
            ],
            [
              125.264375,
              39.066705
            ],
            [
              125.25339,
              39.049639
            ],
            [
              125.242406,
              39.03257
            ],
            [
              125.231421,
              39.015496
            ],
            [
              125.220437,
              38.998418
            ],
            [
              125.209452,
              38.981336
            ],
            [
              125.209452,
              38.955706
            ],
            [
              125.198467,
              38.938614
            ],
            [
              125.187483,
              38.921517
            ],
            [
              125.176498,
              38.904417
            ],
            [
              125.165514,
              38.887312
            ],
            [
              125.143544,
              38.878759
            ],
            [
              125.121575,
              38.861648
            ],
            [
              125.110591,
              38.844533
            ],
            [
              125.099606,
              38.827414
            ],
            [
              125.088621,
              38.810291
            ],
            [
              125.077637,
              38.793164
            ],
            [
              125.088621,
              38.776033
            ],
            [
              125.110591,
              38.758897
            ],
            [
              125.13256,
              38.750328
            ],
            [
              125.165514,
              38.741758
            ],
            [
              125.187483,
              38.733186
            ],
            [
              125.198467,
              38.750328
            ],
            [
              125.198467,
              38.776033
            ],
            [
              125.209452,
              38.793164
            ],
            [
              125.220437,
              38.767465
            ],
            [
              125.242406,
              38.758897
            ],
            [
              125.25339,
              38.741758
            ],
            [
              125.27536,
              38.724614
            ],
            [
              125.286344,
              38.707466
            ],
            [
              125.297329,
              38.690314
            ],
            [
              125.297329,
              38.664579
            ],
            [
              125.286344,
              38.647417
            ],
            [
              125.27536,
              38.63025
            ],
            [
              125.25339,
              38.621666
            ],
            [
              125.220437,
              38.61308
            ],
            [
              125.187483,
              38.61308
            ],
            [
              125.154529,
              38.61308
            ],
            [
              125.121575,
              38.61308
            ],
            [
              125.099606,
              38.595905
            ],
            [
              125.066652,
              38.595905
            ],
            [
              125.044683,
              38.587317
            ],
            [
              125.011729,
              38.578727
            ],
            [
              124.98976,
              38.570136
            ],
            [
              124.967791,
              38.578727
            ],
            [
              124.956806,
              38.561544
            ],
            [
              124.934837,
              38.552951
            ],
            [
              124.923852,
              38.535762
            ],
            [
              124.912868,
              38.518569
            ],
            [
              124.901883,
              38.501372
            ],
            [
              124.901883,
              38.475569
            ],
            [
              124.901883,
              38.449756
            ],
            [
              124.901883,
              38.423934
            ],
            [
              124.890898,
              38.406715
            ],
            [
              124.879914,
              38.389491
            ],
            [
              124.857944,
              38.380878
            ],
            [
              124.835975,
              38.372263
            ],
            [
              124.824991,
              38.355031
            ],
            [
              124.814006,
              38.337795
            ],
            [
              124.803021,
              38.320555
            ],
            [
              124.803021,
              38.294687
            ],
            [
              124.792037,
              38.277436
            ],
            [
              124.781052,
              38.260182
            ],
            [
              124.781052,
              38.234292
            ],
            [
              124.770068,
              38.217028
            ],
            [
              124.781052,
              38.182486
            ],
            [
              124.781052,
              38.156569
            ],
            [
              124.792037,
              38.139285
            ],
            [
              124.803021,
              38.121998
            ],
            [
              124.824991,
              38.113353
            ],
            [
              124.857944,
              38.113353
            ],
            [
              124.879914,
              38.104707
            ],
            [
              124.912868,
              38.104707
            ],
            [
              124.934837,
              38.096059
            ],
            [
              124.967791,
              38.096059
            ],
            [
              124.978775,
              38.113353
            ],
            [
              124.967791,
              38.096059
            ],
            [
              124.956806,
              38.078762
            ],
            [
              124.956806,
              38.052808
            ],
            [
              124.967791,
              38.0355
            ],
            [
              124.967791,
              38.009531
            ],
            [
              124.978775,
              37.992213
            ],
            [
              124.978775,
              37.966228
            ],
            [
              124.98976,
              37.9489
            ],
            [
              125.011729,
              37.931568
            ],
            [
              125.033698,
              37.9229
            ],
            [
              125.044683,
              37.905561
            ],
            [
              125.055667,
              37.888219
            ],
            [
              125.077637,
              37.879546
            ],
            [
              125.088621,
              37.862198
            ],
            [
              125.110591,
              37.853522
            ],
            [
              125.13256,
              37.844845
            ],
            [
              125.154529,
              37.827488
            ],
            [
              125.187483,
              37.810127
            ],
            [
              125.209452,
              37.801445
            ],
            [
              125.231421,
              37.792762
            ],
            [
              125.264375,
              37.784078
            ],
            [
              125.297329,
              37.784078
            ],
            [
              125.319298,
              37.775393
            ],
            [
              125.352252,
              37.775393
            ],
            [
              125.385206,
              37.775393
            ],
            [
              125.41816,
              37.775393
            ],
            [
              125.440129,
              37.784078
            ],
            [
              125.484067,
              37.784078
            ],
            [
              125.517021,
              37.784078
            ],
            [
              125.53899,
              37.792762
            ],
            [
              125.571944,
              37.801445
            ],
            [
              125.593913,
              37.810127
            ],
            [
              125.615883,
              37.818808
            ],
            [
              125.637852,
              37.827488
            ],
            [
              125.659821,
              37.836167
            ],
            [
              125.68179,
              37.853522
            ],
            [
              125.703759,
              37.862198
            ],
            [
              125.714744,
              37.879546
            ],
            [
              125.736713,
              37.888219
            ],
            [
              125.758683,
              37.896891
            ],
            [
              125.780652,
              37.905561
            ],
            [
              125.813606,
              37.914231
            ],
            [
              125.846559,
              37.914231
            ],
            [
              125.835575,
              37.896891
            ],
            [
              125.846559,
              37.879546
            ],
            [
              125.857544,
              37.862198
            ],
            [
              125.868529,
              37.836167
            ],
            [
              125.879513,
              37.818808
            ],
            [
              125.890498,
              37.801445
            ],
            [
              125.912467,
              37.784078
            ],
            [
              125.934436,
              37.775393
            ],
            [
              125.956406,
              37.766707
            ],
            [
              125.978375,
              37.75802
            ],
            [
              126.000344,
              37.749332
            ],
            [
              126.033298,
              37.749332
            ],
            [
              126.044282,
              37.731952
            ],
            [
              126.055267,
              37.714569
            ],
            [
              126.066252,
              37.697182
            ],
            [
              126.088221,
              37.688486
            ],
            [
              126.11019,
              37.67979
            ],
            [
              126.132159,
              37.671093
            ],
            [
              126.165113,
              37.671093
            ],
            [
              126.198067,
              37.671093
            ],
            [
              126.231021,
              37.671093
            ],
            [
              126.263975,
              37.662395
            ],
            [
              126.274959,
              37.644995
            ],
            [
              126.285944,
              37.618888
            ],
            [
              126.307913,
              37.610183
            ],
            [
              126.318898,
              37.592771
            ],
            [
              126.329882,
              37.566646
            ],
            [
              126.329882,
              37.540511
            ],
            [
              126.329882,
              37.514367
            ],
            [
              126.329882,
              37.488214
            ],
            [
              126.351852,
              37.479495
            ],
            [
              126.362836,
              37.462052
            ],
            [
              126.384805,
              37.45333
            ],
            [
              126.406775,
              37.444606
            ],
            [
              126.417759,
              37.427155
            ],
            [
              126.428744,
              37.409701
            ],
            [
              126.439728,
              37.392242
            ],
            [
              126.439728,
              37.366046
            ],
            [
              126.450713,
              37.348577
            ],
            [
              126.461698,
              37.322366
            ],
            [
              126.461698,
              37.296146
            ],
            [
              126.472682,
              37.278661
            ],
            [
              126.483667,
              37.261172
            ],
            [
              126.494651,
              37.243679
            ],
            [
              126.505636,
              37.226181
            ],
            [
              126.516621,
              37.20868
            ],
            [
              126.527605,
              37.191174
            ],
            [
              126.53859,
              37.173665
            ],
            [
              126.549575,
              37.156151
            ],
            [
              126.53859,
              37.129873
            ],
            [
              126.527605,
              37.11235
            ],
            [
              126.505636,
              37.094822
            ],
            [
              126.483667,
              37.086056
            ],
            [
              126.461698,
              37.07729
            ],
            [
              126.439728,
              37.068523
            ],
            [
              126.417759,
              37.059754
            ],
            [
              126.39579,
              37.050985
            ],
            [
              126.373821,
              37.042214
            ],
            [
              126.351852,
              37.033443
            ],
            [
              126.318898,
              37.033443
            ],
            [
              126.296928,
              37.02467
            ],
            [
              126.274959,
              37.015897
            ],
            [
              126.25299,
              37.007122
            ],
            [
              126.25299,
              36.980792
            ],
            [
              126.242005,
              36.963234
            ],
            [
              126.231021,
              36.945672
            ],
            [
              126.220036,
              36.928106
            ],
            [
              126.198067,
              36.919321
            ],
            [
              126.187082,
              36.901749
            ],
            [
              126.165113,
              36.892961
            ],
            [
              126.154129,
              36.875383
            ],
            [
              126.143144,
              36.8578
            ],
            [
              126.121175,
              36.849008
            ],
            [
              126.121175,
              36.849008
            ],
            [
              126.099205,
              36.849008
            ]
          ]
        ]
      }
    }
  ]
}