{
  "type": "FeatureCollection",
  "features": [
    {
      "type": "Feature",
      "properties": {
        "NAME": "Jurchen",
        "name": "Jurchen",
        "color": "#ef4444",
        "fill": "#ef4444",
        "fill-opacity": 0.5,
        "stroke": "#ef4444",
        "stroke-width": 2,
        "originalType": "polygon",
        "CODE": "9"
      },
      "geometry": {
        "type": "Polygon",
        "coordinates": [
          [
            [
              130.54992,
              54.666923
            ],
            [
              130.418105,
              54.666923
            ],
            [
              130.242351,
              54.641495
            ],
            [
              130.110536,
              54.641495
            ],
            [
              130.022659,
              54.616051
            ],
            [
              129.846905,
              54.590591
            ],
            [
              129.71509,
              54.539624
            ],
            [
              129.495398,
              54.539624
            ],
            [
              129.319644,
              54.514116
            ],
            [
              129.14389,
              54.437498
            ],
            [
              128.924198,
              54.386339
            ],
            [
              128.836321,
              54.360736
            ],
            [
              128.660567,
              54.309482
            ],
            [
              128.484814,
              54.206781
            ],
            [
              128.30906,
              54.155335
            ],
            [
              128.177244,
              54.078045
            ],
            [
              128.001491,
              54.026439
            ],
            [
              127.869675,
              53.948909
            ],
            [
              127.781798,
              53.897142
            ],
            [
              127.649983,
              53.819371
            ],
            [
              127.562106,
              53.715452
            ],
            [
              127.518168,
              53.637344
            ],
            [
              127.430291,
              53.559091
            ],
            [
              127.386352,
              53.454528
            ],
            [
              127.342414,
              53.40215
            ],
            [
              127.254537,
              53.297199
            ],
            [
              127.210599,
              53.244627
            ],
            [
              127.16666,
              53.19199
            ],
            [
              127.122722,
              53.139289
            ],
            [
              127.034845,
              53.033692
            ],
            [
              126.90303,
              52.901331
            ],
            [
              126.859091,
              52.82172
            ],
            [
              126.771214,
              52.768564
            ],
            [
              126.683337,
              52.635392
            ],
            [
              126.639399,
              52.582009
            ],
            [
              126.507584,
              52.448267
            ],
            [
              126.463645,
              52.394656
            ],
            [
              126.375768,
              52.34098
            ],
            [
              126.243953,
              52.233432
            ],
            [
              126.156076,
              52.17956
            ],
            [
              126.156076,
              52.09863
            ],
            [
              126.112138,
              52.017552
            ],
            [
              126.068199,
              51.963419
            ],
            [
              126.024261,
              51.90922
            ],
            [
              125.980322,
              51.827799
            ],
            [
              125.936384,
              51.664515
            ],
            [
              125.848507,
              51.50064
            ],
            [
              125.804569,
              51.308705
            ],
            [
              125.804569,
              51.2262
            ],
            [
              125.804569,
              51.033113
            ],
            [
              125.804569,
              50.950114
            ],
            [
              125.804569,
              50.866967
            ],
            [
              125.76063,
              50.755872
            ],
            [
              125.76063,
              50.672378
            ],
            [
              125.804569,
              50.588735
            ],
            [
              125.892445,
              50.504943
            ],
            [
              125.936384,
              50.449
            ],
            [
              126.024261,
              50.421003
            ],
            [
              126.068199,
              50.364959
            ],
            [
              126.156076,
              50.336913
            ],
            [
              126.243953,
              50.28077
            ],
            [
              126.287891,
              50.224561
            ],
            [
              126.33183,
              50.168286
            ],
            [
              126.33183,
              50.083749
            ],
            [
              126.375768,
              50.027308
            ],
            [
              126.375768,
              49.942521
            ],
            [
              126.375768,
              49.857585
            ],
            [
              126.463645,
              49.82924
            ],
            [
              126.551522,
              49.7725
            ],
            [
              126.551522,
              49.687265
            ],
            [
              126.59546,
              49.630359
            ],
            [
              126.59546,
              49.544874
            ],
            [
              126.639399,
              49.487801
            ],
            [
              126.639399,
              49.402067
            ],
            [
              126.683337,
              49.344827
            ],
            [
              126.727276,
              49.287521
            ],
            [
              126.771214,
              49.230148
            ],
            [
              126.815153,
              49.143964
            ],
            [
              126.815153,
              49.05763
            ],
            [
              126.859091,
              48.99999
            ],
            [
              126.90303,
              48.942283
            ],
            [
              126.90303,
              48.855598
            ],
            [
              126.946968,
              48.797725
            ],
            [
              126.990906,
              48.739784
            ],
            [
              126.990906,
              48.652748
            ],
            [
              127.034845,
              48.59464
            ],
            [
              127.034845,
              48.507353
            ],
            [
              127.034845,
              48.419916
            ],
            [
              127.034845,
              48.332328
            ],
            [
              127.034845,
              48.244589
            ],
            [
              127.034845,
              48.156699
            ],
            [
              127.034845,
              48.068659
            ],
            [
              127.034845,
              47.980467
            ],
            [
              126.990906,
              47.921589
            ],
            [
              126.990906,
              47.833146
            ],
            [
              126.946968,
              47.774101
            ],
            [
              126.90303,
              47.714988
            ],
            [
              126.859091,
              47.655808
            ],
            [
              126.815153,
              47.59656
            ],
            [
              126.815153,
              47.507564
            ],
            [
              126.771214,
              47.448148
            ],
            [
              126.771214,
              47.3589
            ],
            [
              126.727276,
              47.299317
            ],
            [
              126.683337,
              47.209816
            ],
            [
              126.683337,
              47.120164
            ],
            [
              126.639399,
              47.060312
            ],
            [
              126.59546,
              47.000392
            ],
            [
              126.551522,
              46.910387
            ],
            [
              126.507584,
              46.8503
            ],
            [
              126.463645,
              46.790145
            ],
            [
              126.419707,
              46.699786
            ],
            [
              126.375768,
              46.639463
            ],
            [
              126.33183,
              46.579073
            ],
            [
              126.287891,
              46.518615
            ],
            [
              126.200015,
              46.488361
            ],
            [
              126.156076,
              46.427802
            ],
            [
              126.112138,
              46.367175
            ],
            [
              126.068199,
              46.306482
            ],
            [
              126.024261,
              46.245721
            ],
            [
              125.980322,
              46.184893
            ],
            [
              125.936384,
              46.123997
            ],
            [
              125.892445,
              46.063034
            ],
            [
              125.848507,
              46.002004
            ],
            [
              125.804569,
              45.940906
            ],
            [
              125.76063,
              45.849132
            ],
            [
              125.76063,
              45.757208
            ],
            [
              125.716692,
              45.69584
            ],
            [
              125.672753,
              45.634405
            ],
            [
              125.628815,
              45.572903
            ],
            [
              125.584876,
              45.511333
            ],
            [
              125.540938,
              45.418852
            ],
            [
              125.496999,
              45.357114
            ],
            [
              125.453061,
              45.295308
            ],
            [
              125.409123,
              45.233435
            ],
            [
              125.365184,
              45.171494
            ],
            [
              125.321246,
              45.109486
            ],
            [
              125.233369,
              45.078457
            ],
            [
              125.18943,
              45.016348
            ],
            [
              125.145492,
              44.954171
            ],
            [
              125.101553,
              44.891927
            ],
            [
              125.057615,
              44.798434
            ],
            [
              125.013677,
              44.736021
            ],
            [
              124.969738,
              44.673541
            ],
            [
              124.9258,
              44.610994
            ],
            [
              124.881861,
              44.548379
            ],
            [
              124.837923,
              44.45433
            ],
            [
              124.837923,
              44.360129
            ],
            [
              124.793984,
              44.265777
            ],
            [
              124.793984,
              44.171273
            ],
            [
              124.837923,
              44.108186
            ],
            [
              124.837923,
              44.013429
            ],
            [
              124.881861,
              43.950174
            ],
            [
              124.881861,
              43.855164
            ],
            [
              124.9258,
              43.79174
            ],
            [
              124.969738,
              43.728249
            ],
            [
              125.057615,
              43.66469
            ],
            [
              125.101553,
              43.601064
            ],
            [
              125.145492,
              43.537371
            ],
            [
              125.18943,
              43.47361
            ],
            [
              125.233369,
              43.409782
            ],
            [
              125.277307,
              43.345886
            ],
            [
              125.365184,
              43.281924
            ],
            [
              125.409123,
              43.217893
            ],
            [
              125.453061,
              43.153796
            ],
            [
              125.496999,
              43.089631
            ],
            [
              125.540938,
              43.025399
            ],
            [
              125.584876,
              42.928925
            ],
            [
              125.584876,
              42.8323
            ],
            [
              125.584876,
              42.735523
            ],
            [
              125.584876,
              42.638595
            ],
            [
              125.584876,
              42.541516
            ],
            [
              125.584876,
              42.444285
            ],
            [
              125.540938,
              42.379381
            ],
            [
              125.540938,
              42.281899
            ],
            [
              125.453061,
              42.249371
            ],
            [
              125.409123,
              42.151688
            ],
            [
              125.365184,
              42.086481
            ],
            [
              125.321246,
              42.021208
            ],
            [
              125.277307,
              41.955867
            ],
            [
              125.233369,
              41.89046
            ],
            [
              125.18943,
              41.824985
            ],
            [
              125.101553,
              41.759444
            ],
            [
              125.057615,
              41.693835
            ],
            [
              125.013677,
              41.628159
            ],
            [
              124.9258,
              41.595296
            ],
            [
              124.837923,
              41.52952
            ],
            [
              124.793984,
              41.463677
            ],
            [
              124.706107,
              41.430731
            ],
            [
              124.662169,
              41.364787
            ],
            [
              124.618231,
              41.298777
            ],
            [
              124.574292,
              41.2327
            ],
            [
              124.530354,
              41.166556
            ],
            [
              124.442477,
              41.100345
            ],
            [
              124.3546,
              41.067215
            ],
            [
              124.266723,
              41.034067
            ],
            [
              124.222785,
              40.967723
            ],
            [
              124.134908,
              40.934526
            ],
            [
              124.047031,
              40.901312
            ],
            [
              123.959154,
              40.868081
            ],
            [
              123.871277,
              40.834834
            ],
            [
              123.827339,
              40.768289
            ],
            [
              123.7834,
              40.701678
            ],
            [
              123.739462,
              40.634999
            ],
            [
              123.695523,
              40.568255
            ],
            [
              123.651585,
              40.501443
            ],
            [
              123.607646,
              40.434565
            ],
            [
              123.563708,
              40.367621
            ],
            [
              123.563708,
              40.267079
            ],
            [
              123.51977,
              40.199968
            ],
            [
              123.51977,
              40.099177
            ],
            [
              123.51977,
              39.998236
            ],
            [
              123.563708,
              39.93086
            ],
            [
              123.651585,
              39.897146
            ],
            [
              123.739462,
              39.863417
            ],
            [
              123.871277,
              39.863417
            ],
            [
              123.959154,
              39.82967
            ],
            [
              124.090969,
              39.82967
            ],
            [
              124.222785,
              39.82967
            ],
            [
              124.310661,
              39.863417
            ],
            [
              124.587681,
              39.74521
            ],
            [
              124.604165,
              39.622631
            ],
            [
              124.67558,
              39.586667
            ],
            [
              124.865057,
              39.664916
            ],
            [
              124.830783,
              39.579232
            ],
            [
              124.822551,
              39.494504
            ],
            [
              124.87198,
              39.505111
            ],
            [
              124.910429,
              39.537946
            ],
            [
              124.929655,
              39.568651
            ],
            [
              124.939268,
              39.600399
            ],
            [
              124.929668,
              39.656435
            ],
            [
              125.009306,
              39.652224
            ],
            [
              125.068348,
              39.613091
            ],
            [
              125.098511,
              39.531609
            ],
            [
              125.285251,
              39.525256
            ],
            [
              125.392343,
              39.535839
            ],
            [
              125.36489,
              39.444707
            ],
            [
              125.441794,
              39.408645
            ],
            [
              125.58172,
              39.404446
            ],
            [
              125.672356,
              39.400207
            ],
            [
              125.738279,
              39.419308
            ],
            [
              125.804192,
              39.44053
            ],
            [
              125.853639,
              39.455379
            ],
            [
              125.897584,
              39.47023
            ],
            [
              125.938783,
              39.485078
            ],
            [
              125.966261,
              39.499918
            ],
            [
              126.010225,
              39.518992
            ],
            [
              126.037712,
              39.525347
            ],
            [
              126.062453,
              39.531701
            ],
            [
              126.133867,
              39.548648
            ],
            [
              126.177822,
              39.55924
            ],
            [
              126.230014,
              39.582531
            ],
            [
              126.328889,
              39.593117
            ],
            [
              126.370106,
              39.593117
            ],
            [
              126.449767,
              39.603692
            ],
            [
              126.507452,
              39.616381
            ],
            [
              126.573374,
              39.618492
            ],
            [
              126.61732,
              39.622712
            ],
            [
              126.680487,
              39.61424
            ],
            [
              126.732688,
              39.607894
            ],
            [
              126.79862,
              39.607894
            ],
            [
              126.875535,
              39.605778
            ],
            [
              126.930474,
              39.614235
            ],
            [
              127.012881,
              39.61212
            ],
            [
              127.136461,
              39.595183
            ],
            [
              127.268288,
              39.561312
            ],
            [
              127.3699,
              39.514709
            ],
            [
              127.449543,
              39.501981
            ],
            [
              127.509974,
              39.535871
            ],
            [
              127.545723,
              39.573965
            ],
            [
              127.537461,
              39.631112
            ],
            [
              127.482567,
              39.690307
            ],
            [
              127.496324,
              39.743116
            ],
            [
              127.567748,
              39.789555
            ],
            [
              127.641904,
              39.814873
            ],
            [
              127.693922,
              39.863417
            ],
            [
              127.781798,
              39.897146
            ],
            [
              127.869675,
              39.964556
            ],
            [
              127.957552,
              39.998236
            ],
            [
              128.045429,
              40.0319
            ],
            [
              128.133306,
              40.099177
            ],
            [
              128.221183,
              40.132791
            ],
            [
              128.265121,
              40.199968
            ],
            [
              128.352998,
              40.233532
            ],
            [
              128.440875,
              40.267079
            ],
            [
              128.528752,
              40.30061
            ],
            [
              128.616629,
              40.334123
            ],
            [
              128.704506,
              40.367621
            ],
            [
              128.836321,
              40.367621
            ],
            [
              128.924198,
              40.401101
            ],
            [
              129.012075,
              40.434565
            ],
            [
              129.099952,
              40.468013
            ],
            [
              129.187829,
              40.534857
            ],
            [
              129.319644,
              40.601635
            ],
            [
              129.363582,
              40.668347
            ],
            [
              129.407521,
              40.734992
            ],
            [
              129.495398,
              40.768289
            ],
            [
              129.627213,
              40.80157
            ],
            [
              129.71509,
              40.834834
            ],
            [
              129.759028,
              40.901312
            ],
            [
              129.802967,
              40.967723
            ],
            [
              129.846905,
              41.067215
            ],
            [
              129.890844,
              41.133459
            ],
            [
              129.890844,
              41.2327
            ],
            [
              129.934782,
              41.364787
            ],
            [
              129.978721,
              41.430731
            ],
            [
              129.978721,
              41.52952
            ],
            [
              130.022659,
              41.595296
            ],
            [
              130.022659,
              41.693835
            ],
            [
              130.066597,
              41.792223
            ],
            [
              130.110536,
              41.857731
            ],
            [
              130.154474,
              41.923172
            ],
            [
              130.242351,
              41.955867
            ],
            [
              130.330228,
              41.988546
            ],
            [
              130.374167,
              42.053853
            ],
            [
              130.462043,
              42.086481
            ],
            [
              130.505982,
              42.151688
            ],
            [
              130.593859,
              42.184266
            ],
            [
              130.681736,
              42.216827
            ],
            [
              130.769613,
              42.249371
            ],
            [
              130.857489,
              42.281899
            ],
            [
              130.945366,
              42.346904
            ],
            [
              131.033243,
              42.379381
            ],
            [
              131.12112,
              42.444285
            ],
            [
              131.165059,
              42.509123
            ],
            [
              131.252935,
              42.606252
            ],
            [
              131.340812,
              42.703231
            ],
            [
              131.472628,
              42.8323
            ],
            [
              131.516566,
              42.896734
            ],
            [
              131.604443,
              42.9611
            ],
            [
              131.69232,
              43.025399
            ],
            [
              131.780197,
              43.089631
            ],
            [
              131.868074,
              43.121722
            ],
            [
              131.95595,
              43.153796
            ],
            [
              132.087766,
              43.153796
            ],
            [
              132.219581,
              43.121722
            ],
            [
              132.351396,
              43.121722
            ],
            [
              132.52715,
              43.089631
            ],
            [
              132.658966,
              43.089631
            ],
            [
              132.746842,
              43.057524
            ],
            [
              132.878658,
              43.057524
            ],
            [
              133.010473,
              43.057524
            ],
            [
              133.186227,
              43.057524
            ],
            [
              133.274104,
              43.025399
            ],
            [
              133.405919,
              43.025399
            ],
            [
              133.581673,
              43.025399
            ],
            [
              133.713488,
              43.025399
            ],
            [
              133.845304,
              43.025399
            ],
            [
              133.977119,
              43.057524
            ],
            [
              134.064996,
              43.025399
            ],
            [
              134.196811,
              43.025399
            ],
            [
              134.284688,
              43.057524
            ],
            [
              134.372565,
              43.089631
            ],
            [
              134.460442,
              43.153796
            ],
            [
              134.50438,
              43.217893
            ],
            [
              134.636196,
              43.313913
            ],
            [
              134.724072,
              43.409782
            ],
            [
              134.811949,
              43.47361
            ],
            [
              134.855888,
              43.537371
            ],
            [
              134.899826,
              43.601064
            ],
            [
              134.943765,
              43.66469
            ],
            [
              135.031641,
              43.728249
            ],
            [
              135.07558,
              43.79174
            ],
            [
              135.163457,
              43.855164
            ],
            [
              135.207395,
              43.918521
            ],
            [
              135.251334,
              44.013429
            ],
            [
              135.295272,
              44.076617
            ],
            [
              135.339211,
              44.139738
            ],
            [
              135.383149,
              44.202791
            ],
            [
              135.427087,
              44.297244
            ],
            [
              135.427087,
              44.391546
            ],
            [
              135.471026,
              44.45433
            ],
            [
              135.514964,
              44.517046
            ],
            [
              135.558903,
              44.579695
            ],
            [
              135.64678,
              44.642276
            ],
            [
              135.734657,
              44.70479
            ],
            [
              135.778595,
              44.767236
            ],
            [
              135.866472,
              44.829615
            ],
            [
              135.954349,
              44.891927
            ],
            [
              136.086164,
              44.954171
            ],
            [
              136.130103,
              45.016348
            ],
            [
              136.261918,
              45.078457
            ],
            [
              136.349795,
              45.140499
            ],
            [
              136.437672,
              45.202473
            ],
            [
              136.525549,
              45.26438
            ],
            [
              136.613425,
              45.295308
            ],
            [
              136.745241,
              45.387991
            ],
            [
              136.833118,
              45.449696
            ],
            [
              136.920995,
              45.480523
            ],
            [
              137.008871,
              45.542126
            ],
            [
              137.096748,
              45.572903
            ],
            [
              137.184625,
              45.603663
            ],
            [
              137.228564,
              45.665131
            ],
            [
              137.272502,
              45.726532
            ],
            [
              137.360379,
              45.757208
            ],
            [
              137.404317,
              45.818508
            ],
            [
              137.536133,
              45.87974
            ],
            [
              137.62401,
              45.940906
            ],
            [
              137.667948,
              46.002004
            ],
            [
              137.667948,
              46.093524
            ],
            [
              137.711886,
              46.154453
            ],
            [
              137.755825,
              46.215315
            ],
            [
              137.799763,
              46.27611
            ],
            [
              137.843702,
              46.367175
            ],
            [
              137.931579,
              46.427802
            ],
            [
              137.975517,
              46.488361
            ],
            [
              138.019456,
              46.548852
            ],
            [
              138.107332,
              46.639463
            ],
            [
              138.195209,
              46.760042
            ],
            [
              138.239148,
              46.820231
            ],
            [
              138.327025,
              46.880352
            ],
            [
              138.45884,
              47.03036
            ],
            [
              138.502778,
              47.090246
            ],
            [
              138.634594,
              47.179949
            ],
            [
              138.678532,
              47.299317
            ],
            [
              138.722471,
              47.3589
            ],
            [
              138.766409,
              47.418416
            ],
            [
              138.810348,
              47.507564
            ],
            [
              138.898224,
              47.59656
            ],
            [
              138.942163,
              47.655808
            ],
            [
              138.986101,
              47.714988
            ],
            [
              139.03004,
              47.774101
            ],
            [
              139.073978,
              47.833146
            ],
            [
              139.117917,
              47.892125
            ],
            [
              139.205794,
              47.921589
            ],
            [
              139.29367,
              47.980467
            ],
            [
              139.381547,
              48.039278
            ],
            [
              139.469424,
              48.127369
            ],
            [
              139.60124,
              48.186013
            ],
            [
              139.689116,
              48.215309
            ],
            [
              139.733055,
              48.273852
            ],
            [
              139.776993,
              48.332328
            ],
            [
              139.820932,
              48.390737
            ],
            [
              139.86487,
              48.449079
            ],
            [
              139.908809,
              48.507353
            ],
            [
              139.952747,
              48.565561
            ],
            [
              140.040624,
              48.623703
            ],
            [
              140.128501,
              48.710789
            ],
            [
              140.172439,
              48.82667
            ],
            [
              140.216378,
              48.88451
            ],
            [
              140.304255,
              48.99999
            ],
            [
              140.348193,
              49.115203
            ],
            [
              140.43607,
              49.172709
            ],
            [
              140.523947,
              49.201437
            ],
            [
              140.567885,
              49.287521
            ],
            [
              140.611824,
              49.344827
            ],
            [
              140.655762,
              49.402067
            ],
            [
              140.699701,
              49.544874
            ],
            [
              140.743639,
              49.60188
            ],
            [
              140.743639,
              49.687265
            ],
            [
              140.787577,
              49.7725
            ],
            [
              140.787577,
              49.885914
            ],
            [
              140.831516,
              49.942521
            ],
            [
              140.831516,
              50.027308
            ],
            [
              140.831516,
              50.111944
            ],
            [
              140.875454,
              50.168286
            ],
            [
              140.875454,
              50.252674
            ],
            [
              140.875454,
              50.336913
            ],
            [
              140.875454,
              50.421003
            ],
            [
              140.919393,
              50.504943
            ],
            [
              140.919393,
              50.588735
            ],
            [
              140.963331,
              50.672378
            ],
            [
              140.963331,
              50.755872
            ],
            [
              140.963331,
              50.839218
            ],
            [
              140.963331,
              50.922415
            ],
            [
              140.963331,
              51.005463
            ],
            [
              140.963331,
              51.088363
            ],
            [
              141.00727,
              51.143547
            ],
            [
              141.00727,
              51.2262
            ],
            [
              141.095147,
              51.281219
            ],
            [
              141.139085,
              51.336173
            ],
            [
              141.183023,
              51.391061
            ],
            [
              141.226962,
              51.47327
            ],
            [
              141.314839,
              51.55533
            ],
            [
              141.358777,
              51.637243
            ],
            [
              141.402716,
              51.69177
            ],
            [
              141.402716,
              51.773437
            ],
            [
              141.446654,
              51.827799
            ],
            [
              141.446654,
              51.90922
            ],
            [
              141.446654,
              52.017552
            ],
            [
              141.446654,
              52.09863
            ],
            [
              141.490593,
              52.17956
            ],
            [
              141.490593,
              52.260343
            ],
            [
              141.490593,
              52.34098
            ],
            [
              141.490593,
              52.421469
            ],
            [
              141.490593,
              52.528561
            ],
            [
              141.490593,
              52.662059
            ],
            [
              141.490593,
              52.768564
            ],
            [
              141.490593,
              52.848273
            ],
            [
              141.490593,
              52.954324
            ],
            [
              141.490593,
              53.033692
            ],
            [
              141.490593,
              53.112914
            ],
            [
              141.490593,
              53.19199
            ],
            [
              141.490593,
              53.270921
            ],
            [
              141.490593,
              53.349707
            ],
            [
              141.490593,
              53.428347
            ],
            [
              141.446654,
              53.480693
            ],
            [
              141.2709,
              53.532974
            ],
            [
              141.139085,
              53.611276
            ],
            [
              141.051208,
              53.663396
            ],
            [
              140.963331,
              53.689432
            ],
            [
              140.919393,
              53.741456
            ],
            [
              140.831516,
              53.793416
            ],
            [
              140.743639,
              53.819371
            ],
            [
              140.699701,
              53.871235
            ],
            [
              140.611824,
              53.897142
            ],
            [
              140.523947,
              53.923033
            ],
            [
              140.43607,
              53.948909
            ],
            [
              140.348193,
              53.974768
            ],
            [
              140.260316,
              54.026439
            ],
            [
              140.172439,
              54.05225
            ],
            [
              140.084562,
              54.103824
            ],
            [
              139.996686,
              54.155335
            ],
            [
              139.908809,
              54.181066
            ],
            [
              139.86487,
              54.23248
            ],
            [
              139.733055,
              54.23248
            ],
            [
              139.60124,
              54.23248
            ],
            [
              139.469424,
              54.23248
            ],
            [
              139.29367,
              54.206781
            ],
            [
              139.117917,
              54.181066
            ],
            [
              139.03004,
              54.155335
            ],
            [
              138.854286,
              54.129587
            ],
            [
              138.722471,
              54.05225
            ],
            [
              138.590655,
              54.000611
            ],
            [
              138.502778,
              53.948909
            ],
            [
              138.327025,
              53.897142
            ],
            [
              138.195209,
              53.819371
            ],
            [
              138.107332,
              53.767444
            ],
            [
              137.975517,
              53.715452
            ],
            [
              137.799763,
              53.663396
            ],
            [
              137.711886,
              53.637344
            ],
            [
              137.580071,
              53.637344
            ],
            [
              137.448256,
              53.637344
            ],
            [
              137.316441,
              53.637344
            ],
            [
              137.140687,
              53.637344
            ],
            [
              136.964933,
              53.663396
            ],
            [
              136.789179,
              53.689432
            ],
            [
              136.657364,
              53.689432
            ],
            [
              136.569487,
              53.715452
            ],
            [
              136.437672,
              53.741456
            ],
            [
              136.261918,
              53.793416
            ],
            [
              136.130103,
              53.819371
            ],
            [
              135.954349,
              53.871235
            ],
            [
              135.778595,
              53.871235
            ],
            [
              135.690718,
              53.923033
            ],
            [
              135.602841,
              53.948909
            ],
            [
              135.514964,
              53.974768
            ],
            [
              135.383149,
              54.000611
            ],
            [
              135.295272,
              54.026439
            ],
            [
              135.119518,
              54.05225
            ],
            [
              134.987703,
              54.078045
            ],
            [
              134.768011,
              54.129587
            ],
            [
              134.636196,
              54.155335
            ],
            [
              134.50438,
              54.181066
            ],
            [
              134.328626,
              54.206781
            ],
            [
              134.064996,
              54.258163
            ],
            [
              133.889242,
              54.28383
            ],
            [
              133.757427,
              54.309482
            ],
            [
              133.66955,
              54.335117
            ],
            [
              133.581673,
              54.386339
            ],
            [
              133.493796,
              54.437498
            ],
            [
              133.405919,
              54.463053
            ],
            [
              133.318042,
              54.488593
            ],
            [
              133.230165,
              54.514116
            ],
            [
              133.09835,
              54.565116
            ],
            [
              132.966535,
              54.616051
            ],
            [
              132.834719,
              54.616051
            ],
            [
              132.658966,
              54.666923
            ],
            [
              132.52715,
              54.666923
            ],
            [
              132.439273,
              54.717731
            ],
            [
              132.351396,
              54.743111
            ],
            [
              132.26352,
              54.768476
            ],
            [
              132.131704,
              54.768476
            ],
            [
              131.999889,
              54.768476
            ],
            [
              131.868074,
              54.768476
            ],
            [
              131.736258,
              54.768476
            ],
            [
              131.604443,
              54.768476
            ],
            [
              131.472628,
              54.768476
            ],
            [
              131.296874,
              54.768476
            ],
            [
              131.165059,
              54.768476
            ],
            [
              131.033243,
              54.768476
            ],
            [
              130.901428,
              54.768476
            ],
            [
              130.813551,
              54.743111
            ],
            [
              130.681736,
              54.743111
            ],
            [
              130.593859,
              54.717731
            ],
            [
              130.54992,
              54.692335
            ],
            [
              130.54992,
              54.666923
            ]
          ]
        ]
      }
    }
  ]
}